,STATE,ZIP,PHONE,lat,long,Zip_Code_State,STREET
0,CA,90044,(321) 111-2222,33,-118,90044 - CA,Los Angeles
1,CA,12345,(321) 111-2222,33,-118,12345 - CA,12345 Something BlvdLos Angeles
2,CA,12346,(321) 111-2222,33,-118,12346 - CA,12345 Something BlvdLos Angeles
3,CA,12347,(321) 111-2222,33,-118,12347 - CA,12345 Something BlvdLos Angeles
4,CA,12348,(321) 111-2222,33,-118,12348 - CA,12345 Something BlvdLos Angeles
5,CA,12349,(321) 111-2222,33,-118,12349 - CA,12345 Something BlvdLos Angeles
6,CA,12350,(321) 111-2222,33,-118,12350 - CA,12345 Something BlvdLos Angeles
7,CA,12351,(321) 111-2222,33,-118,12351 - CA,12345 Something BlvdLos Angeles
8,CA,12352,(321) 111-2222,33,-118,12352 - CA,12345 Something BlvdLos Angeles
9,CA,12353,(321) 111-2222,33,-118,12353 - CA,12345 Something BlvdLos Angeles
10,CA,12354,(321) 111-2222,33,-118,12354 - CA,12345 Something BlvdLos Angeles
11,CA,12355,(321) 111-2222,33,-118,12355 - CA,12345 Something BlvdLos Angeles
12,CA,12356,(321) 111-2222,33,-118,12356 - CA,12345 Something BlvdLos Angeles
13,CA,12357,(321) 111-2222,33,-118,12357 - CA,12345 Something BlvdLos Angeles
14,CA,12358,(321) 111-2222,33,-118,12358 - CA,12345 Something BlvdLos Angeles
15,CA,12359,(321) 111-2222,33,-118,12359 - CA,12345 Something BlvdLos Angeles
16,CA,12360,(321) 111-2222,33,-118,12360 - CA,12345 Something BlvdLos Angeles
17,CA,12361,(321) 111-2222,33,-118,12361 - CA,12345 Something BlvdLos Angeles
18,CA,12362,(321) 111-2222,33,-118,12362 - CA,12345 Something BlvdLos Angeles
19,CA,12363,(321) 111-2222,33,-118,12363 - CA,12345 Something BlvdLos Angeles
20,CA,12364,(321) 111-2222,33,-118,12364 - CA,12345 Something BlvdLos Angeles
21,CA,12365,(321) 111-2222,33,-118,12365 - CA,12345 Something BlvdLos Angeles
22,CA,12366,(321) 111-2222,33,-118,12366 - CA,12345 Something BlvdLos Angeles
23,CA,12367,(321) 111-2222,33,-118,12367 - CA,12345 Something BlvdLos Angeles
24,CA,12368,(321) 111-2222,33,-118,12368 - CA,12345 Something BlvdLos Angeles
25,CA,12369,(321) 111-2222,33,-118,12369 - CA,12345 Something BlvdLos Angeles
26,CA,12370,(321) 111-2222,33,-118,12370 - CA,12345 Something BlvdLos Angeles
27,CA,12371,(321) 111-2222,33,-118,12371 - CA,12345 Something BlvdLos Angeles
28,CA,12372,(321) 111-2222,33,-118,12372 - CA,12345 Something BlvdLos Angeles
29,CA,12373,(321) 111-2222,33,-118,12373 - CA,12345 Something BlvdLos Angeles
30,CA,12374,(321) 111-2222,33,-118,12374 - CA,12345 Something BlvdLos Angeles
31,CA,12375,(321) 111-2222,33,-118,12375 - CA,12345 Something BlvdLos Angeles
32,CA,12376,(321) 111-2222,33,-118,12376 - CA,12345 Something BlvdLos Angeles
33,CA,12377,(321) 111-2222,33,-118,12377 - CA,12345 Something BlvdLos Angeles
34,CA,12378,(321) 111-2222,33,-118,12378 - CA,12345 Something BlvdLos Angeles
35,CA,12379,(321) 111-2222,33,-118,12379 - CA,12345 Something BlvdLos Angeles
36,CA,12380,(321) 111-2222,33,-118,12380 - CA,12345 Something BlvdLos Angeles
37,CA,12381,(321) 111-2222,33,-118,12381 - CA,12345 Something BlvdLos Angeles
38,CA,12382,(321) 111-2222,33,-118,12382 - CA,12345 Something BlvdLos Angeles
39,CA,12383,(321) 111-2222,33,-118,12383 - CA,12345 Something BlvdLos Angeles
40,CA,12384,(321) 111-2222,33,-118,12384 - CA,12345 Something BlvdLos Angeles
41,CA,12385,(321) 111-2222,33,-118,12385 - CA,12345 Something BlvdLos Angeles
42,CA,12386,(321) 111-2222,33,-118,12386 - CA,12345 Something BlvdLos Angeles
43,CA,12387,(321) 111-2222,33,-118,12387 - CA,12345 Something BlvdLos Angeles
44,CA,12388,(321) 111-2222,33,-118,12388 - CA,12345 Something BlvdLos Angeles
45,CA,12389,(321) 111-2222,33,-118,12389 - CA,12345 Something BlvdLos Angeles
46,CA,12390,(321) 111-2222,33,-118,12390 - CA,12345 Something BlvdLos Angeles
47,CA,12391,(321) 111-2222,33,-118,12391 - CA,12345 Something BlvdLos Angeles
48,CA,12392,(321) 111-2222,33,-118,12392 - CA,12345 Something BlvdLos Angeles
49,CA,12393,(321) 111-2222,33,-118,12393 - CA,12345 Something BlvdLos Angeles
50,CA,12394,(321) 111-2222,33,-118,12394 - CA,12345 Something BlvdLos Angeles
51,CA,12395,(321) 111-2222,33,-118,12395 - CA,12345 Something BlvdLos Angeles
52,CA,12396,(321) 111-2222,33,-118,12396 - CA,12345 Something BlvdLos Angeles
53,CA,12397,(321) 111-2222,33,-118,12397 - CA,12345 Something BlvdLos Angeles
54,CA,12398,(321) 111-2222,33,-118,12398 - CA,12345 Something BlvdLos Angeles
55,CA,12399,(321) 111-2222,33,-118,12399 - CA,12345 Something BlvdLos Angeles
56,CA,12400,(321) 111-2222,33,-118,12400 - CA,12345 Something BlvdLos Angeles
57,CA,12401,(321) 111-2222,33,-118,12401 - CA,12345 Something BlvdLos Angeles
58,CA,12402,(321) 111-2222,33,-118,12402 - CA,12345 Something BlvdLos Angeles
59,CA,12403,(321) 111-2222,33,-118,12403 - CA,12345 Something BlvdLos Angeles
60,CA,12404,(321) 111-2222,33,-118,12404 - CA,12345 Something BlvdLos Angeles
61,CA,12405,(321) 111-2222,33,-118,12405 - CA,12345 Something BlvdLos Angeles
62,CA,12406,(321) 111-2222,33,-118,12406 - CA,12345 Something BlvdLos Angeles
63,CA,12407,(321) 111-2222,33,-118,12407 - CA,12345 Something BlvdLos Angeles
64,CA,12408,(321) 111-2222,33,-118,12408 - CA,12345 Something BlvdLos Angeles
65,CA,12409,(321) 111-2222,33,-118,12409 - CA,12345 Something BlvdLos Angeles
66,CA,12410,(321) 111-2222,33,-118,12410 - CA,12345 Something BlvdLos Angeles
67,CA,12411,(321) 111-2222,33,-118,12411 - CA,12345 Something BlvdLos Angeles
68,CA,12412,(321) 111-2222,33,-118,12412 - CA,12345 Something BlvdLos Angeles
69,CA,12413,(321) 111-2222,33,-118,12413 - CA,12345 Something BlvdLos Angeles
70,CA,12414,(321) 111-2222,33,-118,12414 - CA,12345 Something BlvdLos Angeles
71,CA,12415,(321) 111-2222,33,-118,12415 - CA,12345 Something BlvdLos Angeles
72,CA,12416,(321) 111-2222,33,-118,12416 - CA,12345 Something BlvdLos Angeles
73,CA,12417,(321) 111-2222,33,-118,12417 - CA,12345 Something BlvdLos Angeles
74,CA,12418,(321) 111-2222,33,-118,12418 - CA,12345 Something BlvdLos Angeles
75,CA,12419,(321) 111-2222,33,-118,12419 - CA,12345 Something BlvdLos Angeles
76,CA,12420,(321) 111-2222,33,-118,12420 - CA,12345 Something BlvdLos Angeles
77,CA,12421,(321) 111-2222,33,-118,12421 - CA,12345 Something BlvdLos Angeles
78,CA,12422,(321) 111-2222,33,-118,12422 - CA,12345 Something BlvdLos Angeles
79,CA,12423,(321) 111-2222,33,-118,12423 - CA,12345 Something BlvdLos Angeles
80,CA,12424,(321) 111-2222,33,-118,12424 - CA,12345 Something BlvdLos Angeles
81,CA,12425,(321) 111-2222,33,-118,12425 - CA,12345 Something BlvdLos Angeles
82,CA,12426,(321) 111-2222,33,-118,12426 - CA,12345 Something BlvdLos Angeles
83,CA,12427,(321) 111-2222,33,-118,12427 - CA,12345 Something BlvdLos Angeles
84,CA,12428,(321) 111-2222,33,-118,12428 - CA,12345 Something BlvdLos Angeles
85,CA,12429,(321) 111-2222,33,-118,12429 - CA,12345 Something BlvdLos Angeles
86,CA,12430,(321) 111-2222,33,-118,12430 - CA,12345 Something BlvdLos Angeles
87,CA,12431,(321) 111-2222,33,-118,12431 - CA,12345 Something BlvdLos Angeles
88,CA,12432,(321) 111-2222,33,-118,12432 - CA,12345 Something BlvdLos Angeles
89,CA,12433,(321) 111-2222,33,-118,12433 - CA,12345 Something BlvdLos Angeles
90,CA,12434,(321) 111-2222,33,-118,12434 - CA,12345 Something BlvdLos Angeles
91,CA,12435,(321) 111-2222,33,-118,12435 - CA,12345 Something BlvdLos Angeles
92,CA,12436,(321) 111-2222,33,-118,12436 - CA,12345 Something BlvdLos Angeles
93,CA,12437,(321) 111-2222,33,-118,12437 - CA,12345 Something BlvdLos Angeles
94,CA,12438,(321) 111-2222,33,-118,12438 - CA,12345 Something BlvdLos Angeles
95,CA,12439,(321) 111-2222,33,-118,12439 - CA,12345 Something BlvdLos Angeles
96,CA,12440,(321) 111-2222,33,-118,12440 - CA,12345 Something BlvdLos Angeles
97,CA,12441,(321) 111-2222,33,-118,12441 - CA,12345 Something BlvdLos Angeles
98,CA,12442,(321) 111-2222,33,-118,12442 - CA,12345 Something BlvdLos Angeles
99,CA,12443,(321) 111-2222,33,-118,12443 - CA,12345 Something BlvdLos Angeles
100,CA,12444,(321) 111-2222,33,-118,12444 - CA,12345 Something BlvdLos Angeles
101,CA,12445,(321) 111-2222,33,-118,12445 - CA,12345 Something BlvdLos Angeles
102,CA,12446,(321) 111-2222,33,-118,12446 - CA,12345 Something BlvdLos Angeles
103,CA,12447,(321) 111-2222,33,-118,12447 - CA,12345 Something BlvdLos Angeles
104,CA,12448,(321) 111-2222,33,-118,12448 - CA,12345 Something BlvdLos Angeles
105,CA,12449,(321) 111-2222,33,-118,12449 - CA,12345 Something BlvdLos Angeles
106,CA,12450,(321) 111-2222,33,-118,12450 - CA,12345 Something BlvdLos Angeles
107,CA,12451,(321) 111-2222,33,-118,12451 - CA,12345 Something BlvdLos Angeles
108,CA,12452,(321) 111-2222,33,-118,12452 - CA,12345 Something BlvdLos Angeles
109,CA,12453,(321) 111-2222,33,-118,12453 - CA,12345 Something BlvdLos Angeles
110,CA,12454,(321) 111-2222,33,-118,12454 - CA,12345 Something BlvdLos Angeles
111,CA,12455,(321) 111-2222,33,-118,12455 - CA,12345 Something BlvdLos Angeles
112,CA,12456,(321) 111-2222,33,-118,12456 - CA,12345 Something BlvdLos Angeles
113,CA,12457,(321) 111-2222,33,-118,12457 - CA,12345 Something BlvdLos Angeles
114,CA,12458,(321) 111-2222,33,-118,12458 - CA,12345 Something BlvdLos Angeles
115,CA,12459,(321) 111-2222,33,-118,12459 - CA,12345 Something BlvdLos Angeles
116,CA,12460,(321) 111-2222,33,-118,12460 - CA,12345 Something BlvdLos Angeles
117,CA,12461,(321) 111-2222,33,-118,12461 - CA,12345 Something BlvdLos Angeles
118,CA,12462,(321) 111-2222,33,-118,12462 - CA,12345 Something BlvdLos Angeles
119,CA,12463,(321) 111-2222,33,-118,12463 - CA,12345 Something BlvdLos Angeles
120,CA,12464,(321) 111-2222,33,-118,12464 - CA,12345 Something BlvdLos Angeles
121,CA,12465,(321) 111-2222,33,-118,12465 - CA,12345 Something BlvdLos Angeles
122,CA,12466,(321) 111-2222,33,-118,12466 - CA,12345 Something BlvdLos Angeles
123,CA,12467,(321) 111-2222,33,-118,12467 - CA,12345 Something BlvdLos Angeles
124,CA,12468,(321) 111-2222,33,-118,12468 - CA,12345 Something BlvdLos Angeles
125,CA,12469,(321) 111-2222,33,-118,12469 - CA,12345 Something BlvdLos Angeles
126,CA,12470,(321) 111-2222,33,-118,12470 - CA,12345 Something BlvdLos Angeles
127,CA,12471,(321) 111-2222,33,-118,12471 - CA,12345 Something BlvdLos Angeles
128,CA,12472,(321) 111-2222,33,-118,12472 - CA,12345 Something BlvdLos Angeles
129,CA,12473,(321) 111-2222,33,-118,12473 - CA,12345 Something BlvdLos Angeles
130,CA,12474,(321) 111-2222,33,-118,12474 - CA,12345 Something BlvdLos Angeles
131,CA,12475,(321) 111-2222,33,-118,12475 - CA,12345 Something BlvdLos Angeles
132,CA,12476,(321) 111-2222,33,-118,12476 - CA,12345 Something BlvdLos Angeles
133,CA,12477,(321) 111-2222,33,-118,12477 - CA,12345 Something BlvdLos Angeles
134,CA,12478,(321) 111-2222,33,-118,12478 - CA,12345 Something BlvdLos Angeles
135,CA,12479,(321) 111-2222,33,-118,12479 - CA,12345 Something BlvdLos Angeles
136,CA,12480,(321) 111-2222,33,-118,12480 - CA,12345 Something BlvdLos Angeles
137,CA,12481,(321) 111-2222,33,-118,12481 - CA,12345 Something BlvdLos Angeles
138,CA,12482,(321) 111-2222,33,-118,12482 - CA,12345 Something BlvdLos Angeles
139,CA,12483,(321) 111-2222,33,-118,12483 - CA,12345 Something BlvdLos Angeles
140,CA,12484,(321) 111-2222,33,-118,12484 - CA,12345 Something BlvdLos Angeles
141,CA,12485,(321) 111-2222,33,-118,12485 - CA,12345 Something BlvdLos Angeles
142,CA,12486,(321) 111-2222,33,-118,12486 - CA,12345 Something BlvdLos Angeles
143,CA,12487,(321) 111-2222,33,-118,12487 - CA,12345 Something BlvdLos Angeles
144,CA,12488,(321) 111-2222,33,-118,12488 - CA,12345 Something BlvdLos Angeles
145,CA,12489,(321) 111-2222,33,-118,12489 - CA,12345 Something BlvdLos Angeles
146,CA,12490,(321) 111-2222,33,-118,12490 - CA,12345 Something BlvdLos Angeles
147,CA,12491,(321) 111-2222,33,-118,12491 - CA,12345 Something BlvdLos Angeles
148,CA,12492,(321) 111-2222,33,-118,12492 - CA,12345 Something BlvdLos Angeles
149,CA,12493,(321) 111-2222,33,-118,12493 - CA,12345 Something BlvdLos Angeles
150,CA,12494,(321) 111-2222,33,-118,12494 - CA,12345 Something BlvdLos Angeles
151,CA,12495,(321) 111-2222,33,-118,12495 - CA,12345 Something BlvdLos Angeles
152,CA,12496,(321) 111-2222,33,-118,12496 - CA,12345 Something BlvdLos Angeles
153,CA,12497,(321) 111-2222,33,-118,12497 - CA,12345 Something BlvdLos Angeles
154,CA,12498,(321) 111-2222,33,-118,12498 - CA,12345 Something BlvdLos Angeles
155,CA,12499,(321) 111-2222,33,-118,12499 - CA,12345 Something BlvdLos Angeles
156,CA,12500,(321) 111-2222,33,-118,12500 - CA,12345 Something BlvdLos Angeles
157,CA,12501,(321) 111-2222,33,-118,12501 - CA,12345 Something BlvdLos Angeles
158,CA,12502,(321) 111-2222,33,-118,12502 - CA,12345 Something BlvdLos Angeles
159,CA,12503,(321) 111-2222,33,-118,12503 - CA,12345 Something BlvdLos Angeles
160,CA,12504,(321) 111-2222,33,-118,12504 - CA,12345 Something BlvdLos Angeles
161,CA,12505,(321) 111-2222,33,-118,12505 - CA,12345 Something BlvdLos Angeles
162,CA,12506,(321) 111-2222,33,-118,12506 - CA,12345 Something BlvdLos Angeles
163,CA,12507,(321) 111-2222,33,-118,12507 - CA,12345 Something BlvdLos Angeles
164,CA,12508,(321) 111-2222,33,-118,12508 - CA,12345 Something BlvdLos Angeles
165,CA,12509,(321) 111-2222,33,-118,12509 - CA,12345 Something BlvdLos Angeles
166,CA,12510,(321) 111-2222,33,-118,12510 - CA,12345 Something BlvdLos Angeles
167,CA,12511,(321) 111-2222,33,-118,12511 - CA,12345 Something BlvdLos Angeles
168,CA,12512,(321) 111-2222,33,-118,12512 - CA,12345 Something BlvdLos Angeles
169,CA,12513,(321) 111-2222,33,-118,12513 - CA,12345 Something BlvdLos Angeles
170,CA,12514,(321) 111-2222,33,-118,12514 - CA,12345 Something BlvdLos Angeles
171,CA,12515,(321) 111-2222,33,-118,12515 - CA,12345 Something BlvdLos Angeles
172,CA,12516,(321) 111-2222,33,-118,12516 - CA,12345 Something BlvdLos Angeles
173,CA,12517,(321) 111-2222,33,-118,12517 - CA,12345 Something BlvdLos Angeles
174,CA,12518,(321) 111-2222,33,-118,12518 - CA,12345 Something BlvdLos Angeles
175,CA,12519,(321) 111-2222,33,-118,12519 - CA,12345 Something BlvdLos Angeles
176,CA,12520,(321) 111-2222,33,-118,12520 - CA,12345 Something BlvdLos Angeles
177,CA,12521,(321) 111-2222,33,-118,12521 - CA,12345 Something BlvdLos Angeles
178,CA,12522,(321) 111-2222,33,-118,12522 - CA,12345 Something BlvdLos Angeles
179,CA,12523,(321) 111-2222,33,-118,12523 - CA,12345 Something BlvdLos Angeles
180,CA,12524,(321) 111-2222,33,-118,12524 - CA,12345 Something BlvdLos Angeles
181,CA,12525,(321) 111-2222,33,-118,12525 - CA,12345 Something BlvdLos Angeles
182,CA,12526,(321) 111-2222,33,-118,12526 - CA,12345 Something BlvdLos Angeles
183,CA,12527,(321) 111-2222,33,-118,12527 - CA,12345 Something BlvdLos Angeles
184,CA,12528,(321) 111-2222,33,-118,12528 - CA,12345 Something BlvdLos Angeles
185,CA,12529,(321) 111-2222,33,-118,12529 - CA,12345 Something BlvdLos Angeles
186,CA,12530,(321) 111-2222,33,-118,12530 - CA,12345 Something BlvdLos Angeles
187,CA,12531,(321) 111-2222,33,-118,12531 - CA,12345 Something BlvdLos Angeles
188,CA,12532,(321) 111-2222,33,-118,12532 - CA,12345 Something BlvdLos Angeles
189,CA,12533,(321) 111-2222,33,-118,12533 - CA,12345 Something BlvdLos Angeles
190,CA,12534,(321) 111-2222,33,-118,12534 - CA,12345 Something BlvdLos Angeles
191,CA,12535,(321) 111-2222,33,-118,12535 - CA,12345 Something BlvdLos Angeles
192,CA,12536,(321) 111-2222,33,-118,12536 - CA,12345 Something BlvdLos Angeles
193,CA,12537,(321) 111-2222,33,-118,12537 - CA,12345 Something BlvdLos Angeles
194,CA,12538,(321) 111-2222,33,-118,12538 - CA,12345 Something BlvdLos Angeles
195,CA,12539,(321) 111-2222,33,-118,12539 - CA,12345 Something BlvdLos Angeles
196,CA,12540,(321) 111-2222,33,-118,12540 - CA,12345 Something BlvdLos Angeles
197,CA,12541,(321) 111-2222,33,-118,12541 - CA,12345 Something BlvdLos Angeles
198,CA,12542,(321) 111-2222,33,-118,12542 - CA,12345 Something BlvdLos Angeles
199,CA,12543,(321) 111-2222,33,-118,12543 - CA,12345 Something BlvdLos Angeles
200,CA,12544,(321) 111-2222,33,-118,12544 - CA,12345 Something BlvdLos Angeles
201,CA,12545,(321) 111-2222,33,-118,12545 - CA,12345 Something BlvdLos Angeles
202,CA,12546,(321) 111-2222,33,-118,12546 - CA,12345 Something BlvdLos Angeles
203,CA,12547,(321) 111-2222,33,-118,12547 - CA,12345 Something BlvdLos Angeles
204,CA,12548,(321) 111-2222,33,-118,12548 - CA,12345 Something BlvdLos Angeles
205,CA,12549,(321) 111-2222,33,-118,12549 - CA,12345 Something BlvdLos Angeles
206,CA,12550,(321) 111-2222,33,-118,12550 - CA,12345 Something BlvdLos Angeles
207,CA,12551,(321) 111-2222,33,-118,12551 - CA,12345 Something BlvdLos Angeles
208,CA,12552,(321) 111-2222,33,-118,12552 - CA,12345 Something BlvdLos Angeles
209,CA,12553,(321) 111-2222,33,-118,12553 - CA,12345 Something BlvdLos Angeles
210,CA,12554,(321) 111-2222,33,-118,12554 - CA,12345 Something BlvdLos Angeles
211,CA,12555,(321) 111-2222,33,-118,12555 - CA,12345 Something BlvdLos Angeles
212,CA,12556,(321) 111-2222,33,-118,12556 - CA,12345 Something BlvdLos Angeles
213,CA,12557,(321) 111-2222,33,-118,12557 - CA,12345 Something BlvdLos Angeles
214,CA,12558,(321) 111-2222,33,-118,12558 - CA,12345 Something BlvdLos Angeles
215,CA,12559,(321) 111-2222,33,-118,12559 - CA,12345 Something BlvdLos Angeles
216,CA,12560,(321) 111-2222,33,-118,12560 - CA,12345 Something BlvdLos Angeles
217,CA,12561,(321) 111-2222,33,-118,12561 - CA,12345 Something BlvdLos Angeles
218,CA,12562,(321) 111-2222,33,-118,12562 - CA,12345 Something BlvdLos Angeles
219,CA,12563,(321) 111-2222,33,-118,12563 - CA,12345 Something BlvdLos Angeles
220,CA,12564,(321) 111-2222,33,-118,12564 - CA,12345 Something BlvdLos Angeles
221,CA,12565,(321) 111-2222,33,-118,12565 - CA,12345 Something BlvdLos Angeles
222,CA,12566,(321) 111-2222,33,-118,12566 - CA,12345 Something BlvdLos Angeles
223,CA,12567,(321) 111-2222,33,-118,12567 - CA,12345 Something BlvdLos Angeles
224,CA,12568,(321) 111-2222,33,-118,12568 - CA,12345 Something BlvdLos Angeles
225,CA,12569,(321) 111-2222,33,-118,12569 - CA,12345 Something BlvdLos Angeles
226,CA,12570,(321) 111-2222,33,-118,12570 - CA,12345 Something BlvdLos Angeles
227,CA,12571,(321) 111-2222,33,-118,12571 - CA,12345 Something BlvdLos Angeles
228,CA,12572,(321) 111-2222,33,-118,12572 - CA,12345 Something BlvdLos Angeles
229,CA,12573,(321) 111-2222,33,-118,12573 - CA,12345 Something BlvdLos Angeles
230,CA,12574,(321) 111-2222,33,-118,12574 - CA,12345 Something BlvdLos Angeles
231,CA,12575,(321) 111-2222,33,-118,12575 - CA,12345 Something BlvdLos Angeles
232,CA,54321,(321) 111-2222,33,-118,54321 - CA,54321 W BLABLA BlvdMonterey Park
233,CA,54322,(321) 111-2222,33,-118,54322 - CA,54321 W BLABLA BlvdMonterey Park
234,CA,54323,(321) 111-2222,33,-118,54323 - CA,54321 W BLABLA BlvdMonterey Park
235,CA,54324,(321) 111-2222,33,-118,54324 - CA,54321 W BLABLA BlvdMonterey Park
236,CA,54325,(321) 111-2222,33,-118,54325 - CA,54321 W BLABLA BlvdMonterey Park
237,CA,54326,(321) 111-2222,33,-118,54326 - CA,54321 W BLABLA BlvdMonterey Park
238,CA,54327,(321) 111-2222,33,-118,54327 - CA,54321 W BLABLA BlvdMonterey Park
239,CA,54328,(321) 111-2222,33,-118,54328 - CA,54321 W BLABLA BlvdMonterey Park
240,CA,54329,(321) 111-2222,33,-118,54329 - CA,54321 W BLABLA BlvdMonterey Park
241,CA,54330,(321) 111-2222,33,-118,54330 - CA,54321 W BLABLA BlvdMonterey Park
242,CA,54331,(321) 111-2222,33,-118,54331 - CA,54321 W BLABLA BlvdMonterey Park
243,CA,54332,(321) 111-2222,33,-118,54332 - CA,54321 W BLABLA BlvdMonterey Park
244,CA,54333,(321) 111-2222,33,-118,54333 - CA,54321 W BLABLA BlvdMonterey Park
245,CA,54334,(321) 111-2222,33,-118,54334 - CA,54321 W BLABLA BlvdMonterey Park
246,CA,54335,(321) 111-2222,33,-118,54335 - CA,54321 W BLABLA BlvdMonterey Park
247,CA,54336,(321) 111-2222,33,-118,54336 - CA,54321 W BLABLA BlvdMonterey Park
248,CA,54337,(321) 111-2222,33,-118,54337 - CA,54321 W BLABLA BlvdMonterey Park
249,CA,54338,(321) 111-2222,33,-118,54338 - CA,54321 W BLABLA BlvdMonterey Park
250,CA,54339,(321) 111-2222,33,-118,54339 - CA,54321 W BLABLA BlvdMonterey Park
251,CA,54340,(321) 111-2222,33,-118,54340 - CA,54321 W BLABLA BlvdMonterey Park
252,CA,54341,(321) 111-2222,33,-118,54341 - CA,54321 W BLABLA BlvdMonterey Park
253,CA,54342,(321) 111-2222,33,-118,54342 - CA,54321 W BLABLA BlvdMonterey Park
254,CA,54343,(321) 111-2222,33,-118,54343 - CA,54321 W BLABLA BlvdMonterey Park
255,CA,54344,(321) 111-2222,33,-118,54344 - CA,54321 W BLABLA BlvdMonterey Park
256,CA,54345,(321) 111-2222,33,-118,54345 - CA,54321 W BLABLA BlvdMonterey Park
257,CA,54346,(321) 111-2222,33,-118,54346 - CA,54321 W BLABLA BlvdMonterey Park
258,CA,54347,(321) 111-2222,33,-118,54347 - CA,54321 W BLABLA BlvdMonterey Park
259,CA,54348,(321) 111-2222,33,-118,54348 - CA,54321 W BLABLA BlvdMonterey Park
260,CA,54349,(321) 111-2222,33,-118,54349 - CA,54321 W BLABLA BlvdMonterey Park
261,CA,54350,(321) 111-2222,33,-118,54350 - CA,54321 W BLABLA BlvdMonterey Park
262,CA,54351,(321) 111-2222,33,-118,54351 - CA,54321 W BLABLA BlvdMonterey Park
263,CA,54352,(321) 111-2222,33,-118,54352 - CA,54321 W BLABLA BlvdMonterey Park
264,CA,54353,(321) 111-2222,33,-118,54353 - CA,54321 W BLABLA BlvdMonterey Park
265,CA,54354,(321) 111-2222,33,-118,54354 - CA,54321 W BLABLA BlvdMonterey Park
266,CA,54355,(321) 111-2222,33,-118,54355 - CA,54321 W BLABLA BlvdMonterey Park
267,CA,54356,(321) 111-2222,33,-118,54356 - CA,54321 W BLABLA BlvdMonterey Park
268,CA,54357,(321) 111-2222,33,-118,54357 - CA,54321 W BLABLA BlvdMonterey Park
269,CA,54358,(321) 111-2222,33,-118,54358 - CA,54321 W BLABLA BlvdMonterey Park
270,CA,54359,(321) 111-2222,33,-118,54359 - CA,54321 W BLABLA BlvdMonterey Park
271,CA,54360,(321) 111-2222,33,-118,54360 - CA,54321 W BLABLA BlvdMonterey Park
272,CA,54361,(321) 111-2222,33,-118,54361 - CA,54321 W BLABLA BlvdMonterey Park
273,CA,54362,(321) 111-2222,33,-118,54362 - CA,54321 W BLABLA BlvdMonterey Park
274,CA,54363,(321) 111-2222,33,-118,54363 - CA,54321 W BLABLA BlvdMonterey Park
275,CA,54364,(321) 111-2222,33,-118,54364 - CA,54321 W BLABLA BlvdMonterey Park
276,CA,54365,(321) 111-2222,33,-118,54365 - CA,54321 W BLABLA BlvdMonterey Park
277,CA,54366,(321) 111-2222,33,-118,54366 - CA,54321 W BLABLA BlvdMonterey Park
278,CA,54367,(321) 111-2222,33,-118,54367 - CA,54321 W BLABLA BlvdMonterey Park
279,CA,54368,(321) 111-2222,33,-118,54368 - CA,54321 W BLABLA BlvdMonterey Park
280,CA,54369,(321) 111-2222,33,-118,54369 - CA,54321 W BLABLA BlvdMonterey Park
281,CA,54370,(321) 111-2222,33,-118,54370 - CA,54321 W BLABLA BlvdMonterey Park
282,CA,54371,(321) 111-2222,33,-118,54371 - CA,54321 W BLABLA BlvdMonterey Park
283,CA,54372,(321) 111-2222,33,-118,54372 - CA,54321 W BLABLA BlvdMonterey Park
284,CA,54373,(321) 111-2222,33,-118,54373 - CA,54321 W BLABLA BlvdMonterey Park
285,CA,54374,(321) 111-2222,33,-118,54374 - CA,54321 W BLABLA BlvdMonterey Park
286,CA,54375,(321) 111-2222,33,-118,54375 - CA,54321 W BLABLA BlvdMonterey Park
287,CA,54376,(321) 111-2222,33,-118,54376 - CA,54321 W BLABLA BlvdMonterey Park
288,CA,54377,(321) 111-2222,33,-118,54377 - CA,54321 W BLABLA BlvdMonterey Park
289,CA,54378,(321) 111-2222,33,-118,54378 - CA,54321 W BLABLA BlvdMonterey Park
290,CA,54379,(321) 111-2222,33,-118,54379 - CA,54321 W BLABLA BlvdMonterey Park
291,CA,54380,(321) 111-2222,33,-118,54380 - CA,54321 W BLABLA BlvdMonterey Park
292,CA,54381,(321) 111-2222,33,-118,54381 - CA,54321 W BLABLA BlvdMonterey Park
293,CA,54382,(321) 111-2222,33,-118,54382 - CA,54321 W BLABLA BlvdMonterey Park
294,CA,54383,(321) 111-2222,33,-118,54383 - CA,54321 W BLABLA BlvdMonterey Park
295,CA,54384,(321) 111-2222,33,-118,54384 - CA,54321 W BLABLA BlvdMonterey Park
296,CA,54385,(321) 111-2222,33,-118,54385 - CA,54321 W BLABLA BlvdMonterey Park
297,CA,54386,(321) 111-2222,33,-118,54386 - CA,54321 W BLABLA BlvdMonterey Park
298,CA,54387,(321) 111-2222,33,-118,54387 - CA,54321 W BLABLA BlvdMonterey Park
299,CA,54388,(321) 111-2222,33,-118,54388 - CA,54321 W BLABLA BlvdMonterey Park
300,CA,54389,(321) 111-2222,33,-118,54389 - CA,54321 W BLABLA BlvdMonterey Park
301,CA,54390,(321) 111-2222,33,-118,54390 - CA,54321 W BLABLA BlvdMonterey Park
302,CA,54391,(321) 111-2222,33,-118,54391 - CA,54321 W BLABLA BlvdMonterey Park
303,CA,54392,(321) 111-2222,33,-118,54392 - CA,54321 W BLABLA BlvdMonterey Park
304,CA,54393,(321) 111-2222,33,-118,54393 - CA,54321 W BLABLA BlvdMonterey Park
305,CA,54394,(321) 111-2222,33,-118,54394 - CA,54321 W BLABLA BlvdMonterey Park
306,CA,54395,(321) 111-2222,33,-118,54395 - CA,54321 W BLABLA BlvdMonterey Park
307,CA,54396,(321) 111-2222,33,-118,54396 - CA,54321 W BLABLA BlvdMonterey Park
308,CA,54397,(321) 111-2222,33,-118,54397 - CA,54321 W BLABLA BlvdMonterey Park
309,CA,54398,(321) 111-2222,33,-118,54398 - CA,54321 W BLABLA BlvdMonterey Park
310,CA,54399,(321) 111-2222,33,-118,54399 - CA,54321 W BLABLA BlvdMonterey Park
311,CA,54400,(321) 111-2222,33,-118,54400 - CA,54321 W BLABLA BlvdMonterey Park
312,CA,54401,(321) 111-2222,33,-118,54401 - CA,54321 W BLABLA BlvdMonterey Park
313,CA,54402,(321) 111-2222,33,-118,54402 - CA,54321 W BLABLA BlvdMonterey Park
314,CA,54403,(321) 111-2222,33,-118,54403 - CA,54321 W BLABLA BlvdMonterey Park
315,CA,54404,(321) 111-2222,33,-118,54404 - CA,54321 W BLABLA BlvdMonterey Park
316,CA,54405,(321) 111-2222,33,-118,54405 - CA,54321 W BLABLA BlvdMonterey Park
317,CA,54406,(321) 111-2222,33,-118,54406 - CA,54321 W BLABLA BlvdMonterey Park
318,CA,54407,(321) 111-2222,33,-118,54407 - CA,54321 W BLABLA BlvdMonterey Park
319,CA,54408,(321) 111-2222,33,-118,54408 - CA,54321 W BLABLA BlvdMonterey Park
320,CA,54409,(321) 111-2222,33,-118,54409 - CA,54321 W BLABLA BlvdMonterey Park
321,CA,54410,(321) 111-2222,33,-118,54410 - CA,54321 W BLABLA BlvdMonterey Park
322,CA,54411,(321) 111-2222,33,-118,54411 - CA,54321 W BLABLA BlvdMonterey Park
323,CA,54412,(321) 111-2222,33,-118,54412 - CA,54321 W BLABLA BlvdMonterey Park
324,CA,54413,(321) 111-2222,33,-118,54413 - CA,54321 W BLABLA BlvdMonterey Park
325,CA,54414,(321) 111-2222,33,-118,54414 - CA,54321 W BLABLA BlvdMonterey Park
326,CA,54415,(321) 111-2222,33,-118,54415 - CA,54321 W BLABLA BlvdMonterey Park
327,CA,54416,(321) 111-2222,33,-118,54416 - CA,54321 W BLABLA BlvdMonterey Park
328,CA,54417,(321) 111-2222,33,-118,54417 - CA,54321 W BLABLA BlvdMonterey Park
329,CA,54418,(321) 111-2222,33,-118,54418 - CA,54321 W BLABLA BlvdMonterey Park
330,CA,54419,(321) 111-2222,33,-118,54419 - CA,54321 W BLABLA BlvdMonterey Park
331,CA,54420,(321) 111-2222,33,-118,54420 - CA,54321 W BLABLA BlvdMonterey Park
332,CA,54421,(321) 111-2222,33,-118,54421 - CA,54321 W BLABLA BlvdMonterey Park
333,CA,54422,(321) 111-2222,33,-118,54422 - CA,54321 W BLABLA BlvdMonterey Park
334,CA,54423,(321) 111-2222,33,-118,54423 - CA,54321 W BLABLA BlvdMonterey Park
335,CA,54424,(321) 111-2222,33,-118,54424 - CA,54321 W BLABLA BlvdMonterey Park
336,CA,54425,(321) 111-2222,33,-118,54425 - CA,54321 W BLABLA BlvdMonterey Park
337,CA,54426,(321) 111-2222,33,-118,54426 - CA,54321 W BLABLA BlvdMonterey Park
338,CA,54427,(321) 111-2222,33,-118,54427 - CA,54321 W BLABLA BlvdMonterey Park
339,CA,54428,(321) 111-2222,33,-118,54428 - CA,54321 W BLABLA BlvdMonterey Park
340,CA,54429,(321) 111-2222,33,-118,54429 - CA,54321 W BLABLA BlvdMonterey Park
341,CA,54430,(321) 111-2222,33,-118,54430 - CA,54321 W BLABLA BlvdMonterey Park
342,CA,54431,(321) 111-2222,33,-118,54431 - CA,54321 W BLABLA BlvdMonterey Park
343,CA,54432,(321) 111-2222,33,-118,54432 - CA,54321 W BLABLA BlvdMonterey Park
344,CA,54433,(321) 111-2222,33,-118,54433 - CA,54321 W BLABLA BlvdMonterey Park
345,CA,54434,(321) 111-2222,33,-118,54434 - CA,54321 W BLABLA BlvdMonterey Park
346,CA,54435,(321) 111-2222,33,-118,54435 - CA,54321 W BLABLA BlvdMonterey Park
347,CA,54436,(321) 111-2222,33,-118,54436 - CA,54321 W BLABLA BlvdMonterey Park
348,CA,54437,(321) 111-2222,33,-118,54437 - CA,54321 W BLABLA BlvdMonterey Park
349,CA,54438,(321) 111-2222,33,-118,54438 - CA,54321 W BLABLA BlvdMonterey Park
350,CA,54439,(321) 111-2222,33,-118,54439 - CA,54321 W BLABLA BlvdMonterey Park
351,CA,54440,(321) 111-2222,33,-118,54440 - CA,54321 W BLABLA BlvdMonterey Park
352,CA,54441,(321) 111-2222,33,-118,54441 - CA,54321 W BLABLA BlvdMonterey Park
353,CA,54442,(321) 111-2222,33,-118,54442 - CA,54321 W BLABLA BlvdMonterey Park
354,CA,54443,(321) 111-2222,33,-118,54443 - CA,54321 W BLABLA BlvdMonterey Park
355,CA,54444,(321) 111-2222,33,-118,54444 - CA,54321 W BLABLA BlvdMonterey Park
356,CA,54445,(321) 111-2222,33,-118,54445 - CA,54321 W BLABLA BlvdMonterey Park
357,CA,54446,(321) 111-2222,33,-118,54446 - CA,54321 W BLABLA BlvdMonterey Park
358,CA,54447,(321) 111-2222,33,-118,54447 - CA,54321 W BLABLA BlvdMonterey Park
359,CA,54448,(321) 111-2222,33,-118,54448 - CA,54321 W BLABLA BlvdMonterey Park
360,CA,54449,(321) 111-2222,33,-118,54449 - CA,54321 W BLABLA BlvdMonterey Park
361,CA,54450,(321) 111-2222,33,-118,54450 - CA,54321 W BLABLA BlvdMonterey Park
362,CA,54451,(321) 111-2222,33,-118,54451 - CA,54321 W BLABLA BlvdMonterey Park
363,CA,54452,(321) 111-2222,33,-118,54452 - CA,54321 W BLABLA BlvdMonterey Park
364,CA,54453,(321) 111-2222,33,-118,54453 - CA,54321 W BLABLA BlvdMonterey Park
365,CA,54454,(321) 111-2222,33,-118,54454 - CA,54321 W BLABLA BlvdMonterey Park
366,CA,54455,(321) 111-2222,33,-118,54455 - CA,54321 W BLABLA BlvdMonterey Park
367,CA,54456,(321) 111-2222,33,-118,54456 - CA,54321 W BLABLA BlvdMonterey Park
368,CA,54457,(321) 111-2222,33,-118,54457 - CA,54321 W BLABLA BlvdMonterey Park
369,CA,54458,(321) 111-2222,33,-118,54458 - CA,54321 W BLABLA BlvdMonterey Park
370,CA,54459,(321) 111-2222,33,-118,54459 - CA,54321 W BLABLA BlvdMonterey Park
371,CA,54460,(321) 111-2222,33,-118,54460 - CA,54321 W BLABLA BlvdMonterey Park
372,CA,54461,(321) 111-2222,33,-118,54461 - CA,54321 W BLABLA BlvdMonterey Park
373,CA,54462,(321) 111-2222,33,-118,54462 - CA,54321 W BLABLA BlvdMonterey Park
374,CA,54463,(321) 111-2222,33,-118,54463 - CA,54321 W BLABLA BlvdMonterey Park
375,CA,54464,(321) 111-2222,33,-118,54464 - CA,54321 W BLABLA BlvdMonterey Park
376,CA,54465,(321) 111-2222,33,-118,54465 - CA,54321 W BLABLA BlvdMonterey Park
377,CA,54466,(321) 111-2222,33,-118,54466 - CA,54321 W BLABLA BlvdMonterey Park
378,CA,54467,(321) 111-2222,33,-118,54467 - CA,54321 W BLABLA BlvdMonterey Park
379,CA,54468,(321) 111-2222,33,-118,54468 - CA,54321 W BLABLA BlvdMonterey Park
380,CA,54469,(321) 111-2222,33,-118,54469 - CA,54321 W BLABLA BlvdMonterey Park
381,CA,54470,(321) 111-2222,33,-118,54470 - CA,54321 W BLABLA BlvdMonterey Park
382,CA,54471,(321) 111-2222,33,-118,54471 - CA,54321 W BLABLA BlvdMonterey Park
383,CA,54472,(321) 111-2222,33,-118,54472 - CA,54321 W BLABLA BlvdMonterey Park
384,CA,54473,(321) 111-2222,33,-118,54473 - CA,54321 W BLABLA BlvdMonterey Park
385,CA,54474,(321) 111-2222,33,-118,54474 - CA,54321 W BLABLA BlvdMonterey Park
386,CA,54475,(321) 111-2222,33,-118,54475 - CA,54321 W BLABLA BlvdMonterey Park
387,CA,54476,(321) 111-2222,33,-118,54476 - CA,54321 W BLABLA BlvdMonterey Park
388,CA,54477,(321) 111-2222,33,-118,54477 - CA,54321 W BLABLA BlvdMonterey Park
389,CA,54478,(321) 111-2222,33,-118,54478 - CA,54321 W BLABLA BlvdMonterey Park
390,CA,54479,(321) 111-2222,33,-118,54479 - CA,54321 W BLABLA BlvdMonterey Park
391,CA,54480,(321) 111-2222,33,-118,54480 - CA,54321 W BLABLA BlvdMonterey Park
392,CA,54481,(321) 111-2222,33,-118,54481 - CA,54321 W BLABLA BlvdMonterey Park
393,CA,54482,(321) 111-2222,33,-118,54482 - CA,54321 W BLABLA BlvdMonterey Park
394,CA,54483,(321) 111-2222,33,-118,54483 - CA,54321 W BLABLA BlvdMonterey Park
395,CA,54484,(321) 111-2222,33,-118,54484 - CA,54321 W BLABLA BlvdMonterey Park
396,CA,54485,(321) 111-2222,33,-118,54485 - CA,54321 W BLABLA BlvdMonterey Park
397,CA,54486,(321) 111-2222,33,-118,54486 - CA,54321 W BLABLA BlvdMonterey Park
398,CA,54487,(321) 111-2222,33,-118,54487 - CA,54321 W BLABLA BlvdMonterey Park
399,CA,54488,(321) 111-2222,33,-118,54488 - CA,54321 W BLABLA BlvdMonterey Park
400,CA,54489,(321) 111-2222,33,-118,54489 - CA,54321 W BLABLA BlvdMonterey Park
401,CA,54490,(321) 111-2222,33,-118,54490 - CA,54321 W BLABLA BlvdMonterey Park
402,CA,54491,(321) 111-2222,33,-118,54491 - CA,54321 W BLABLA BlvdMonterey Park
403,CA,54492,(321) 111-2222,33,-118,54492 - CA,54321 W BLABLA BlvdMonterey Park
404,CA,54493,(321) 111-2222,33,-118,54493 - CA,54321 W BLABLA BlvdMonterey Park
405,CA,54494,(321) 111-2222,33,-118,54494 - CA,54321 W BLABLA BlvdMonterey Park
406,CA,54495,(321) 111-2222,33,-118,54495 - CA,54321 W BLABLA BlvdMonterey Park
407,CA,54496,(321) 111-2222,33,-118,54496 - CA,54321 W BLABLA BlvdMonterey Park
408,CA,54497,(321) 111-2222,33,-118,54497 - CA,54321 W BLABLA BlvdMonterey Park
409,CA,54498,(321) 111-2222,33,-118,54498 - CA,54321 W BLABLA BlvdMonterey Park
410,CA,54499,(321) 111-2222,33,-118,54499 - CA,54321 W BLABLA BlvdMonterey Park
411,CA,54500,(321) 111-2222,33,-118,54500 - CA,54321 W BLABLA BlvdMonterey Park
412,CA,54501,(321) 111-2222,33,-118,54501 - CA,54321 W BLABLA BlvdMonterey Park
413,CA,54502,(321) 111-2222,33,-118,54502 - CA,54321 W BLABLA BlvdMonterey Park
414,CA,54503,(321) 111-2222,33,-118,54503 - CA,54321 W BLABLA BlvdMonterey Park
415,CA,54504,(321) 111-2222,33,-118,54504 - CA,54321 W BLABLA BlvdMonterey Park
416,CA,54505,(321) 111-2222,33,-118,54505 - CA,54321 W BLABLA BlvdMonterey Park
417,CA,54506,(321) 111-2222,33,-118,54506 - CA,54321 W BLABLA BlvdMonterey Park
418,CA,54507,(321) 111-2222,33,-118,54507 - CA,54321 W BLABLA BlvdMonterey Park
419,CA,54508,(321) 111-2222,33,-118,54508 - CA,54321 W BLABLA BlvdMonterey Park
420,CA,54509,(321) 111-2222,33,-118,54509 - CA,54321 W BLABLA BlvdMonterey Park
421,CA,54510,(321) 111-2222,33,-118,54510 - CA,54321 W BLABLA BlvdMonterey Park
422,CA,54511,(321) 111-2222,33,-118,54511 - CA,54321 W BLABLA BlvdMonterey Park
423,CA,54512,(321) 111-2222,33,-118,54512 - CA,54321 W BLABLA BlvdMonterey Park
424,CA,54513,(321) 111-2222,33,-118,54513 - CA,54321 W BLABLA BlvdMonterey Park
425,CA,54514,(321) 111-2222,33,-118,54514 - CA,54321 W BLABLA BlvdMonterey Park
426,CA,54515,(321) 111-2222,33,-118,54515 - CA,54321 W BLABLA BlvdMonterey Park
427,CA,54516,(321) 111-2222,33,-118,54516 - CA,54321 W BLABLA BlvdMonterey Park
428,CA,54517,(321) 111-2222,33,-118,54517 - CA,54321 W BLABLA BlvdMonterey Park
429,CA,54518,(321) 111-2222,33,-118,54518 - CA,54321 W BLABLA BlvdMonterey Park
430,CA,54519,(321) 111-2222,33,-118,54519 - CA,54321 W BLABLA BlvdMonterey Park
431,CA,54520,(321) 111-2222,33,-118,54520 - CA,54321 W BLABLA BlvdMonterey Park
432,CA,54521,(321) 111-2222,33,-118,54521 - CA,54321 W BLABLA BlvdMonterey Park
433,CA,54522,(321) 111-2222,33,-118,54522 - CA,54321 W BLABLA BlvdMonterey Park
434,CA,54523,(321) 111-2222,33,-118,54523 - CA,54321 W BLABLA BlvdMonterey Park
435,CA,54524,(321) 111-2222,33,-118,54524 - CA,54321 W BLABLA BlvdMonterey Park
436,CA,54525,(321) 111-2222,33,-118,54525 - CA,54321 W BLABLA BlvdMonterey Park
437,CA,54526,(321) 111-2222,33,-118,54526 - CA,54321 W BLABLA BlvdMonterey Park
438,CA,54527,(321) 111-2222,33,-118,54527 - CA,54321 W BLABLA BlvdMonterey Park
439,CA,54528,(321) 111-2222,33,-118,54528 - CA,54321 W BLABLA BlvdMonterey Park
440,CA,54529,(321) 111-2222,33,-118,54529 - CA,54321 W BLABLA BlvdMonterey Park
441,CA,54530,(321) 111-2222,33,-118,54530 - CA,54321 W BLABLA BlvdMonterey Park
442,CA,54531,(321) 111-2222,33,-118,54531 - CA,54321 W BLABLA BlvdMonterey Park
443,CA,54532,(321) 111-2222,33,-118,54532 - CA,54321 W BLABLA BlvdMonterey Park
444,CA,54533,(321) 111-2222,33,-118,54533 - CA,54321 W BLABLA BlvdMonterey Park
445,CA,54534,(321) 111-2222,33,-118,54534 - CA,54321 W BLABLA BlvdMonterey Park
446,CA,54535,(321) 111-2222,33,-118,54535 - CA,54321 W BLABLA BlvdMonterey Park
447,CA,54536,(321) 111-2222,33,-118,54536 - CA,54321 W BLABLA BlvdMonterey Park
448,CA,54537,(321) 111-2222,33,-118,54537 - CA,54321 W BLABLA BlvdMonterey Park
449,CA,54538,(321) 111-2222,33,-118,54538 - CA,54321 W BLABLA BlvdMonterey Park
450,CA,54539,(321) 111-2222,33,-118,54539 - CA,54321 W BLABLA BlvdMonterey Park
451,CA,54540,(321) 111-2222,33,-118,54540 - CA,54321 W BLABLA BlvdMonterey Park
452,CA,54541,(321) 111-2222,33,-118,54541 - CA,54321 W BLABLA BlvdMonterey Park
453,CA,54542,(321) 111-2222,33,-118,54542 - CA,54321 W BLABLA BlvdMonterey Park
454,CA,54543,(321) 111-2222,33,-118,54543 - CA,54321 W BLABLA BlvdMonterey Park
455,CA,54544,(321) 111-2222,33,-118,54544 - CA,54321 W BLABLA BlvdMonterey Park
456,CA,54545,(321) 111-2222,33,-118,54545 - CA,54321 W BLABLA BlvdMonterey Park
457,CA,54546,(321) 111-2222,33,-118,54546 - CA,54321 W BLABLA BlvdMonterey Park
458,CA,54547,(321) 111-2222,33,-118,54547 - CA,54321 W BLABLA BlvdMonterey Park
459,CA,54548,(321) 111-2222,33,-118,54548 - CA,54321 W BLABLA BlvdMonterey Park
460,CA,54549,(321) 111-2222,33,-118,54549 - CA,54321 W BLABLA BlvdMonterey Park
461,CA,54550,(321) 111-2222,33,-118,54550 - CA,54321 W BLABLA BlvdMonterey Park
462,CA,54551,(321) 111-2222,33,-118,54551 - CA,54321 W BLABLA BlvdMonterey Park
463,CA,54552,(321) 111-2222,33,-118,54552 - CA,54321 W BLABLA BlvdMonterey Park
464,CA,54553,(321) 111-2222,33,-118,54553 - CA,54321 W BLABLA BlvdMonterey Park
465,CA,54554,(321) 111-2222,33,-118,54554 - CA,54321 W BLABLA BlvdMonterey Park
466,CA,54555,(321) 111-2222,33,-118,54555 - CA,54321 W BLABLA BlvdMonterey Park
467,CA,54556,(321) 111-2222,33,-118,54556 - CA,54321 W BLABLA BlvdMonterey Park
468,CA,54557,(321) 111-2222,33,-118,54557 - CA,54321 W BLABLA BlvdMonterey Park
469,CA,54558,(321) 111-2222,33,-118,54558 - CA,54321 W BLABLA BlvdMonterey Park
470,CA,54559,(321) 111-2222,33,-118,54559 - CA,54321 W BLABLA BlvdMonterey Park
471,CA,54560,(321) 111-2222,33,-118,54560 - CA,54321 W BLABLA BlvdMonterey Park
472,CA,54561,(321) 111-2222,33,-118,54561 - CA,54321 W BLABLA BlvdMonterey Park
473,CA,54562,(321) 111-2222,33,-118,54562 - CA,54321 W BLABLA BlvdMonterey Park
474,CA,54563,(321) 111-2222,33,-118,54563 - CA,54321 W BLABLA BlvdMonterey Park
475,CA,54564,(321) 111-2222,33,-118,54564 - CA,54321 W BLABLA BlvdMonterey Park
476,CA,54565,(321) 111-2222,33,-118,54565 - CA,54321 W BLABLA BlvdMonterey Park
477,CA,54566,(321) 111-2222,33,-118,54566 - CA,54321 W BLABLA BlvdMonterey Park
478,CA,54567,(321) 111-2222,33,-118,54567 - CA,54321 W BLABLA BlvdMonterey Park
479,CA,54568,(321) 111-2222,33,-118,54568 - CA,54321 W BLABLA BlvdMonterey Park
480,CA,54569,(321) 111-2222,33,-118,54569 - CA,54321 W BLABLA BlvdMonterey Park
481,CA,54570,(321) 111-2222,33,-118,54570 - CA,54321 W BLABLA BlvdMonterey Park
482,CA,54571,(321) 111-2222,33,-118,54571 - CA,54321 W BLABLA BlvdMonterey Park
483,CA,54572,(321) 111-2222,33,-118,54572 - CA,54321 W BLABLA BlvdMonterey Park
484,CA,54573,(321) 111-2222,33,-118,54573 - CA,54321 W BLABLA BlvdMonterey Park
485,CA,54574,(321) 111-2222,33,-118,54574 - CA,54321 W BLABLA BlvdMonterey Park
486,CA,54575,(321) 111-2222,33,-118,54575 - CA,54321 W BLABLA BlvdMonterey Park
487,CA,54576,(321) 111-2222,33,-118,54576 - CA,54321 W BLABLA BlvdMonterey Park
488,CA,54577,(321) 111-2222,33,-118,54577 - CA,54321 W BLABLA BlvdMonterey Park
489,CA,54578,(321) 111-2222,33,-118,54578 - CA,54321 W BLABLA BlvdMonterey Park
490,CA,54579,(321) 111-2222,33,-118,54579 - CA,54321 W BLABLA BlvdMonterey Park
491,CA,54580,(321) 111-2222,33,-118,54580 - CA,54321 W BLABLA BlvdMonterey Park
492,CA,54581,(321) 111-2222,33,-118,54581 - CA,54321 W BLABLA BlvdMonterey Park
493,CA,54582,(321) 111-2222,33,-118,54582 - CA,54321 W BLABLA BlvdMonterey Park
494,CA,54583,(321) 111-2222,33,-118,54583 - CA,54321 W BLABLA BlvdMonterey Park
495,CA,54584,(321) 111-2222,33,-118,54584 - CA,54321 W BLABLA BlvdMonterey Park
496,CA,54585,(321) 111-2222,33,-118,54585 - CA,54321 W BLABLA BlvdMonterey Park
497,CA,54586,(321) 111-2222,33,-118,54586 - CA,54321 W BLABLA BlvdMonterey Park
498,CA,54587,(321) 111-2222,33,-118,54587 - CA,54321 W BLABLA BlvdMonterey Park
499,CA,54588,(321) 111-2222,33,-118,54588 - CA,54321 W BLABLA BlvdMonterey Park
500,CA,54589,(321) 111-2222,33,-118,54589 - CA,54321 W BLABLA BlvdMonterey Park
501,CA,54590,(321) 111-2222,33,-118,54590 - CA,54321 W BLABLA BlvdMonterey Park
502,CA,54591,(321) 111-2222,33,-118,54591 - CA,54321 W BLABLA BlvdMonterey Park
503,CA,54592,(321) 111-2222,33,-118,54592 - CA,54321 W BLABLA BlvdMonterey Park
504,CA,54593,(321) 111-2222,33,-118,54593 - CA,54321 W BLABLA BlvdMonterey Park
505,CA,54594,(321) 111-2222,33,-118,54594 - CA,54321 W BLABLA BlvdMonterey Park
506,CA,54595,(321) 111-2222,33,-118,54595 - CA,54321 W BLABLA BlvdMonterey Park
507,CA,54596,(321) 111-2222,33,-118,54596 - CA,54321 W BLABLA BlvdMonterey Park
508,CA,54597,(321) 111-2222,33,-118,54597 - CA,54321 W BLABLA BlvdMonterey Park
509,CA,54598,(321) 111-2222,33,-118,54598 - CA,54321 W BLABLA BlvdMonterey Park
510,CA,54599,(321) 111-2222,33,-118,54599 - CA,54321 W BLABLA BlvdMonterey Park
511,CA,54600,(321) 111-2222,33,-118,54600 - CA,54321 W BLABLA BlvdMonterey Park
512,CA,54601,(321) 111-2222,33,-118,54601 - CA,54321 W BLABLA BlvdMonterey Park
513,CA,54602,(321) 111-2222,33,-118,54602 - CA,54321 W BLABLA BlvdMonterey Park
514,CA,54603,(321) 111-2222,33,-118,54603 - CA,54321 W BLABLA BlvdMonterey Park
515,CA,54604,(321) 111-2222,33,-118,54604 - CA,54321 W BLABLA BlvdMonterey Park
516,CA,54605,(321) 111-2222,33,-118,54605 - CA,54321 W BLABLA BlvdMonterey Park
517,CA,54606,(321) 111-2222,33,-118,54606 - CA,54321 W BLABLA BlvdMonterey Park
518,CA,54607,(321) 111-2222,33,-118,54607 - CA,54321 W BLABLA BlvdMonterey Park
519,CA,54608,(321) 111-2222,33,-118,54608 - CA,54321 W BLABLA BlvdMonterey Park
520,CA,54609,(321) 111-2222,33,-118,54609 - CA,54321 W BLABLA BlvdMonterey Park
521,CA,54610,(321) 111-2222,33,-118,54610 - CA,54321 W BLABLA BlvdMonterey Park
522,CA,54611,(321) 111-2222,33,-118,54611 - CA,54321 W BLABLA BlvdMonterey Park
523,CA,54612,(321) 111-2222,33,-118,54612 - CA,54321 W BLABLA BlvdMonterey Park
524,CA,54613,(321) 111-2222,33,-118,54613 - CA,54321 W BLABLA BlvdMonterey Park
525,CA,54614,(321) 111-2222,33,-118,54614 - CA,54321 W BLABLA BlvdMonterey Park
526,CA,54615,(321) 111-2222,33,-118,54615 - CA,54321 W BLABLA BlvdMonterey Park
527,CA,54616,(321) 111-2222,33,-118,54616 - CA,54321 W BLABLA BlvdMonterey Park
528,CA,54617,(321) 111-2222,33,-118,54617 - CA,54321 W BLABLA BlvdMonterey Park
529,CA,54618,(321) 111-2222,33,-118,54618 - CA,54321 W BLABLA BlvdMonterey Park
530,CA,54619,(321) 111-2222,33,-118,54619 - CA,54321 W BLABLA BlvdMonterey Park
531,CA,54620,(321) 111-2222,33,-118,54620 - CA,54321 W BLABLA BlvdMonterey Park
532,CA,54621,(321) 111-2222,33,-118,54621 - CA,54321 W BLABLA BlvdMonterey Park
533,CA,54622,(321) 111-2222,33,-118,54622 - CA,54321 W BLABLA BlvdMonterey Park
534,CA,54623,(321) 111-2222,33,-118,54623 - CA,54321 W BLABLA BlvdMonterey Park
535,CA,54624,(321) 111-2222,33,-118,54624 - CA,54321 W BLABLA BlvdMonterey Park
536,CA,54625,(321) 111-2222,33,-118,54625 - CA,54321 W BLABLA BlvdMonterey Park
537,CA,54626,(321) 111-2222,33,-118,54626 - CA,54321 W BLABLA BlvdMonterey Park
538,CA,54627,(321) 111-2222,33,-118,54627 - CA,54321 W BLABLA BlvdMonterey Park
539,CA,54628,(321) 111-2222,33,-118,54628 - CA,54321 W BLABLA BlvdMonterey Park
540,CA,54629,(321) 111-2222,33,-118,54629 - CA,54321 W BLABLA BlvdMonterey Park
541,CA,54630,(321) 111-2222,33,-118,54630 - CA,54321 W BLABLA BlvdMonterey Park
542,CA,54631,(321) 111-2222,33,-118,54631 - CA,54321 W BLABLA BlvdMonterey Park
543,CA,54632,(321) 111-2222,33,-118,54632 - CA,54321 W BLABLA BlvdMonterey Park
544,CA,54633,(321) 111-2222,33,-118,54633 - CA,54321 W BLABLA BlvdMonterey Park
545,CA,54634,(321) 111-2222,33,-118,54634 - CA,54321 W BLABLA BlvdMonterey Park
546,CA,54635,(321) 111-2222,33,-118,54635 - CA,54321 W BLABLA BlvdMonterey Park
547,CA,54636,(321) 111-2222,33,-118,54636 - CA,54321 W BLABLA BlvdMonterey Park
548,CA,54637,(321) 111-2222,33,-118,54637 - CA,54321 W BLABLA BlvdMonterey Park
549,CA,54638,(321) 111-2222,33,-118,54638 - CA,54321 W BLABLA BlvdMonterey Park
550,CA,54639,(321) 111-2222,33,-118,54639 - CA,54321 W BLABLA BlvdMonterey Park
551,CA,54640,(321) 111-2222,33,-118,54640 - CA,54321 W BLABLA BlvdMonterey Park
552,CA,54641,(321) 111-2222,33,-118,54641 - CA,54321 W BLABLA BlvdMonterey Park
553,CA,54642,(321) 111-2222,33,-118,54642 - CA,54321 W BLABLA BlvdMonterey Park
554,CA,54643,(321) 111-2222,33,-118,54643 - CA,54321 W BLABLA BlvdMonterey Park
555,CA,54644,(321) 111-2222,33,-118,54644 - CA,54321 W BLABLA BlvdMonterey Park
556,CA,54645,(321) 111-2222,33,-118,54645 - CA,54321 W BLABLA BlvdMonterey Park
557,CA,54646,(321) 111-2222,33,-118,54646 - CA,54321 W BLABLA BlvdMonterey Park
558,CA,54647,(321) 111-2222,33,-118,54647 - CA,54321 W BLABLA BlvdMonterey Park
559,CA,54648,(321) 111-2222,33,-118,54648 - CA,54321 W BLABLA BlvdMonterey Park
560,CA,54649,(321) 111-2222,33,-118,54649 - CA,54321 W BLABLA BlvdMonterey Park
561,CA,54650,(321) 111-2222,33,-118,54650 - CA,54321 W BLABLA BlvdMonterey Park
562,CA,54651,(321) 111-2222,33,-118,54651 - CA,54321 W BLABLA BlvdMonterey Park
563,CA,54652,(321) 111-2222,33,-118,54652 - CA,54321 W BLABLA BlvdMonterey Park
564,CA,54653,(321) 111-2222,33,-118,54653 - CA,54321 W BLABLA BlvdMonterey Park
565,CA,11111,(321) 111-2222,33,-118,11111 - CA,11111 S AAAAA AveLos Angeles
566,CA,11112,(321) 111-2222,33,-118,11112 - CA,11111 S AAAAA AveLos Angeles
567,CA,11113,(321) 111-2222,33,-118,11113 - CA,11111 S AAAAA AveLos Angeles
568,CA,11114,(321) 111-2222,33,-118,11114 - CA,11111 S AAAAA AveLos Angeles
569,CA,11115,(321) 111-2222,33,-118,11115 - CA,11111 S AAAAA AveLos Angeles
570,CA,11116,(321) 111-2222,33,-118,11116 - CA,11111 S AAAAA AveLos Angeles
571,CA,11117,(321) 111-2222,33,-118,11117 - CA,11111 S AAAAA AveLos Angeles
572,CA,11118,(321) 111-2222,33,-118,11118 - CA,11111 S AAAAA AveLos Angeles
573,CA,11119,(321) 111-2222,33,-118,11119 - CA,11111 S AAAAA AveLos Angeles
574,CA,11120,(321) 111-2222,33,-118,11120 - CA,11111 S AAAAA AveLos Angeles
575,CA,11121,(321) 111-2222,33,-118,11121 - CA,11111 S AAAAA AveLos Angeles
576,CA,11122,(321) 111-2222,33,-118,11122 - CA,11111 S AAAAA AveLos Angeles
577,CA,11123,(321) 111-2222,33,-118,11123 - CA,11111 S AAAAA AveLos Angeles
578,CA,11124,(321) 111-2222,33,-118,11124 - CA,11111 S AAAAA AveLos Angeles
579,CA,11125,(321) 111-2222,33,-118,11125 - CA,11111 S AAAAA AveLos Angeles
580,CA,11126,(321) 111-2222,33,-118,11126 - CA,11111 S AAAAA AveLos Angeles
581,CA,11127,(321) 111-2222,33,-118,11127 - CA,11111 S AAAAA AveLos Angeles
582,CA,11128,(321) 111-2222,33,-118,11128 - CA,11111 S AAAAA AveLos Angeles
583,CA,11129,(321) 111-2222,33,-118,11129 - CA,11111 S AAAAA AveLos Angeles
584,CA,11130,(321) 111-2222,33,-118,11130 - CA,11111 S AAAAA AveLos Angeles
585,CA,11131,(321) 111-2222,33,-118,11131 - CA,11111 S AAAAA AveLos Angeles
586,CA,11132,(321) 111-2222,33,-118,11132 - CA,11111 S AAAAA AveLos Angeles
587,CA,11133,(321) 111-2222,33,-118,11133 - CA,11111 S AAAAA AveLos Angeles
588,CA,11134,(321) 111-2222,33,-118,11134 - CA,11111 S AAAAA AveLos Angeles
589,CA,11135,(321) 111-2222,33,-118,11135 - CA,11111 S AAAAA AveLos Angeles
590,CA,11136,(321) 111-2222,33,-118,11136 - CA,11111 S AAAAA AveLos Angeles
591,CA,11137,(321) 111-2222,33,-118,11137 - CA,11111 S AAAAA AveLos Angeles
592,CA,11138,(321) 111-2222,33,-118,11138 - CA,11111 S AAAAA AveLos Angeles
593,CA,11139,(321) 111-2222,33,-118,11139 - CA,11111 S AAAAA AveLos Angeles
594,CA,11140,(321) 111-2222,33,-118,11140 - CA,11111 S AAAAA AveLos Angeles
595,CA,11141,(321) 111-2222,33,-118,11141 - CA,11111 S AAAAA AveLos Angeles
596,CA,11142,(321) 111-2222,33,-118,11142 - CA,11111 S AAAAA AveLos Angeles
597,CA,11143,(321) 111-2222,33,-118,11143 - CA,11111 S AAAAA AveLos Angeles
598,CA,11144,(321) 111-2222,33,-118,11144 - CA,11111 S AAAAA AveLos Angeles
599,CA,11145,(321) 111-2222,33,-118,11145 - CA,11111 S AAAAA AveLos Angeles
600,CA,11146,(321) 111-2222,33,-118,11146 - CA,11111 S AAAAA AveLos Angeles
601,CA,11147,(321) 111-2222,33,-118,11147 - CA,11111 S AAAAA AveLos Angeles
602,CA,11148,(321) 111-2222,33,-118,11148 - CA,11111 S AAAAA AveLos Angeles
603,CA,11149,(321) 111-2222,33,-118,11149 - CA,11111 S AAAAA AveLos Angeles
604,CA,11150,(321) 111-2222,33,-118,11150 - CA,11111 S AAAAA AveLos Angeles
605,CA,11151,(321) 111-2222,33,-118,11151 - CA,11111 S AAAAA AveLos Angeles
606,CA,11152,(321) 111-2222,33,-118,11152 - CA,11111 S AAAAA AveLos Angeles
607,CA,11153,(321) 111-2222,33,-118,11153 - CA,11111 S AAAAA AveLos Angeles
608,CA,11154,(321) 111-2222,33,-118,11154 - CA,11111 S AAAAA AveLos Angeles
609,CA,11155,(321) 111-2222,33,-118,11155 - CA,11111 S AAAAA AveLos Angeles
610,CA,11156,(321) 111-2222,33,-118,11156 - CA,11111 S AAAAA AveLos Angeles
611,CA,11157,(321) 111-2222,33,-118,11157 - CA,11111 S AAAAA AveLos Angeles
612,CA,11158,(321) 111-2222,33,-118,11158 - CA,11111 S AAAAA AveLos Angeles
613,CA,11159,(321) 111-2222,33,-118,11159 - CA,11111 S AAAAA AveLos Angeles
614,CA,11160,(321) 111-2222,33,-118,11160 - CA,11111 S AAAAA AveLos Angeles
615,CA,11161,(321) 111-2222,33,-118,11161 - CA,11111 S AAAAA AveLos Angeles
616,CA,11162,(321) 111-2222,33,-118,11162 - CA,11111 S AAAAA AveLos Angeles
617,CA,11163,(321) 111-2222,33,-118,11163 - CA,11111 S AAAAA AveLos Angeles
618,CA,11164,(321) 111-2222,33,-118,11164 - CA,11111 S AAAAA AveLos Angeles
619,CA,11165,(321) 111-2222,33,-118,11165 - CA,11111 S AAAAA AveLos Angeles
620,CA,11166,(321) 111-2222,33,-118,11166 - CA,11111 S AAAAA AveLos Angeles
621,CA,11167,(321) 111-2222,33,-118,11167 - CA,11111 S AAAAA AveLos Angeles
622,CA,11168,(321) 111-2222,33,-118,11168 - CA,11111 S AAAAA AveLos Angeles
623,CA,11169,(321) 111-2222,33,-118,11169 - CA,11111 S AAAAA AveLos Angeles
624,CA,11170,(321) 111-2222,33,-118,11170 - CA,11111 S AAAAA AveLos Angeles
625,CA,11171,(321) 111-2222,33,-118,11171 - CA,11111 S AAAAA AveLos Angeles
626,CA,11172,(321) 111-2222,33,-118,11172 - CA,11111 S AAAAA AveLos Angeles
627,CA,11173,(321) 111-2222,33,-118,11173 - CA,11111 S AAAAA AveLos Angeles
628,CA,11174,(321) 111-2222,33,-118,11174 - CA,11111 S AAAAA AveLos Angeles
629,CA,11175,(321) 111-2222,33,-118,11175 - CA,11111 S AAAAA AveLos Angeles
630,CA,11176,(321) 111-2222,33,-118,11176 - CA,11111 S AAAAA AveLos Angeles
631,CA,11177,(321) 111-2222,33,-118,11177 - CA,11111 S AAAAA AveLos Angeles
632,CA,11178,(321) 111-2222,33,-118,11178 - CA,11111 S AAAAA AveLos Angeles
633,CA,11179,(321) 111-2222,33,-118,11179 - CA,11111 S AAAAA AveLos Angeles
634,CA,11180,(321) 111-2222,33,-118,11180 - CA,11111 S AAAAA AveLos Angeles
635,CA,11181,(321) 111-2222,33,-118,11181 - CA,11111 S AAAAA AveLos Angeles
636,CA,11182,(321) 111-2222,33,-118,11182 - CA,11111 S AAAAA AveLos Angeles
637,CA,11183,(321) 111-2222,33,-118,11183 - CA,11111 S AAAAA AveLos Angeles
638,CA,11184,(321) 111-2222,33,-118,11184 - CA,11111 S AAAAA AveLos Angeles
639,CA,11185,(321) 111-2222,33,-118,11185 - CA,11111 S AAAAA AveLos Angeles
640,CA,11186,(321) 111-2222,33,-118,11186 - CA,11111 S AAAAA AveLos Angeles
641,CA,11187,(321) 111-2222,33,-118,11187 - CA,11111 S AAAAA AveLos Angeles
642,CA,11188,(321) 111-2222,33,-118,11188 - CA,11111 S AAAAA AveLos Angeles
643,CA,11189,(321) 111-2222,33,-118,11189 - CA,11111 S AAAAA AveLos Angeles
644,CA,11190,(321) 111-2222,33,-118,11190 - CA,11111 S AAAAA AveLos Angeles
645,CA,11191,(321) 111-2222,33,-118,11191 - CA,11111 S AAAAA AveLos Angeles
646,CA,11192,(321) 111-2222,33,-118,11192 - CA,11111 S AAAAA AveLos Angeles
647,CA,11193,(321) 111-2222,33,-118,11193 - CA,11111 S AAAAA AveLos Angeles
648,CA,11194,(321) 111-2222,33,-118,11194 - CA,11111 S AAAAA AveLos Angeles
649,CA,11195,(321) 111-2222,33,-118,11195 - CA,11111 S AAAAA AveLos Angeles
650,CA,11196,(321) 111-2222,33,-118,11196 - CA,11111 S AAAAA AveLos Angeles
651,CA,11197,(321) 111-2222,33,-118,11197 - CA,11111 S AAAAA AveLos Angeles
652,CA,11198,(321) 111-2222,33,-118,11198 - CA,11111 S AAAAA AveLos Angeles
653,CA,11199,(321) 111-2222,33,-118,11199 - CA,11111 S AAAAA AveLos Angeles
654,CA,11200,(321) 111-2222,33,-118,11200 - CA,11111 S AAAAA AveLos Angeles
655,CA,11201,(321) 111-2222,33,-118,11201 - CA,11111 S AAAAA AveLos Angeles
656,CA,11202,(321) 111-2222,33,-118,11202 - CA,11111 S AAAAA AveLos Angeles
657,CA,11203,(321) 111-2222,33,-118,11203 - CA,11111 S AAAAA AveLos Angeles
658,CA,11204,(321) 111-2222,33,-118,11204 - CA,11111 S AAAAA AveLos Angeles
659,CA,11205,(321) 111-2222,33,-118,11205 - CA,11111 S AAAAA AveLos Angeles
660,CA,11206,(321) 111-2222,33,-118,11206 - CA,11111 S AAAAA AveLos Angeles
661,CA,11207,(321) 111-2222,33,-118,11207 - CA,11111 S AAAAA AveLos Angeles
662,CA,11208,(321) 111-2222,33,-118,11208 - CA,11111 S AAAAA AveLos Angeles
663,CA,11209,(321) 111-2222,33,-118,11209 - CA,11111 S AAAAA AveLos Angeles
664,CA,11210,(321) 111-2222,33,-118,11210 - CA,11111 S AAAAA AveLos Angeles
665,CA,11211,(321) 111-2222,33,-118,11211 - CA,11111 S AAAAA AveLos Angeles
666,CA,11212,(321) 111-2222,33,-118,11212 - CA,11111 S AAAAA AveLos Angeles
667,CA,11213,(321) 111-2222,33,-118,11213 - CA,11111 S AAAAA AveLos Angeles
668,CA,11214,(321) 111-2222,33,-118,11214 - CA,11111 S AAAAA AveLos Angeles
669,CA,11215,(321) 111-2222,33,-118,11215 - CA,11111 S AAAAA AveLos Angeles
670,CA,11216,(321) 111-2222,33,-118,11216 - CA,11111 S AAAAA AveLos Angeles
671,CA,11217,(321) 111-2222,33,-118,11217 - CA,11111 S AAAAA AveLos Angeles
672,CA,11218,(321) 111-2222,33,-118,11218 - CA,11111 S AAAAA AveLos Angeles
673,CA,11219,(321) 111-2222,33,-118,11219 - CA,11111 S AAAAA AveLos Angeles
674,CA,11220,(321) 111-2222,33,-118,11220 - CA,11111 S AAAAA AveLos Angeles
675,CA,11221,(321) 111-2222,33,-118,11221 - CA,11111 S AAAAA AveLos Angeles
676,CA,11222,(321) 111-2222,33,-118,11222 - CA,11111 S AAAAA AveLos Angeles
677,CA,11223,(321) 111-2222,33,-118,11223 - CA,11111 S AAAAA AveLos Angeles
678,CA,11224,(321) 111-2222,33,-118,11224 - CA,11111 S AAAAA AveLos Angeles
679,CA,11225,(321) 111-2222,33,-118,11225 - CA,11111 S AAAAA AveLos Angeles
680,CA,11226,(321) 111-2222,33,-118,11226 - CA,11111 S AAAAA AveLos Angeles
681,CA,11227,(321) 111-2222,33,-118,11227 - CA,11111 S AAAAA AveLos Angeles
682,CA,11228,(321) 111-2222,33,-118,11228 - CA,11111 S AAAAA AveLos Angeles
683,CA,11229,(321) 111-2222,33,-118,11229 - CA,11111 S AAAAA AveLos Angeles
684,CA,11230,(321) 111-2222,33,-118,11230 - CA,11111 S AAAAA AveLos Angeles
685,CA,11231,(321) 111-2222,33,-118,11231 - CA,11111 S AAAAA AveLos Angeles
686,CA,11232,(321) 111-2222,33,-118,11232 - CA,11111 S AAAAA AveLos Angeles
687,CA,11233,(321) 111-2222,33,-118,11233 - CA,11111 S AAAAA AveLos Angeles
688,CA,11234,(321) 111-2222,33,-118,11234 - CA,11111 S AAAAA AveLos Angeles
689,CA,11235,(321) 111-2222,33,-118,11235 - CA,11111 S AAAAA AveLos Angeles
690,CA,11236,(321) 111-2222,33,-118,11236 - CA,11111 S AAAAA AveLos Angeles
691,CA,11237,(321) 111-2222,33,-118,11237 - CA,11111 S AAAAA AveLos Angeles
692,CA,11238,(321) 111-2222,33,-118,11238 - CA,11111 S AAAAA AveLos Angeles
693,CA,11239,(321) 111-2222,33,-118,11239 - CA,11111 S AAAAA AveLos Angeles
694,CA,11240,(321) 111-2222,33,-118,11240 - CA,11111 S AAAAA AveLos Angeles
695,CA,11241,(321) 111-2222,33,-118,11241 - CA,11111 S AAAAA AveLos Angeles
696,CA,11242,(321) 111-2222,33,-118,11242 - CA,11111 S AAAAA AveLos Angeles
697,CA,11243,(321) 111-2222,33,-118,11243 - CA,11111 S AAAAA AveLos Angeles
698,CA,11244,(321) 111-2222,33,-118,11244 - CA,11111 S AAAAA AveLos Angeles
699,CA,11245,(321) 111-2222,33,-118,11245 - CA,11111 S AAAAA AveLos Angeles
700,CA,11246,(321) 111-2222,33,-118,11246 - CA,11111 S AAAAA AveLos Angeles
701,CA,11247,(321) 111-2222,33,-118,11247 - CA,11111 S AAAAA AveLos Angeles
702,CA,11248,(321) 111-2222,33,-118,11248 - CA,11111 S AAAAA AveLos Angeles
703,CA,11249,(321) 111-2222,33,-118,11249 - CA,11111 S AAAAA AveLos Angeles
704,CA,11250,(321) 111-2222,33,-118,11250 - CA,11111 S AAAAA AveLos Angeles
705,CA,11251,(321) 111-2222,33,-118,11251 - CA,11111 S AAAAA AveLos Angeles
706,CA,11252,(321) 111-2222,33,-118,11252 - CA,11111 S AAAAA AveLos Angeles
707,CA,11253,(321) 111-2222,33,-118,11253 - CA,11111 S AAAAA AveLos Angeles
708,CA,11254,(321) 111-2222,33,-118,11254 - CA,11111 S AAAAA AveLos Angeles
709,CA,11255,(321) 111-2222,33,-118,11255 - CA,11111 S AAAAA AveLos Angeles
710,CA,11256,(321) 111-2222,33,-118,11256 - CA,11111 S AAAAA AveLos Angeles
711,CA,11257,(321) 111-2222,33,-118,11257 - CA,11111 S AAAAA AveLos Angeles
712,CA,11258,(321) 111-2222,33,-118,11258 - CA,11111 S AAAAA AveLos Angeles
713,CA,11259,(321) 111-2222,33,-118,11259 - CA,11111 S AAAAA AveLos Angeles
714,CA,11260,(321) 111-2222,33,-118,11260 - CA,11111 S AAAAA AveLos Angeles
715,CA,11261,(321) 111-2222,33,-118,11261 - CA,11111 S AAAAA AveLos Angeles
716,CA,11262,(321) 111-2222,33,-118,11262 - CA,11111 S AAAAA AveLos Angeles
717,CA,11263,(321) 111-2222,33,-118,11263 - CA,11111 S AAAAA AveLos Angeles
718,CA,11264,(321) 111-2222,33,-118,11264 - CA,11111 S AAAAA AveLos Angeles
719,CA,11265,(321) 111-2222,33,-118,11265 - CA,11111 S AAAAA AveLos Angeles
720,CA,11266,(321) 111-2222,33,-118,11266 - CA,11111 S AAAAA AveLos Angeles
721,CA,11267,(321) 111-2222,33,-118,11267 - CA,11111 S AAAAA AveLos Angeles
722,CA,11268,(321) 111-2222,33,-118,11268 - CA,11111 S AAAAA AveLos Angeles
723,CA,11269,(321) 111-2222,33,-118,11269 - CA,11111 S AAAAA AveLos Angeles
724,CA,11270,(321) 111-2222,33,-118,11270 - CA,11111 S AAAAA AveLos Angeles
725,CA,11271,(321) 111-2222,33,-118,11271 - CA,11111 S AAAAA AveLos Angeles
726,CA,11272,(321) 111-2222,33,-118,11272 - CA,11111 S AAAAA AveLos Angeles
727,CA,11273,(321) 111-2222,33,-118,11273 - CA,11111 S AAAAA AveLos Angeles
728,CA,11274,(321) 111-2222,33,-118,11274 - CA,11111 S AAAAA AveLos Angeles
729,CA,11275,(321) 111-2222,33,-118,11275 - CA,11111 S AAAAA AveLos Angeles
730,CA,11276,(321) 111-2222,33,-118,11276 - CA,11111 S AAAAA AveLos Angeles
731,CA,11277,(321) 111-2222,33,-118,11277 - CA,11111 S AAAAA AveLos Angeles
732,CA,11278,(321) 111-2222,33,-118,11278 - CA,11111 S AAAAA AveLos Angeles
733,CA,11279,(321) 111-2222,33,-118,11279 - CA,11111 S AAAAA AveLos Angeles
734,CA,11280,(321) 111-2222,33,-118,11280 - CA,11111 S AAAAA AveLos Angeles
735,CA,11281,(321) 111-2222,33,-118,11281 - CA,11111 S AAAAA AveLos Angeles
736,CA,11282,(321) 111-2222,33,-118,11282 - CA,11111 S AAAAA AveLos Angeles
737,CA,11283,(321) 111-2222,33,-118,11283 - CA,11111 S AAAAA AveLos Angeles
738,CA,11284,(321) 111-2222,33,-118,11284 - CA,11111 S AAAAA AveLos Angeles
739,CA,11285,(321) 111-2222,33,-118,11285 - CA,11111 S AAAAA AveLos Angeles
740,CA,11286,(321) 111-2222,33,-118,11286 - CA,11111 S AAAAA AveLos Angeles
741,CA,11287,(321) 111-2222,33,-118,11287 - CA,11111 S AAAAA AveLos Angeles
742,CA,11288,(321) 111-2222,33,-118,11288 - CA,11111 S AAAAA AveLos Angeles
743,CA,11289,(321) 111-2222,33,-118,11289 - CA,11111 S AAAAA AveLos Angeles
744,CA,11290,(321) 111-2222,33,-118,11290 - CA,11111 S AAAAA AveLos Angeles
745,CA,11291,(321) 111-2222,33,-118,11291 - CA,11111 S AAAAA AveLos Angeles
746,CA,11292,(321) 111-2222,33,-118,11292 - CA,11111 S AAAAA AveLos Angeles
747,CA,11293,(321) 111-2222,33,-118,11293 - CA,11111 S AAAAA AveLos Angeles
748,CA,11294,(321) 111-2222,33,-118,11294 - CA,11111 S AAAAA AveLos Angeles
749,CA,11295,(321) 111-2222,33,-118,11295 - CA,11111 S AAAAA AveLos Angeles
750,CA,11296,(321) 111-2222,33,-118,11296 - CA,11111 S AAAAA AveLos Angeles
751,CA,11297,(321) 111-2222,33,-118,11297 - CA,11111 S AAAAA AveLos Angeles
752,CA,11298,(321) 111-2222,33,-118,11298 - CA,11111 S AAAAA AveLos Angeles
753,CA,11299,(321) 111-2222,33,-118,11299 - CA,11111 S AAAAA AveLos Angeles
754,CA,11300,(321) 111-2222,33,-118,11300 - CA,11111 S AAAAA AveLos Angeles
755,CA,11301,(321) 111-2222,33,-118,11301 - CA,11111 S AAAAA AveLos Angeles
756,CA,11302,(321) 111-2222,33,-118,11302 - CA,11111 S AAAAA AveLos Angeles
757,CA,11303,(321) 111-2222,33,-118,11303 - CA,11111 S AAAAA AveLos Angeles
758,CA,11304,(321) 111-2222,33,-118,11304 - CA,11111 S AAAAA AveLos Angeles
759,CA,11305,(321) 111-2222,33,-118,11305 - CA,11111 S AAAAA AveLos Angeles
760,CA,11306,(321) 111-2222,33,-118,11306 - CA,11111 S AAAAA AveLos Angeles
761,CA,11307,(321) 111-2222,33,-118,11307 - CA,11111 S AAAAA AveLos Angeles
762,CA,11308,(321) 111-2222,33,-118,11308 - CA,11111 S AAAAA AveLos Angeles
763,CA,11309,(321) 111-2222,33,-118,11309 - CA,11111 S AAAAA AveLos Angeles
764,CA,11310,(321) 111-2222,33,-118,11310 - CA,11111 S AAAAA AveLos Angeles
765,CA,11311,(321) 111-2222,33,-118,11311 - CA,11111 S AAAAA AveLos Angeles
766,CA,11312,(321) 111-2222,33,-118,11312 - CA,11111 S AAAAA AveLos Angeles
767,CA,11313,(321) 111-2222,33,-118,11313 - CA,11111 S AAAAA AveLos Angeles
768,CA,11314,(321) 111-2222,33,-118,11314 - CA,11111 S AAAAA AveLos Angeles
769,CA,11315,(321) 111-2222,33,-118,11315 - CA,11111 S AAAAA AveLos Angeles
770,CA,11316,(321) 111-2222,33,-118,11316 - CA,11111 S AAAAA AveLos Angeles
771,CA,11317,(321) 111-2222,33,-118,11317 - CA,11111 S AAAAA AveLos Angeles
772,CA,11318,(321) 111-2222,33,-118,11318 - CA,11111 S AAAAA AveLos Angeles
773,CA,11319,(321) 111-2222,33,-118,11319 - CA,11111 S AAAAA AveLos Angeles
774,CA,11320,(321) 111-2222,33,-118,11320 - CA,11111 S AAAAA AveLos Angeles
775,CA,11321,(321) 111-2222,33,-118,11321 - CA,11111 S AAAAA AveLos Angeles
776,CA,11322,(321) 111-2222,33,-118,11322 - CA,11111 S AAAAA AveLos Angeles
777,CA,11323,(321) 111-2222,33,-118,11323 - CA,11111 S AAAAA AveLos Angeles
778,CA,11324,(321) 111-2222,33,-118,11324 - CA,11111 S AAAAA AveLos Angeles
779,CA,11325,(321) 111-2222,33,-118,11325 - CA,11111 S AAAAA AveLos Angeles
780,CA,11326,(321) 111-2222,33,-118,11326 - CA,11111 S AAAAA AveLos Angeles
781,CA,11327,(321) 111-2222,33,-118,11327 - CA,11111 S AAAAA AveLos Angeles
782,CA,11328,(321) 111-2222,33,-118,11328 - CA,11111 S AAAAA AveLos Angeles
783,CA,11329,(321) 111-2222,33,-118,11329 - CA,11111 S AAAAA AveLos Angeles
784,CA,11330,(321) 111-2222,33,-118,11330 - CA,11111 S AAAAA AveLos Angeles
785,CA,11331,(321) 111-2222,33,-118,11331 - CA,11111 S AAAAA AveLos Angeles
786,CA,11332,(321) 111-2222,33,-118,11332 - CA,11111 S AAAAA AveLos Angeles
787,CA,11333,(321) 111-2222,33,-118,11333 - CA,11111 S AAAAA AveLos Angeles
788,CA,11334,(321) 111-2222,33,-118,11334 - CA,11111 S AAAAA AveLos Angeles
789,CA,11335,(321) 111-2222,33,-118,11335 - CA,11111 S AAAAA AveLos Angeles
790,CA,11336,(321) 111-2222,33,-118,11336 - CA,11111 S AAAAA AveLos Angeles
791,CA,11337,(321) 111-2222,33,-118,11337 - CA,11111 S AAAAA AveLos Angeles
792,CA,11338,(321) 111-2222,33,-118,11338 - CA,11111 S AAAAA AveLos Angeles
793,CA,11339,(321) 111-2222,33,-118,11339 - CA,11111 S AAAAA AveLos Angeles
794,CA,11340,(321) 111-2222,33,-118,11340 - CA,11111 S AAAAA AveLos Angeles
795,CA,11341,(321) 111-2222,33,-118,11341 - CA,11111 S AAAAA AveLos Angeles
796,CA,11342,(321) 111-2222,33,-118,11342 - CA,11111 S AAAAA AveLos Angeles
797,CA,11343,(321) 111-2222,33,-118,11343 - CA,11111 S AAAAA AveLos Angeles
798,CA,11344,(321) 111-2222,33,-118,11344 - CA,11111 S AAAAA AveLos Angeles
799,CA,11345,(321) 111-2222,33,-118,11345 - CA,11111 S AAAAA AveLos Angeles
800,CA,11346,(321) 111-2222,33,-118,11346 - CA,11111 S AAAAA AveLos Angeles
801,CA,11347,(321) 111-2222,33,-118,11347 - CA,11111 S AAAAA AveLos Angeles
802,CA,11348,(321) 111-2222,33,-118,11348 - CA,11111 S AAAAA AveLos Angeles
803,CA,11349,(321) 111-2222,33,-118,11349 - CA,11111 S AAAAA AveLos Angeles
804,CA,11350,(321) 111-2222,33,-118,11350 - CA,11111 S AAAAA AveLos Angeles
805,CA,11351,(321) 111-2222,33,-118,11351 - CA,11111 S AAAAA AveLos Angeles
806,CA,11352,(321) 111-2222,33,-118,11352 - CA,11111 S AAAAA AveLos Angeles
807,CA,11353,(321) 111-2222,33,-118,11353 - CA,11111 S AAAAA AveLos Angeles
808,CA,11354,(321) 111-2222,33,-118,11354 - CA,11111 S AAAAA AveLos Angeles
809,CA,11355,(321) 111-2222,33,-118,11355 - CA,11111 S AAAAA AveLos Angeles
810,CA,11356,(321) 111-2222,33,-118,11356 - CA,11111 S AAAAA AveLos Angeles
811,CA,11357,(321) 111-2222,33,-118,11357 - CA,11111 S AAAAA AveLos Angeles
812,CA,11358,(321) 111-2222,33,-118,11358 - CA,11111 S AAAAA AveLos Angeles
813,CA,11359,(321) 111-2222,33,-118,11359 - CA,11111 S AAAAA AveLos Angeles
814,CA,11360,(321) 111-2222,33,-118,11360 - CA,11111 S AAAAA AveLos Angeles
815,CA,11361,(321) 111-2222,33,-118,11361 - CA,11111 S AAAAA AveLos Angeles
816,CA,11362,(321) 111-2222,33,-118,11362 - CA,11111 S AAAAA AveLos Angeles
817,CA,11363,(321) 111-2222,33,-118,11363 - CA,11111 S AAAAA AveLos Angeles
818,CA,11364,(321) 111-2222,33,-118,11364 - CA,11111 S AAAAA AveLos Angeles
819,CA,11365,(321) 111-2222,33,-118,11365 - CA,11111 S AAAAA AveLos Angeles
820,CA,11366,(321) 111-2222,33,-118,11366 - CA,11111 S AAAAA AveLos Angeles
821,CA,11367,(321) 111-2222,33,-118,11367 - CA,11111 S AAAAA AveLos Angeles
822,CA,11368,(321) 111-2222,33,-118,11368 - CA,11111 S AAAAA AveLos Angeles
823,CA,11369,(321) 111-2222,33,-118,11369 - CA,11111 S AAAAA AveLos Angeles
824,CA,11370,(321) 111-2222,33,-118,11370 - CA,11111 S AAAAA AveLos Angeles
825,CA,11371,(321) 111-2222,33,-118,11371 - CA,11111 S AAAAA AveLos Angeles
826,CA,11372,(321) 111-2222,33,-118,11372 - CA,11111 S AAAAA AveLos Angeles
827,CA,11373,(321) 111-2222,33,-118,11373 - CA,11111 S AAAAA AveLos Angeles
828,CA,11374,(321) 111-2222,33,-118,11374 - CA,11111 S AAAAA AveLos Angeles
829,CA,11375,(321) 111-2222,33,-118,11375 - CA,11111 S AAAAA AveLos Angeles
830,CA,11376,(321) 111-2222,33,-118,11376 - CA,11111 S AAAAA AveLos Angeles
831,CA,11377,(321) 111-2222,33,-118,11377 - CA,11111 S AAAAA AveLos Angeles
832,CA,11378,(321) 111-2222,33,-118,11378 - CA,11111 S AAAAA AveLos Angeles
833,CA,11379,(321) 111-2222,33,-118,11379 - CA,11111 S AAAAA AveLos Angeles
834,CA,11380,(321) 111-2222,33,-118,11380 - CA,11111 S AAAAA AveLos Angeles
835,CA,11381,(321) 111-2222,33,-118,11381 - CA,11111 S AAAAA AveLos Angeles
836,CA,11382,(321) 111-2222,33,-118,11382 - CA,11111 S AAAAA AveLos Angeles
837,CA,11383,(321) 111-2222,33,-118,11383 - CA,11111 S AAAAA AveLos Angeles
838,CA,11384,(321) 111-2222,33,-118,11384 - CA,11111 S AAAAA AveLos Angeles
839,CA,11385,(321) 111-2222,33,-118,11385 - CA,11111 S AAAAA AveLos Angeles
840,CA,11386,(321) 111-2222,33,-118,11386 - CA,11111 S AAAAA AveLos Angeles
841,CA,11387,(321) 111-2222,33,-118,11387 - CA,11111 S AAAAA AveLos Angeles
842,CA,11388,(321) 111-2222,33,-118,11388 - CA,11111 S AAAAA AveLos Angeles
843,CA,11389,(321) 111-2222,33,-118,11389 - CA,11111 S AAAAA AveLos Angeles
844,CA,11390,(321) 111-2222,33,-118,11390 - CA,11111 S AAAAA AveLos Angeles
845,CA,11391,(321) 111-2222,33,-118,11391 - CA,11111 S AAAAA AveLos Angeles
846,CA,11392,(321) 111-2222,33,-118,11392 - CA,11111 S AAAAA AveLos Angeles
847,CA,11393,(321) 111-2222,33,-118,11393 - CA,11111 S AAAAA AveLos Angeles
848,CA,11394,(321) 111-2222,33,-118,11394 - CA,11111 S AAAAA AveLos Angeles
849,CA,11395,(321) 111-2222,33,-118,11395 - CA,11111 S AAAAA AveLos Angeles
850,CA,11396,(321) 111-2222,33,-118,11396 - CA,11111 S AAAAA AveLos Angeles
851,CA,11397,(321) 111-2222,33,-118,11397 - CA,11111 S AAAAA AveLos Angeles
852,CA,11398,(321) 111-2222,33,-118,11398 - CA,11111 S AAAAA AveLos Angeles
853,CA,11399,(321) 111-2222,33,-118,11399 - CA,11111 S AAAAA AveLos Angeles
854,CA,11400,(321) 111-2222,33,-118,11400 - CA,11111 S AAAAA AveLos Angeles
855,CA,11401,(321) 111-2222,33,-118,11401 - CA,11111 S AAAAA AveLos Angeles
856,CA,11402,(321) 111-2222,33,-118,11402 - CA,11111 S AAAAA AveLos Angeles
857,CA,11403,(321) 111-2222,33,-118,11403 - CA,11111 S AAAAA AveLos Angeles
858,CA,11404,(321) 111-2222,33,-118,11404 - CA,11111 S AAAAA AveLos Angeles
859,CA,11405,(321) 111-2222,33,-118,11405 - CA,11111 S AAAAA AveLos Angeles
860,CA,11406,(321) 111-2222,33,-118,11406 - CA,11111 S AAAAA AveLos Angeles
861,CA,11407,(321) 111-2222,33,-118,11407 - CA,11111 S AAAAA AveLos Angeles
862,CA,11408,(321) 111-2222,33,-118,11408 - CA,11111 S AAAAA AveLos Angeles
863,CA,11409,(321) 111-2222,33,-118,11409 - CA,11111 S AAAAA AveLos Angeles
864,CA,11410,(321) 111-2222,33,-118,11410 - CA,11111 S AAAAA AveLos Angeles
865,CA,11411,(321) 111-2222,33,-118,11411 - CA,11111 S AAAAA AveLos Angeles
866,CA,11412,(321) 111-2222,33,-118,11412 - CA,11111 S AAAAA AveLos Angeles
867,CA,11413,(321) 111-2222,33,-118,11413 - CA,11111 S AAAAA AveLos Angeles
868,CA,11414,(321) 111-2222,33,-118,11414 - CA,11111 S AAAAA AveLos Angeles
869,CA,11415,(321) 111-2222,33,-118,11415 - CA,11111 S AAAAA AveLos Angeles
870,CA,11416,(321) 111-2222,33,-118,11416 - CA,11111 S AAAAA AveLos Angeles
871,CA,11417,(321) 111-2222,33,-118,11417 - CA,11111 S AAAAA AveLos Angeles
872,CA,11418,(321) 111-2222,33,-118,11418 - CA,11111 S AAAAA AveLos Angeles
873,CA,11419,(321) 111-2222,33,-118,11419 - CA,11111 S AAAAA AveLos Angeles
874,CA,11420,(321) 111-2222,33,-118,11420 - CA,11111 S AAAAA AveLos Angeles
875,CA,11421,(321) 111-2222,33,-118,11421 - CA,11111 S AAAAA AveLos Angeles
876,CA,11422,(321) 111-2222,33,-118,11422 - CA,11111 S AAAAA AveLos Angeles
877,CA,11423,(321) 111-2222,33,-118,11423 - CA,11111 S AAAAA AveLos Angeles
878,CA,11424,(321) 111-2222,33,-118,11424 - CA,11111 S AAAAA AveLos Angeles
879,CA,11425,(321) 111-2222,33,-118,11425 - CA,11111 S AAAAA AveLos Angeles
880,CA,11426,(321) 111-2222,33,-118,11426 - CA,11111 S AAAAA AveLos Angeles
881,CA,11427,(321) 111-2222,33,-118,11427 - CA,11111 S AAAAA AveLos Angeles
882,CA,11428,(321) 111-2222,33,-118,11428 - CA,11111 S AAAAA AveLos Angeles
883,CA,11429,(321) 111-2222,33,-118,11429 - CA,11111 S AAAAA AveLos Angeles
884,CA,11430,(321) 111-2222,33,-118,11430 - CA,11111 S AAAAA AveLos Angeles
885,CA,11431,(321) 111-2222,33,-118,11431 - CA,11111 S AAAAA AveLos Angeles
886,CA,11432,(321) 111-2222,33,-118,11432 - CA,11111 S AAAAA AveLos Angeles
887,CA,11433,(321) 111-2222,33,-118,11433 - CA,11111 S AAAAA AveLos Angeles
888,CA,11434,(321) 111-2222,33,-118,11434 - CA,11111 S AAAAA AveLos Angeles
889,CA,11435,(321) 111-2222,33,-118,11435 - CA,11111 S AAAAA AveLos Angeles
890,CA,11436,(321) 111-2222,33,-118,11436 - CA,11111 S AAAAA AveLos Angeles
891,CA,11437,(321) 111-2222,33,-118,11437 - CA,11111 S AAAAA AveLos Angeles
892,CA,11438,(321) 111-2222,33,-118,11438 - CA,11111 S AAAAA AveLos Angeles
893,CA,11439,(321) 111-2222,33,-118,11439 - CA,11111 S AAAAA AveLos Angeles
894,CA,11440,(321) 111-2222,33,-118,11440 - CA,11111 S AAAAA AveLos Angeles
895,CA,11441,(321) 111-2222,33,-118,11441 - CA,11111 S AAAAA AveLos Angeles
896,CA,11442,(321) 111-2222,33,-118,11442 - CA,11111 S AAAAA AveLos Angeles
897,CA,11443,(321) 111-2222,33,-118,11443 - CA,11111 S AAAAA AveLos Angeles
898,CA,11444,(321) 111-2222,33,-118,11444 - CA,11111 S AAAAA AveLos Angeles
899,CA,11445,(321) 111-2222,33,-118,11445 - CA,11111 S AAAAA AveLos Angeles
900,CA,11446,(321) 111-2222,33,-118,11446 - CA,11111 S AAAAA AveLos Angeles
901,CA,11447,(321) 111-2222,33,-118,11447 - CA,11111 S AAAAA AveLos Angeles
902,CA,11448,(321) 111-2222,33,-118,11448 - CA,11111 S AAAAA AveLos Angeles
903,CA,11449,(321) 111-2222,33,-118,11449 - CA,11111 S AAAAA AveLos Angeles
904,CA,11450,(321) 111-2222,33,-118,11450 - CA,11111 S AAAAA AveLos Angeles
905,CA,11451,(321) 111-2222,33,-118,11451 - CA,11111 S AAAAA AveLos Angeles
906,CA,11452,(321) 111-2222,33,-118,11452 - CA,11111 S AAAAA AveLos Angeles
907,CA,11453,(321) 111-2222,33,-118,11453 - CA,11111 S AAAAA AveLos Angeles
908,CA,11454,(321) 111-2222,33,-118,11454 - CA,11111 S AAAAA AveLos Angeles
909,CA,11455,(321) 111-2222,33,-118,11455 - CA,11111 S AAAAA AveLos Angeles
910,CA,11456,(321) 111-2222,33,-118,11456 - CA,11111 S AAAAA AveLos Angeles
911,CA,11457,(321) 111-2222,33,-118,11457 - CA,11111 S AAAAA AveLos Angeles
912,CA,11458,(321) 111-2222,33,-118,11458 - CA,11111 S AAAAA AveLos Angeles
913,CA,11459,(321) 111-2222,33,-118,11459 - CA,11111 S AAAAA AveLos Angeles
914,CA,11460,(321) 111-2222,33,-118,11460 - CA,11111 S AAAAA AveLos Angeles
915,CA,11461,(321) 111-2222,33,-118,11461 - CA,11111 S AAAAA AveLos Angeles
916,CA,11462,(321) 111-2222,33,-118,11462 - CA,11111 S AAAAA AveLos Angeles
917,CA,11463,(321) 111-2222,33,-118,11463 - CA,11111 S AAAAA AveLos Angeles
918,CA,11464,(321) 111-2222,33,-118,11464 - CA,11111 S AAAAA AveLos Angeles
919,CA,11465,(321) 111-2222,33,-118,11465 - CA,11111 S AAAAA AveLos Angeles
920,CA,11466,(321) 111-2222,33,-118,11466 - CA,11111 S AAAAA AveLos Angeles
921,CA,11467,(321) 111-2222,33,-118,11467 - CA,11111 S AAAAA AveLos Angeles
922,CA,11468,(321) 111-2222,33,-118,11468 - CA,11111 S AAAAA AveLos Angeles
923,CA,11469,(321) 111-2222,33,-118,11469 - CA,11111 S AAAAA AveLos Angeles
924,CA,11470,(321) 111-2222,33,-118,11470 - CA,11111 S AAAAA AveLos Angeles
925,CA,11471,(321) 111-2222,33,-118,11471 - CA,11111 S AAAAA AveLos Angeles
926,CA,11472,(321) 111-2222,33,-118,11472 - CA,11111 S AAAAA AveLos Angeles
927,CA,11473,(321) 111-2222,33,-118,11473 - CA,11111 S AAAAA AveLos Angeles
928,CA,11474,(321) 111-2222,33,-118,11474 - CA,11111 S AAAAA AveLos Angeles
929,CA,11475,(321) 111-2222,33,-118,11475 - CA,11111 S AAAAA AveLos Angeles
930,CA,11476,(321) 111-2222,33,-118,11476 - CA,11111 S AAAAA AveLos Angeles
931,CA,11477,(321) 111-2222,33,-118,11477 - CA,11111 S AAAAA AveLos Angeles
932,CA,11478,(321) 111-2222,33,-118,11478 - CA,11111 S AAAAA AveLos Angeles
933,CA,11479,(321) 111-2222,33,-118,11479 - CA,11111 S AAAAA AveLos Angeles
934,CA,11480,(321) 111-2222,33,-118,11480 - CA,11111 S AAAAA AveLos Angeles
935,CA,11481,(321) 111-2222,33,-118,11481 - CA,11111 S AAAAA AveLos Angeles
936,CA,11482,(321) 111-2222,33,-118,11482 - CA,11111 S AAAAA AveLos Angeles
937,CA,11483,(321) 111-2222,33,-118,11483 - CA,11111 S AAAAA AveLos Angeles
938,CA,11484,(321) 111-2222,33,-118,11484 - CA,11111 S AAAAA AveLos Angeles
939,CA,11485,(321) 111-2222,33,-118,11485 - CA,11111 S AAAAA AveLos Angeles
940,CA,11486,(321) 111-2222,33,-118,11486 - CA,11111 S AAAAA AveLos Angeles
941,CA,11487,(321) 111-2222,33,-118,11487 - CA,11111 S AAAAA AveLos Angeles
942,CA,11488,(321) 111-2222,33,-118,11488 - CA,11111 S AAAAA AveLos Angeles
943,CA,11489,(321) 111-2222,33,-118,11489 - CA,11111 S AAAAA AveLos Angeles
944,CA,11490,(321) 111-2222,33,-118,11490 - CA,11111 S AAAAA AveLos Angeles
945,CA,11491,(321) 111-2222,33,-118,11491 - CA,11111 S AAAAA AveLos Angeles
946,CA,11492,(321) 111-2222,33,-118,11492 - CA,11111 S AAAAA AveLos Angeles
947,CA,11493,(321) 111-2222,33,-118,11493 - CA,11111 S AAAAA AveLos Angeles
948,CA,11494,(321) 111-2222,33,-118,11494 - CA,11111 S AAAAA AveLos Angeles
949,CA,11495,(321) 111-2222,33,-118,11495 - CA,11111 S AAAAA AveLos Angeles
950,CA,11496,(321) 111-2222,33,-118,11496 - CA,11111 S AAAAA AveLos Angeles
951,CA,11497,(321) 111-2222,33,-118,11497 - CA,11111 S AAAAA AveLos Angeles
952,CA,11498,(321) 111-2222,33,-118,11498 - CA,11111 S AAAAA AveLos Angeles
953,CA,11499,(321) 111-2222,33,-118,11499 - CA,11111 S AAAAA AveLos Angeles
954,CA,11500,(321) 111-2222,33,-118,11500 - CA,11111 S AAAAA AveLos Angeles
955,CA,11501,(321) 111-2222,33,-118,11501 - CA,11111 S AAAAA AveLos Angeles
956,CA,11502,(321) 111-2222,33,-118,11502 - CA,11111 S AAAAA AveLos Angeles
957,CA,11503,(321) 111-2222,33,-118,11503 - CA,11111 S AAAAA AveLos Angeles
958,CA,11504,(321) 111-2222,33,-118,11504 - CA,11111 S AAAAA AveLos Angeles
959,CA,11505,(321) 111-2222,33,-118,11505 - CA,11111 S AAAAA AveLos Angeles
960,CA,11506,(321) 111-2222,33,-118,11506 - CA,11111 S AAAAA AveLos Angeles
961,CA,11507,(321) 111-2222,33,-118,11507 - CA,11111 S AAAAA AveLos Angeles
962,CA,11508,(321) 111-2222,33,-118,11508 - CA,11111 S AAAAA AveLos Angeles
963,CA,11509,(321) 111-2222,33,-118,11509 - CA,11111 S AAAAA AveLos Angeles
964,CA,11510,(321) 111-2222,33,-118,11510 - CA,11111 S AAAAA AveLos Angeles
965,CA,11511,(321) 111-2222,33,-118,11511 - CA,11111 S AAAAA AveLos Angeles
966,CA,222222,(321) 111-2222,33,-118,222222 - CA,2221 W CCCC StLos Angeles
967,CA,222223,(321) 111-2222,33,-118,222223 - CA,2221 W CCCC StLos Angeles
968,CA,222224,(321) 111-2222,33,-118,222224 - CA,2221 W CCCC StLos Angeles
969,CA,222225,(321) 111-2222,33,-118,222225 - CA,2221 W CCCC StLos Angeles
970,CA,222226,(321) 111-2222,33,-118,222226 - CA,2221 W CCCC StLos Angeles
971,CA,222227,(321) 111-2222,33,-118,222227 - CA,2221 W CCCC StLos Angeles
972,CA,222228,(321) 111-2222,33,-118,222228 - CA,2221 W CCCC StLos Angeles
973,CA,222229,(321) 111-2222,33,-118,222229 - CA,2221 W CCCC StLos Angeles
974,CA,222230,(321) 111-2222,33,-118,222230 - CA,2221 W CCCC StLos Angeles
975,CA,222231,(321) 111-2222,33,-118,222231 - CA,2221 W CCCC StLos Angeles
976,CA,222232,(321) 111-2222,33,-118,222232 - CA,2221 W CCCC StLos Angeles
977,CA,222233,(321) 111-2222,33,-118,222233 - CA,2221 W CCCC StLos Angeles
978,CA,222234,(321) 111-2222,33,-118,222234 - CA,2221 W CCCC StLos Angeles
979,CA,222235,(321) 111-2222,33,-118,222235 - CA,2221 W CCCC StLos Angeles
980,CA,222236,(321) 111-2222,33,-118,222236 - CA,2221 W CCCC StLos Angeles
981,CA,222237,(321) 111-2222,33,-118,222237 - CA,2221 W CCCC StLos Angeles
982,CA,222238,(321) 111-2222,33,-118,222238 - CA,2221 W CCCC StLos Angeles
983,CA,222239,(321) 111-2222,33,-118,222239 - CA,2221 W CCCC StLos Angeles
984,CA,222240,(321) 111-2222,33,-118,222240 - CA,2221 W CCCC StLos Angeles
985,CA,222241,(321) 111-2222,33,-118,222241 - CA,2221 W CCCC StLos Angeles
986,CA,222242,(321) 111-2222,33,-118,222242 - CA,2221 W CCCC StLos Angeles
987,CA,222243,(321) 111-2222,33,-118,222243 - CA,2221 W CCCC StLos Angeles
988,CA,222244,(321) 111-2222,33,-118,222244 - CA,2221 W CCCC StLos Angeles
989,CA,222245,(321) 111-2222,33,-118,222245 - CA,2221 W CCCC StLos Angeles
990,CA,222246,(321) 111-2222,33,-118,222246 - CA,2221 W CCCC StLos Angeles
991,CA,222247,(321) 111-2222,33,-118,222247 - CA,2221 W CCCC StLos Angeles
992,CA,222248,(321) 111-2222,33,-118,222248 - CA,2221 W CCCC StLos Angeles
993,CA,222249,(321) 111-2222,33,-118,222249 - CA,2221 W CCCC StLos Angeles
994,CA,222250,(321) 111-2222,33,-118,222250 - CA,2221 W CCCC StLos Angeles
995,CA,222251,(321) 111-2222,33,-118,222251 - CA,2221 W CCCC StLos Angeles
996,CA,222252,(321) 111-2222,33,-118,222252 - CA,2221 W CCCC StLos Angeles
997,CA,222253,(321) 111-2222,33,-118,222253 - CA,2221 W CCCC StLos Angeles
998,CA,222254,(321) 111-2222,33,-118,222254 - CA,2221 W CCCC StLos Angeles
999,CA,222255,(321) 111-2222,33,-118,222255 - CA,2221 W CCCC StLos Angeles
1000,CA,222256,(321) 111-2222,33,-118,222256 - CA,2221 W CCCC StLos Angeles
1001,CA,222257,(321) 111-2222,33,-118,222257 - CA,2221 W CCCC StLos Angeles
1002,CA,222258,(321) 111-2222,33,-118,222258 - CA,2221 W CCCC StLos Angeles
1003,CA,222259,(321) 111-2222,33,-118,222259 - CA,2221 W CCCC StLos Angeles
1004,CA,222260,(321) 111-2222,33,-118,222260 - CA,2221 W CCCC StLos Angeles
1005,CA,222261,(321) 111-2222,33,-118,222261 - CA,2221 W CCCC StLos Angeles
1006,CA,222262,(321) 111-2222,33,-118,222262 - CA,2221 W CCCC StLos Angeles
1007,CA,222263,(321) 111-2222,33,-118,222263 - CA,2221 W CCCC StLos Angeles
1008,CA,222264,(321) 111-2222,33,-118,222264 - CA,2221 W CCCC StLos Angeles
1009,CA,222265,(321) 111-2222,33,-118,222265 - CA,2221 W CCCC StLos Angeles
1010,CA,222266,(321) 111-2222,33,-118,222266 - CA,2221 W CCCC StLos Angeles
1011,CA,222267,(321) 111-2222,33,-118,222267 - CA,2221 W CCCC StLos Angeles
1012,CA,222268,(321) 111-2222,33,-118,222268 - CA,2221 W CCCC StLos Angeles
1013,CA,222269,(321) 111-2222,33,-118,222269 - CA,2221 W CCCC StLos Angeles
1014,CA,222270,(321) 111-2222,33,-118,222270 - CA,2221 W CCCC StLos Angeles
1015,CA,222271,(321) 111-2222,33,-118,222271 - CA,2221 W CCCC StLos Angeles
1016,CA,222272,(321) 111-2222,33,-118,222272 - CA,2221 W CCCC StLos Angeles
1017,CA,222273,(321) 111-2222,33,-118,222273 - CA,2221 W CCCC StLos Angeles
1018,CA,222274,(321) 111-2222,33,-118,222274 - CA,2221 W CCCC StLos Angeles
1019,CA,222275,(321) 111-2222,33,-118,222275 - CA,2221 W CCCC StLos Angeles
1020,CA,222276,(321) 111-2222,33,-118,222276 - CA,2221 W CCCC StLos Angeles
1021,CA,222277,(321) 111-2222,33,-118,222277 - CA,2221 W CCCC StLos Angeles
1022,CA,222278,(321) 111-2222,33,-118,222278 - CA,2221 W CCCC StLos Angeles
1023,CA,222279,(321) 111-2222,33,-118,222279 - CA,2221 W CCCC StLos Angeles
1024,CA,222280,(321) 111-2222,33,-118,222280 - CA,2221 W CCCC StLos Angeles
1025,CA,222281,(321) 111-2222,33,-118,222281 - CA,2221 W CCCC StLos Angeles
1026,CA,222282,(321) 111-2222,33,-118,222282 - CA,2221 W CCCC StLos Angeles
1027,CA,222283,(321) 111-2222,33,-118,222283 - CA,2221 W CCCC StLos Angeles
1028,CA,222284,(321) 111-2222,33,-118,222284 - CA,2221 W CCCC StLos Angeles
1029,CA,222285,(321) 111-2222,33,-118,222285 - CA,2221 W CCCC StLos Angeles
1030,CA,222286,(321) 111-2222,33,-118,222286 - CA,2221 W CCCC StLos Angeles
1031,CA,222287,(321) 111-2222,33,-118,222287 - CA,2221 W CCCC StLos Angeles
1032,CA,222288,(321) 111-2222,33,-118,222288 - CA,2221 W CCCC StLos Angeles
1033,CA,222289,(321) 111-2222,33,-118,222289 - CA,2221 W CCCC StLos Angeles
1034,CA,222290,(321) 111-2222,33,-118,222290 - CA,2221 W CCCC StLos Angeles
1035,CA,222291,(321) 111-2222,33,-118,222291 - CA,2221 W CCCC StLos Angeles
1036,CA,222292,(321) 111-2222,33,-118,222292 - CA,2221 W CCCC StLos Angeles
1037,CA,222293,(321) 111-2222,33,-118,222293 - CA,2221 W CCCC StLos Angeles
1038,CA,222294,(321) 111-2222,33,-118,222294 - CA,2221 W CCCC StLos Angeles
1039,CA,222295,(321) 111-2222,33,-118,222295 - CA,2221 W CCCC StLos Angeles
1040,CA,222296,(321) 111-2222,33,-118,222296 - CA,2221 W CCCC StLos Angeles
1041,CA,222297,(321) 111-2222,33,-118,222297 - CA,2221 W CCCC StLos Angeles
1042,CA,222298,(321) 111-2222,33,-118,222298 - CA,2221 W CCCC StLos Angeles
1043,CA,222299,(321) 111-2222,33,-118,222299 - CA,2221 W CCCC StLos Angeles
1044,CA,222300,(321) 111-2222,33,-118,222300 - CA,2221 W CCCC StLos Angeles
1045,CA,222301,(321) 111-2222,33,-118,222301 - CA,2221 W CCCC StLos Angeles
1046,CA,222302,(321) 111-2222,33,-118,222302 - CA,2221 W CCCC StLos Angeles
1047,CA,222303,(321) 111-2222,33,-118,222303 - CA,2221 W CCCC StLos Angeles
1048,CA,222304,(321) 111-2222,33,-118,222304 - CA,2221 W CCCC StLos Angeles
1049,CA,222305,(321) 111-2222,33,-118,222305 - CA,2221 W CCCC StLos Angeles
1050,CA,222306,(321) 111-2222,33,-118,222306 - CA,2221 W CCCC StLos Angeles
1051,CA,222307,(321) 111-2222,33,-118,222307 - CA,2221 W CCCC StLos Angeles
1052,CA,222308,(321) 111-2222,33,-118,222308 - CA,2221 W CCCC StLos Angeles
1053,CA,222309,(321) 111-2222,33,-118,222309 - CA,2221 W CCCC StLos Angeles
1054,CA,222310,(321) 111-2222,33,-118,222310 - CA,2221 W CCCC StLos Angeles
1055,CA,222311,(321) 111-2222,33,-118,222311 - CA,2221 W CCCC StLos Angeles
1056,CA,222312,(321) 111-2222,33,-118,222312 - CA,2221 W CCCC StLos Angeles
1057,CA,222313,(321) 111-2222,33,-118,222313 - CA,2221 W CCCC StLos Angeles
1058,CA,222314,(321) 111-2222,33,-118,222314 - CA,2221 W CCCC StLos Angeles
1059,CA,222315,(321) 111-2222,33,-118,222315 - CA,2221 W CCCC StLos Angeles
1060,CA,222316,(321) 111-2222,33,-118,222316 - CA,2221 W CCCC StLos Angeles
1061,CA,222317,(321) 111-2222,33,-118,222317 - CA,2221 W CCCC StLos Angeles
1062,CA,222318,(321) 111-2222,33,-118,222318 - CA,2221 W CCCC StLos Angeles
1063,CA,222319,(321) 111-2222,33,-118,222319 - CA,2221 W CCCC StLos Angeles
1064,CA,222320,(321) 111-2222,33,-118,222320 - CA,2221 W CCCC StLos Angeles
1065,CA,222321,(321) 111-2222,33,-118,222321 - CA,2221 W CCCC StLos Angeles
1066,CA,222322,(321) 111-2222,33,-118,222322 - CA,2221 W CCCC StLos Angeles
1067,CA,222323,(321) 111-2222,33,-118,222323 - CA,2221 W CCCC StLos Angeles
1068,CA,222324,(321) 111-2222,33,-118,222324 - CA,2221 W CCCC StLos Angeles
1069,CA,222325,(321) 111-2222,33,-118,222325 - CA,2221 W CCCC StLos Angeles
1070,CA,222326,(321) 111-2222,33,-118,222326 - CA,2221 W CCCC StLos Angeles
1071,CA,222327,(321) 111-2222,33,-118,222327 - CA,2221 W CCCC StLos Angeles
1072,CA,222328,(321) 111-2222,33,-118,222328 - CA,2221 W CCCC StLos Angeles
1073,CA,222329,(321) 111-2222,33,-118,222329 - CA,2221 W CCCC StLos Angeles
1074,CA,222330,(321) 111-2222,33,-118,222330 - CA,2221 W CCCC StLos Angeles
1075,CA,222331,(321) 111-2222,33,-118,222331 - CA,2221 W CCCC StLos Angeles
1076,CA,222332,(321) 111-2222,33,-118,222332 - CA,2221 W CCCC StLos Angeles
1077,CA,222333,(321) 111-2222,33,-118,222333 - CA,2221 W CCCC StLos Angeles
1078,CA,222334,(321) 111-2222,33,-118,222334 - CA,2221 W CCCC StLos Angeles
1079,CA,222335,(321) 111-2222,33,-118,222335 - CA,2221 W CCCC StLos Angeles
1080,CA,222336,(321) 111-2222,33,-118,222336 - CA,2221 W CCCC StLos Angeles
1081,CA,222337,(321) 111-2222,33,-118,222337 - CA,2221 W CCCC StLos Angeles
1082,CA,222338,(321) 111-2222,33,-118,222338 - CA,2221 W CCCC StLos Angeles
1083,CA,222339,(321) 111-2222,33,-118,222339 - CA,2221 W CCCC StLos Angeles
1084,CA,222340,(321) 111-2222,33,-118,222340 - CA,2221 W CCCC StLos Angeles
1085,CA,222341,(321) 111-2222,33,-118,222341 - CA,2221 W CCCC StLos Angeles
1086,CA,222342,(321) 111-2222,33,-118,222342 - CA,2221 W CCCC StLos Angeles
1087,CA,222343,(321) 111-2222,33,-118,222343 - CA,2221 W CCCC StLos Angeles
1088,CA,222344,(321) 111-2222,33,-118,222344 - CA,2221 W CCCC StLos Angeles
1089,CA,222345,(321) 111-2222,33,-118,222345 - CA,2221 W CCCC StLos Angeles
1090,CA,222346,(321) 111-2222,33,-118,222346 - CA,2221 W CCCC StLos Angeles
1091,CA,222347,(321) 111-2222,33,-118,222347 - CA,2221 W CCCC StLos Angeles
1092,CA,222348,(321) 111-2222,33,-118,222348 - CA,2221 W CCCC StLos Angeles
1093,CA,222349,(321) 111-2222,33,-118,222349 - CA,2221 W CCCC StLos Angeles
1094,CA,222350,(321) 111-2222,33,-118,222350 - CA,2221 W CCCC StLos Angeles
1095,CA,222351,(321) 111-2222,33,-118,222351 - CA,2221 W CCCC StLos Angeles
1096,CA,222352,(321) 111-2222,33,-118,222352 - CA,2221 W CCCC StLos Angeles
1097,CA,222353,(321) 111-2222,33,-118,222353 - CA,2221 W CCCC StLos Angeles
1098,CA,222354,(321) 111-2222,33,-118,222354 - CA,2221 W CCCC StLos Angeles
1099,CA,222355,(321) 111-2222,33,-118,222355 - CA,2221 W CCCC StLos Angeles
1100,CA,222356,(321) 111-2222,33,-118,222356 - CA,2221 W CCCC StLos Angeles
1101,CA,222357,(321) 111-2222,33,-118,222357 - CA,2221 W CCCC StLos Angeles
1102,CA,222358,(321) 111-2222,33,-118,222358 - CA,2221 W CCCC StLos Angeles
1103,CA,222359,(321) 111-2222,33,-118,222359 - CA,2221 W CCCC StLos Angeles
1104,CA,222360,(321) 111-2222,33,-118,222360 - CA,2221 W CCCC StLos Angeles
1105,CA,222361,(321) 111-2222,33,-118,222361 - CA,2221 W CCCC StLos Angeles
1106,CA,222362,(321) 111-2222,33,-118,222362 - CA,2221 W CCCC StLos Angeles
1107,CA,222363,(321) 111-2222,33,-118,222363 - CA,2221 W CCCC StLos Angeles
1108,CA,222364,(321) 111-2222,33,-118,222364 - CA,2221 W CCCC StLos Angeles
1109,CA,222365,(321) 111-2222,33,-118,222365 - CA,2221 W CCCC StLos Angeles
1110,CA,222366,(321) 111-2222,33,-118,222366 - CA,2221 W CCCC StLos Angeles
1111,CA,222367,(321) 111-2222,33,-118,222367 - CA,2221 W CCCC StLos Angeles
1112,CA,222368,(321) 111-2222,33,-118,222368 - CA,2221 W CCCC StLos Angeles
1113,CA,222369,(321) 111-2222,33,-118,222369 - CA,2221 W CCCC StLos Angeles
1114,CA,222370,(321) 111-2222,33,-118,222370 - CA,2221 W CCCC StLos Angeles
1115,CA,222371,(321) 111-2222,33,-118,222371 - CA,2221 W CCCC StLos Angeles
1116,CA,222372,(321) 111-2222,33,-118,222372 - CA,2221 W CCCC StLos Angeles
1117,CA,222373,(321) 111-2222,33,-118,222373 - CA,2221 W CCCC StLos Angeles
1118,CA,222374,(321) 111-2222,33,-118,222374 - CA,2221 W CCCC StLos Angeles
1119,CA,222375,(321) 111-2222,33,-118,222375 - CA,2221 W CCCC StLos Angeles
1120,CA,222376,(321) 111-2222,33,-118,222376 - CA,2221 W CCCC StLos Angeles
1121,CA,222377,(321) 111-2222,33,-118,222377 - CA,2221 W CCCC StLos Angeles
1122,CA,222378,(321) 111-2222,33,-118,222378 - CA,2221 W CCCC StLos Angeles
1123,CA,222379,(321) 111-2222,33,-118,222379 - CA,2221 W CCCC StLos Angeles
1124,CA,222380,(321) 111-2222,33,-118,222380 - CA,2221 W CCCC StLos Angeles
1125,CA,222381,(321) 111-2222,33,-118,222381 - CA,2221 W CCCC StLos Angeles
1126,CA,222382,(321) 111-2222,33,-118,222382 - CA,2221 W CCCC StLos Angeles
1127,CA,222383,(321) 111-2222,33,-118,222383 - CA,2221 W CCCC StLos Angeles
1128,CA,222384,(321) 111-2222,33,-118,222384 - CA,2221 W CCCC StLos Angeles
1129,CA,222385,(321) 111-2222,33,-118,222385 - CA,2221 W CCCC StLos Angeles
1130,CA,222386,(321) 111-2222,33,-118,222386 - CA,2221 W CCCC StLos Angeles
1131,CA,222387,(321) 111-2222,33,-118,222387 - CA,2221 W CCCC StLos Angeles
1132,CA,222388,(321) 111-2222,33,-118,222388 - CA,2221 W CCCC StLos Angeles
1133,CA,222389,(321) 111-2222,33,-118,222389 - CA,2221 W CCCC StLos Angeles
1134,CA,222390,(321) 111-2222,33,-118,222390 - CA,2221 W CCCC StLos Angeles
1135,CA,222391,(321) 111-2222,33,-118,222391 - CA,2221 W CCCC StLos Angeles
1136,CA,222392,(321) 111-2222,33,-118,222392 - CA,2221 W CCCC StLos Angeles
1137,CA,222393,(321) 111-2222,33,-118,222393 - CA,2221 W CCCC StLos Angeles
1138,CA,222394,(321) 111-2222,33,-118,222394 - CA,2221 W CCCC StLos Angeles
1139,CA,222395,(321) 111-2222,33,-118,222395 - CA,2221 W CCCC StLos Angeles
1140,CA,222396,(321) 111-2222,33,-118,222396 - CA,2221 W CCCC StLos Angeles
1141,CA,222397,(321) 111-2222,33,-118,222397 - CA,2221 W CCCC StLos Angeles
1142,CA,222398,(321) 111-2222,33,-118,222398 - CA,2221 W CCCC StLos Angeles
1143,CA,222399,(321) 111-2222,33,-118,222399 - CA,2221 W CCCC StLos Angeles
1144,CA,222400,(321) 111-2222,33,-118,222400 - CA,2221 W CCCC StLos Angeles
1145,CA,222401,(321) 111-2222,33,-118,222401 - CA,2221 W CCCC StLos Angeles
1146,CA,222402,(321) 111-2222,33,-118,222402 - CA,2221 W CCCC StLos Angeles
1147,CA,222403,(321) 111-2222,33,-118,222403 - CA,2221 W CCCC StLos Angeles
1148,CA,222404,(321) 111-2222,33,-118,222404 - CA,2221 W CCCC StLos Angeles
1149,CA,222405,(321) 111-2222,33,-118,222405 - CA,2221 W CCCC StLos Angeles
1150,CA,222406,(321) 111-2222,33,-118,222406 - CA,2221 W CCCC StLos Angeles
1151,CA,222407,(321) 111-2222,33,-118,222407 - CA,2221 W CCCC StLos Angeles
1152,CA,222408,(321) 111-2222,33,-118,222408 - CA,2221 W CCCC StLos Angeles
1153,CA,222409,(321) 111-2222,33,-118,222409 - CA,2221 W CCCC StLos Angeles
1154,CA,222410,(321) 111-2222,33,-118,222410 - CA,2221 W CCCC StLos Angeles
1155,CA,222411,(321) 111-2222,33,-118,222411 - CA,2221 W CCCC StLos Angeles
1156,CA,222412,(321) 111-2222,33,-118,222412 - CA,2221 W CCCC StLos Angeles
1157,CA,222413,(321) 111-2222,33,-118,222413 - CA,2221 W CCCC StLos Angeles
1158,CA,222414,(321) 111-2222,33,-118,222414 - CA,2221 W CCCC StLos Angeles
1159,CA,222415,(321) 111-2222,33,-118,222415 - CA,2221 W CCCC StLos Angeles
1160,CA,222416,(321) 111-2222,33,-118,222416 - CA,2221 W CCCC StLos Angeles
1161,CA,222417,(321) 111-2222,33,-118,222417 - CA,2221 W CCCC StLos Angeles
1162,CA,222418,(321) 111-2222,33,-118,222418 - CA,2221 W CCCC StLos Angeles
1163,CA,222419,(321) 111-2222,33,-118,222419 - CA,2221 W CCCC StLos Angeles
1164,CA,222420,(321) 111-2222,33,-118,222420 - CA,2221 W CCCC StLos Angeles
1165,CA,222421,(321) 111-2222,33,-118,222421 - CA,2221 W CCCC StLos Angeles
1166,CA,222422,(321) 111-2222,33,-118,222422 - CA,2221 W CCCC StLos Angeles
1167,CA,222423,(321) 111-2222,33,-118,222423 - CA,2221 W CCCC StLos Angeles
1168,CA,222424,(321) 111-2222,33,-118,222424 - CA,2221 W CCCC StLos Angeles
1169,CA,222425,(321) 111-2222,33,-118,222425 - CA,2221 W CCCC StLos Angeles
1170,CA,222426,(321) 111-2222,33,-118,222426 - CA,2221 W CCCC StLos Angeles
1171,CA,222427,(321) 111-2222,33,-118,222427 - CA,2221 W CCCC StLos Angeles
1172,CA,222428,(321) 111-2222,33,-118,222428 - CA,2221 W CCCC StLos Angeles
1173,CA,222429,(321) 111-2222,33,-118,222429 - CA,2221 W CCCC StLos Angeles
1174,CA,222430,(321) 111-2222,33,-118,222430 - CA,2221 W CCCC StLos Angeles
1175,CA,222431,(321) 111-2222,33,-118,222431 - CA,2221 W CCCC StLos Angeles
1176,CA,222432,(321) 111-2222,33,-118,222432 - CA,2221 W CCCC StLos Angeles
1177,CA,222433,(321) 111-2222,33,-118,222433 - CA,2221 W CCCC StLos Angeles
1178,CA,222434,(321) 111-2222,33,-118,222434 - CA,2221 W CCCC StLos Angeles
1179,CA,222435,(321) 111-2222,33,-118,222435 - CA,2221 W CCCC StLos Angeles
1180,CA,222436,(321) 111-2222,33,-118,222436 - CA,2221 W CCCC StLos Angeles
1181,CA,222437,(321) 111-2222,33,-118,222437 - CA,2221 W CCCC StLos Angeles
1182,CA,222438,(321) 111-2222,33,-118,222438 - CA,2221 W CCCC StLos Angeles
1183,CA,222439,(321) 111-2222,33,-118,222439 - CA,2221 W CCCC StLos Angeles
1184,CA,222440,(321) 111-2222,33,-118,222440 - CA,2221 W CCCC StLos Angeles
1185,CA,222441,(321) 111-2222,33,-118,222441 - CA,2221 W CCCC StLos Angeles
1186,CA,222442,(321) 111-2222,33,-118,222442 - CA,2221 W CCCC StLos Angeles
1187,CA,222443,(321) 111-2222,33,-118,222443 - CA,2221 W CCCC StLos Angeles
1188,CA,222444,(321) 111-2222,33,-118,222444 - CA,2221 W CCCC StLos Angeles
1189,CA,222445,(321) 111-2222,33,-118,222445 - CA,2221 W CCCC StLos Angeles
1190,CA,222446,(321) 111-2222,33,-118,222446 - CA,2221 W CCCC StLos Angeles
1191,CA,222447,(321) 111-2222,33,-118,222447 - CA,2221 W CCCC StLos Angeles
1192,CA,222448,(321) 111-2222,33,-118,222448 - CA,2221 W CCCC StLos Angeles
1193,CA,222449,(321) 111-2222,33,-118,222449 - CA,2221 W CCCC StLos Angeles
1194,CA,222450,(321) 111-2222,33,-118,222450 - CA,2221 W CCCC StLos Angeles
1195,CA,222451,(321) 111-2222,33,-118,222451 - CA,2221 W CCCC StLos Angeles
1196,CA,222452,(321) 111-2222,33,-118,222452 - CA,2221 W CCCC StLos Angeles
1197,CA,222453,(321) 111-2222,33,-118,222453 - CA,2221 W CCCC StLos Angeles
1198,CA,222454,(321) 111-2222,33,-118,222454 - CA,2221 W CCCC StLos Angeles
1199,CA,222455,(321) 111-2222,33,-118,222455 - CA,2221 W CCCC StLos Angeles
1200,CA,222456,(321) 111-2222,33,-118,222456 - CA,2221 W CCCC StLos Angeles
1201,CA,222457,(321) 111-2222,33,-118,222457 - CA,2221 W CCCC StLos Angeles
1202,CA,222458,(321) 111-2222,33,-118,222458 - CA,2221 W CCCC StLos Angeles
1203,CA,222459,(321) 111-2222,33,-118,222459 - CA,2221 W CCCC StLos Angeles
1204,CA,222460,(321) 111-2222,33,-118,222460 - CA,2221 W CCCC StLos Angeles
1205,CA,222461,(321) 111-2222,33,-118,222461 - CA,2221 W CCCC StLos Angeles
1206,CA,222462,(321) 111-2222,33,-118,222462 - CA,2221 W CCCC StLos Angeles
1207,CA,222463,(321) 111-2222,33,-118,222463 - CA,2221 W CCCC StLos Angeles
1208,CA,222464,(321) 111-2222,33,-118,222464 - CA,2221 W CCCC StLos Angeles
1209,CA,222465,(321) 111-2222,33,-118,222465 - CA,2221 W CCCC StLos Angeles
1210,CA,222466,(321) 111-2222,33,-118,222466 - CA,2221 W CCCC StLos Angeles
1211,CA,222467,(321) 111-2222,33,-118,222467 - CA,2221 W CCCC StLos Angeles
1212,CA,222468,(321) 111-2222,33,-118,222468 - CA,2221 W CCCC StLos Angeles
1213,CA,222469,(321) 111-2222,33,-118,222469 - CA,2221 W CCCC StLos Angeles
1214,CA,222470,(321) 111-2222,33,-118,222470 - CA,2221 W CCCC StLos Angeles
1215,CA,222471,(321) 111-2222,33,-118,222471 - CA,2221 W CCCC StLos Angeles
1216,CA,222472,(321) 111-2222,33,-118,222472 - CA,2221 W CCCC StLos Angeles
1217,CA,222473,(321) 111-2222,33,-118,222473 - CA,2221 W CCCC StLos Angeles
1218,CA,222474,(321) 111-2222,33,-118,222474 - CA,2221 W CCCC StLos Angeles
1219,CA,222475,(321) 111-2222,33,-118,222475 - CA,2221 W CCCC StLos Angeles
1220,CA,222476,(321) 111-2222,33,-118,222476 - CA,2221 W CCCC StLos Angeles
1221,CA,222477,(321) 111-2222,33,-118,222477 - CA,2221 W CCCC StLos Angeles
1222,CA,222478,(321) 111-2222,33,-118,222478 - CA,2221 W CCCC StLos Angeles
1223,CA,222479,(321) 111-2222,33,-118,222479 - CA,2221 W CCCC StLos Angeles
1224,CA,222480,(321) 111-2222,33,-118,222480 - CA,2221 W CCCC StLos Angeles
1225,CA,222481,(321) 111-2222,33,-118,222481 - CA,2221 W CCCC StLos Angeles
1226,CA,222482,(321) 111-2222,33,-118,222482 - CA,2221 W CCCC StLos Angeles
1227,CA,222483,(321) 111-2222,33,-118,222483 - CA,2221 W CCCC StLos Angeles
1228,CA,222484,(321) 111-2222,33,-118,222484 - CA,2221 W CCCC StLos Angeles
1229,CA,222485,(321) 111-2222,33,-118,222485 - CA,2221 W CCCC StLos Angeles
1230,CA,222486,(321) 111-2222,33,-118,222486 - CA,2221 W CCCC StLos Angeles
1231,CA,222487,(321) 111-2222,33,-118,222487 - CA,2221 W CCCC StLos Angeles
1232,CA,222488,(321) 111-2222,33,-118,222488 - CA,2221 W CCCC StLos Angeles
1233,CA,222489,(321) 111-2222,33,-118,222489 - CA,2221 W CCCC StLos Angeles
1234,CA,222490,(321) 111-2222,33,-118,222490 - CA,2221 W CCCC StLos Angeles
1235,CA,222491,(321) 111-2222,33,-118,222491 - CA,2221 W CCCC StLos Angeles
1236,CA,222492,(321) 111-2222,33,-118,222492 - CA,2221 W CCCC StLos Angeles
1237,CA,222493,(321) 111-2222,33,-118,222493 - CA,2221 W CCCC StLos Angeles
1238,CA,222494,(321) 111-2222,33,-118,222494 - CA,2221 W CCCC StLos Angeles
1239,CA,222495,(321) 111-2222,33,-118,222495 - CA,2221 W CCCC StLos Angeles
1240,CA,222496,(321) 111-2222,33,-118,222496 - CA,2221 W CCCC StLos Angeles
1241,CA,222497,(321) 111-2222,33,-118,222497 - CA,2221 W CCCC StLos Angeles
1242,CA,222498,(321) 111-2222,33,-118,222498 - CA,2221 W CCCC StLos Angeles
1243,CA,222499,(321) 111-2222,33,-118,222499 - CA,2221 W CCCC StLos Angeles
1244,CA,222500,(321) 111-2222,33,-118,222500 - CA,2221 W CCCC StLos Angeles
1245,CA,222501,(321) 111-2222,33,-118,222501 - CA,2221 W CCCC StLos Angeles
1246,CA,222502,(321) 111-2222,33,-118,222502 - CA,2221 W CCCC StLos Angeles
1247,CA,222503,(321) 111-2222,33,-118,222503 - CA,2221 W CCCC StLos Angeles
1248,CA,222504,(321) 111-2222,33,-118,222504 - CA,2221 W CCCC StLos Angeles
1249,CA,222505,(321) 111-2222,33,-118,222505 - CA,2221 W CCCC StLos Angeles
1250,CA,222506,(321) 111-2222,33,-118,222506 - CA,2221 W CCCC StLos Angeles
1251,CA,222507,(321) 111-2222,33,-118,222507 - CA,2221 W CCCC StLos Angeles
1252,CA,222508,(321) 111-2222,33,-118,222508 - CA,2221 W CCCC StLos Angeles
1253,CA,222509,(321) 111-2222,33,-118,222509 - CA,2221 W CCCC StLos Angeles
1254,CA,222510,(321) 111-2222,33,-118,222510 - CA,2221 W CCCC StLos Angeles
1255,CA,222511,(321) 111-2222,33,-118,222511 - CA,2221 W CCCC StLos Angeles
1256,CA,222512,(321) 111-2222,33,-118,222512 - CA,2221 W CCCC StLos Angeles
1257,CA,222513,(321) 111-2222,33,-118,222513 - CA,2221 W CCCC StLos Angeles
1258,CA,222514,(321) 111-2222,33,-118,222514 - CA,2221 W CCCC StLos Angeles
1259,CA,222515,(321) 111-2222,33,-118,222515 - CA,2221 W CCCC StLos Angeles
1260,CA,222516,(321) 111-2222,33,-118,222516 - CA,2221 W CCCC StLos Angeles
1261,CA,222517,(321) 111-2222,33,-118,222517 - CA,2221 W CCCC StLos Angeles
1262,CA,222518,(321) 111-2222,33,-118,222518 - CA,2221 W CCCC StLos Angeles
1263,CA,222519,(321) 111-2222,33,-118,222519 - CA,2221 W CCCC StLos Angeles
1264,CA,222520,(321) 111-2222,33,-118,222520 - CA,2221 W CCCC StLos Angeles
1265,CA,222521,(321) 111-2222,33,-118,222521 - CA,2221 W CCCC StLos Angeles
1266,CA,222522,(321) 111-2222,33,-118,222522 - CA,2221 W CCCC StLos Angeles
1267,CA,222523,(321) 111-2222,33,-118,222523 - CA,2221 W CCCC StLos Angeles
1268,CA,222524,(321) 111-2222,33,-118,222524 - CA,2221 W CCCC StLos Angeles
1269,CA,222525,(321) 111-2222,33,-118,222525 - CA,2221 W CCCC StLos Angeles
1270,CA,222526,(321) 111-2222,33,-118,222526 - CA,2221 W CCCC StLos Angeles
1271,CA,222527,(321) 111-2222,33,-118,222527 - CA,2221 W CCCC StLos Angeles
1272,CA,222528,(321) 111-2222,33,-118,222528 - CA,2221 W CCCC StLos Angeles
1273,CA,222529,(321) 111-2222,33,-118,222529 - CA,2221 W CCCC StLos Angeles
1274,CA,222530,(321) 111-2222,33,-118,222530 - CA,2221 W CCCC StLos Angeles
1275,CA,222531,(321) 111-2222,33,-118,222531 - CA,2221 W CCCC StLos Angeles
1276,CA,222532,(321) 111-2222,33,-118,222532 - CA,2221 W CCCC StLos Angeles
1277,CA,222533,(321) 111-2222,33,-118,222533 - CA,2221 W CCCC StLos Angeles
1278,CA,222534,(321) 111-2222,33,-118,222534 - CA,2221 W CCCC StLos Angeles
1279,CA,222535,(321) 111-2222,33,-118,222535 - CA,2221 W CCCC StLos Angeles
1280,CA,222536,(321) 111-2222,33,-118,222536 - CA,2221 W CCCC StLos Angeles
1281,CA,222537,(321) 111-2222,33,-118,222537 - CA,2221 W CCCC StLos Angeles
1282,CA,222538,(321) 111-2222,33,-118,222538 - CA,2221 W CCCC StLos Angeles
1283,CA,222539,(321) 111-2222,33,-118,222539 - CA,2221 W CCCC StLos Angeles
1284,CA,222540,(321) 111-2222,33,-118,222540 - CA,2221 W CCCC StLos Angeles
1285,CA,222541,(321) 111-2222,33,-118,222541 - CA,2221 W CCCC StLos Angeles
1286,CA,222542,(321) 111-2222,33,-118,222542 - CA,2221 W CCCC StLos Angeles
1287,CA,222543,(321) 111-2222,33,-118,222543 - CA,2221 W CCCC StLos Angeles
1288,CA,222544,(321) 111-2222,33,-118,222544 - CA,2221 W CCCC StLos Angeles
1289,CA,222545,(321) 111-2222,33,-118,222545 - CA,2221 W CCCC StLos Angeles
1290,CA,222546,(321) 111-2222,33,-118,222546 - CA,2221 W CCCC StLos Angeles
1291,CA,222547,(321) 111-2222,33,-118,222547 - CA,2221 W CCCC StLos Angeles
1292,CA,222548,(321) 111-2222,33,-118,222548 - CA,2221 W CCCC StLos Angeles
1293,CA,222549,(321) 111-2222,33,-118,222549 - CA,2221 W CCCC StLos Angeles
1294,CA,222550,(321) 111-2222,33,-118,222550 - CA,2221 W CCCC StLos Angeles
1295,CA,222551,(321) 111-2222,33,-118,222551 - CA,2221 W CCCC StLos Angeles
1296,CA,222552,(321) 111-2222,33,-118,222552 - CA,2221 W CCCC StLos Angeles
1297,CA,222553,(321) 111-2222,33,-118,222553 - CA,2221 W CCCC StLos Angeles
1298,CA,222554,(321) 111-2222,33,-118,222554 - CA,2221 W CCCC StLos Angeles
1299,CA,222555,(321) 111-2222,33,-118,222555 - CA,2221 W CCCC StLos Angeles
1300,CA,222556,(321) 111-2222,33,-118,222556 - CA,2221 W CCCC StLos Angeles
1301,CA,222557,(321) 111-2222,33,-118,222557 - CA,2221 W CCCC StLos Angeles
1302,CA,222558,(321) 111-2222,33,-118,222558 - CA,2221 W CCCC StLos Angeles
1303,CA,222559,(321) 111-2222,33,-118,222559 - CA,2221 W CCCC StLos Angeles
1304,CA,222560,(321) 111-2222,33,-118,222560 - CA,2221 W CCCC StLos Angeles
1305,CA,222561,(321) 111-2222,33,-118,222561 - CA,2221 W CCCC StLos Angeles
1306,CA,222562,(321) 111-2222,33,-118,222562 - CA,2221 W CCCC StLos Angeles
1307,CA,222563,(321) 111-2222,33,-118,222563 - CA,2221 W CCCC StLos Angeles
1308,CA,222564,(321) 111-2222,33,-118,222564 - CA,2221 W CCCC StLos Angeles
1309,CA,222565,(321) 111-2222,33,-118,222565 - CA,2221 W CCCC StLos Angeles
1310,CA,222566,(321) 111-2222,33,-118,222566 - CA,2221 W CCCC StLos Angeles
1311,CA,222567,(321) 111-2222,33,-118,222567 - CA,2221 W CCCC StLos Angeles
1312,CA,222568,(321) 111-2222,33,-118,222568 - CA,2221 W CCCC StLos Angeles
1313,CA,222569,(321) 111-2222,33,-118,222569 - CA,2221 W CCCC StLos Angeles
1314,CA,222570,(321) 111-2222,33,-118,222570 - CA,2221 W CCCC StLos Angeles
1315,CA,222571,(321) 111-2222,33,-118,222571 - CA,2221 W CCCC StLos Angeles
1316,CA,222572,(321) 111-2222,33,-118,222572 - CA,2221 W CCCC StLos Angeles
1317,CA,222573,(321) 111-2222,33,-118,222573 - CA,2221 W CCCC StLos Angeles
1318,CA,222574,(321) 111-2222,33,-118,222574 - CA,2221 W CCCC StLos Angeles
1319,CA,222575,(321) 111-2222,33,-118,222575 - CA,2221 W CCCC StLos Angeles
1320,CA,222576,(321) 111-2222,33,-118,222576 - CA,2221 W CCCC StLos Angeles
1321,CA,222577,(321) 111-2222,33,-118,222577 - CA,2221 W CCCC StLos Angeles
1322,CA,222578,(321) 111-2222,33,-118,222578 - CA,2221 W CCCC StLos Angeles
1323,CA,222579,(321) 111-2222,33,-118,222579 - CA,2221 W CCCC StLos Angeles
1324,CA,222580,(321) 111-2222,33,-118,222580 - CA,2221 W CCCC StLos Angeles
1325,CA,222581,(321) 111-2222,33,-118,222581 - CA,2221 W CCCC StLos Angeles
1326,CA,222582,(321) 111-2222,33,-118,222582 - CA,2221 W CCCC StLos Angeles
1327,CA,222583,(321) 111-2222,33,-118,222583 - CA,2221 W CCCC StLos Angeles
1328,CA,222584,(321) 111-2222,33,-118,222584 - CA,2221 W CCCC StLos Angeles
1329,CA,222585,(321) 111-2222,33,-118,222585 - CA,2221 W CCCC StLos Angeles
1330,CA,222586,(321) 111-2222,33,-118,222586 - CA,2221 W CCCC StLos Angeles
1331,CA,222587,(321) 111-2222,33,-118,222587 - CA,2221 W CCCC StLos Angeles
1332,CA,222588,(321) 111-2222,33,-118,222588 - CA,2221 W CCCC StLos Angeles
1333,CA,222589,(321) 111-2222,33,-118,222589 - CA,2221 W CCCC StLos Angeles
1334,CA,222590,(321) 111-2222,33,-118,222590 - CA,2221 W CCCC StLos Angeles
1335,CA,222591,(321) 111-2222,33,-118,222591 - CA,2221 W CCCC StLos Angeles
1336,CA,222592,(321) 111-2222,33,-118,222592 - CA,2221 W CCCC StLos Angeles
1337,CA,222593,(321) 111-2222,33,-118,222593 - CA,2221 W CCCC StLos Angeles
1338,CA,222594,(321) 111-2222,33,-118,222594 - CA,2221 W CCCC StLos Angeles
1339,CA,222595,(321) 111-2222,33,-118,222595 - CA,2221 W CCCC StLos Angeles
1340,CA,222596,(321) 111-2222,33,-118,222596 - CA,2221 W CCCC StLos Angeles
1341,CA,222597,(321) 111-2222,33,-118,222597 - CA,2221 W CCCC StLos Angeles
1342,CA,222598,(321) 111-2222,33,-118,222598 - CA,2221 W CCCC StLos Angeles
1343,CA,222599,(321) 111-2222,33,-118,222599 - CA,2221 W CCCC StLos Angeles
1344,CA,222600,(321) 111-2222,33,-118,222600 - CA,2221 W CCCC StLos Angeles
1345,CA,222601,(321) 111-2222,33,-118,222601 - CA,2221 W CCCC StLos Angeles
1346,CA,222602,(321) 111-2222,33,-118,222602 - CA,2221 W CCCC StLos Angeles
1347,CA,222603,(321) 111-2222,33,-118,222603 - CA,2221 W CCCC StLos Angeles
1348,CA,222604,(321) 111-2222,33,-118,222604 - CA,2221 W CCCC StLos Angeles
1349,CA,222605,(321) 111-2222,33,-118,222605 - CA,2221 W CCCC StLos Angeles
1350,CA,222606,(321) 111-2222,33,-118,222606 - CA,2221 W CCCC StLos Angeles
1351,CA,222607,(321) 111-2222,33,-118,222607 - CA,2221 W CCCC StLos Angeles
1352,CA,222608,(321) 111-2222,33,-118,222608 - CA,2221 W CCCC StLos Angeles
1353,CA,222609,(321) 111-2222,33,-118,222609 - CA,2221 W CCCC StLos Angeles
1354,CA,222610,(321) 111-2222,33,-118,222610 - CA,2221 W CCCC StLos Angeles
1355,CA,222611,(321) 111-2222,33,-118,222611 - CA,2221 W CCCC StLos Angeles
1356,CA,222612,(321) 111-2222,33,-118,222612 - CA,2221 W CCCC StLos Angeles
1357,CA,222613,(321) 111-2222,33,-118,222613 - CA,2221 W CCCC StLos Angeles
1358,CA,222614,(321) 111-2222,33,-118,222614 - CA,2221 W CCCC StLos Angeles
1359,CA,222615,(321) 111-2222,33,-118,222615 - CA,2221 W CCCC StLos Angeles
1360,CA,222616,(321) 111-2222,33,-118,222616 - CA,2221 W CCCC StLos Angeles
1361,CA,222617,(321) 111-2222,33,-118,222617 - CA,2221 W CCCC StLos Angeles
1362,CA,222618,(321) 111-2222,33,-118,222618 - CA,2221 W CCCC StLos Angeles
1363,CA,222619,(321) 111-2222,33,-118,222619 - CA,2221 W CCCC StLos Angeles
1364,CA,222620,(321) 111-2222,33,-118,222620 - CA,2221 W CCCC StLos Angeles
1365,CA,222621,(321) 111-2222,33,-118,222621 - CA,2221 W CCCC StLos Angeles
1366,CA,222622,(321) 111-2222,33,-118,222622 - CA,2221 W CCCC StLos Angeles
1367,CA,222623,(321) 111-2222,33,-118,222623 - CA,2221 W CCCC StLos Angeles
1368,CA,222624,(321) 111-2222,33,-118,222624 - CA,2221 W CCCC StLos Angeles
1369,CA,222625,(321) 111-2222,33,-118,222625 - CA,2221 W CCCC StLos Angeles
1370,CA,222626,(321) 111-2222,33,-118,222626 - CA,2221 W CCCC StLos Angeles
1371,CA,222627,(321) 111-2222,33,-118,222627 - CA,2221 W CCCC StLos Angeles
1372,CA,222628,(321) 111-2222,33,-118,222628 - CA,2221 W CCCC StLos Angeles
1373,CA,222629,(321) 111-2222,33,-118,222629 - CA,2221 W CCCC StLos Angeles
1374,CA,222630,(321) 111-2222,33,-118,222630 - CA,2221 W CCCC StLos Angeles
1375,CA,222631,(321) 111-2222,33,-118,222631 - CA,2221 W CCCC StLos Angeles
1376,CA,222632,(321) 111-2222,33,-118,222632 - CA,2221 W CCCC StLos Angeles
1377,CA,222633,(321) 111-2222,33,-118,222633 - CA,2221 W CCCC StLos Angeles
1378,CA,222634,(321) 111-2222,33,-118,222634 - CA,2221 W CCCC StLos Angeles
1379,CA,222635,(321) 111-2222,33,-118,222635 - CA,2221 W CCCC StLos Angeles
1380,CA,222636,(321) 111-2222,33,-118,222636 - CA,2221 W CCCC StLos Angeles
1381,CA,222637,(321) 111-2222,33,-118,222637 - CA,2221 W CCCC StLos Angeles
1382,CA,222638,(321) 111-2222,33,-118,222638 - CA,2221 W CCCC StLos Angeles
1383,CA,222639,(321) 111-2222,33,-118,222639 - CA,2221 W CCCC StLos Angeles
1384,CA,222640,(321) 111-2222,33,-118,222640 - CA,2221 W CCCC StLos Angeles
1385,CA,222641,(321) 111-2222,33,-118,222641 - CA,2221 W CCCC StLos Angeles
1386,CA,222642,(321) 111-2222,33,-118,222642 - CA,2221 W CCCC StLos Angeles
1387,CA,222643,(321) 111-2222,33,-118,222643 - CA,2221 W CCCC StLos Angeles
1388,CA,222644,(321) 111-2222,33,-118,222644 - CA,2221 W CCCC StLos Angeles
1389,CA,222645,(321) 111-2222,33,-118,222645 - CA,2221 W CCCC StLos Angeles
1390,CA,222646,(321) 111-2222,33,-118,222646 - CA,2221 W CCCC StLos Angeles
1391,CA,222647,(321) 111-2222,33,-118,222647 - CA,2221 W CCCC StLos Angeles
1392,CA,222648,(321) 111-2222,33,-118,222648 - CA,2221 W CCCC StLos Angeles
1393,CA,222649,(321) 111-2222,33,-118,222649 - CA,2221 W CCCC StLos Angeles
1394,CA,222650,(321) 111-2222,33,-118,222650 - CA,2221 W CCCC StLos Angeles
1395,CA,222651,(321) 111-2222,33,-118,222651 - CA,2221 W CCCC StLos Angeles
1396,CA,222652,(321) 111-2222,33,-118,222652 - CA,2221 W CCCC StLos Angeles
1397,CA,222653,(321) 111-2222,33,-118,222653 - CA,2221 W CCCC StLos Angeles
1398,CA,222654,(321) 111-2222,33,-118,222654 - CA,2221 W CCCC StLos Angeles
1399,CA,222655,(321) 111-2222,33,-118,222655 - CA,2221 W CCCC StLos Angeles
1400,CA,222656,(321) 111-2222,33,-118,222656 - CA,2221 W CCCC StLos Angeles
1401,CA,222657,(321) 111-2222,33,-118,222657 - CA,2221 W CCCC StLos Angeles
1402,CA,222658,(321) 111-2222,33,-118,222658 - CA,2221 W CCCC StLos Angeles
1403,CA,222659,(321) 111-2222,33,-118,222659 - CA,2221 W CCCC StLos Angeles
1404,CA,222660,(321) 111-2222,33,-118,222660 - CA,2221 W CCCC StLos Angeles
1405,CA,222661,(321) 111-2222,33,-118,222661 - CA,2221 W CCCC StLos Angeles
1406,CA,222662,(321) 111-2222,33,-118,222662 - CA,2221 W CCCC StLos Angeles
1407,CA,222663,(321) 111-2222,33,-118,222663 - CA,2221 W CCCC StLos Angeles
1408,CA,222664,(321) 111-2222,33,-118,222664 - CA,2221 W CCCC StLos Angeles
1409,CA,222665,(321) 111-2222,33,-118,222665 - CA,2221 W CCCC StLos Angeles
1410,CA,222666,(321) 111-2222,33,-118,222666 - CA,2221 W CCCC StLos Angeles
1411,CA,222667,(321) 111-2222,33,-118,222667 - CA,2221 W CCCC StLos Angeles
1412,CA,222668,(321) 111-2222,33,-118,222668 - CA,2221 W CCCC StLos Angeles
1413,CA,222669,(321) 111-2222,33,-118,222669 - CA,2221 W CCCC StLos Angeles
1414,CA,222670,(321) 111-2222,33,-118,222670 - CA,2221 W CCCC StLos Angeles
1415,CA,222671,(321) 111-2222,33,-118,222671 - CA,2221 W CCCC StLos Angeles
1416,CA,222672,(321) 111-2222,33,-118,222672 - CA,2221 W CCCC StLos Angeles
1417,CA,222673,(321) 111-2222,33,-118,222673 - CA,2221 W CCCC StLos Angeles
1418,CA,222674,(321) 111-2222,33,-118,222674 - CA,2221 W CCCC StLos Angeles
1419,CA,222675,(321) 111-2222,33,-118,222675 - CA,2221 W CCCC StLos Angeles
1420,CA,222676,(321) 111-2222,33,-118,222676 - CA,2221 W CCCC StLos Angeles
1421,CA,222677,(321) 111-2222,33,-118,222677 - CA,2221 W CCCC StLos Angeles
1422,CA,222678,(321) 111-2222,33,-118,222678 - CA,2221 W CCCC StLos Angeles
1423,CA,222679,(321) 111-2222,33,-118,222679 - CA,2221 W CCCC StLos Angeles
1424,CA,222680,(321) 111-2222,33,-118,222680 - CA,2221 W CCCC StLos Angeles
1425,CA,222681,(321) 111-2222,33,-118,222681 - CA,2221 W CCCC StLos Angeles
1426,CA,222682,(321) 111-2222,33,-118,222682 - CA,2221 W CCCC StLos Angeles
1427,CA,222683,(321) 111-2222,33,-118,222683 - CA,2221 W CCCC StLos Angeles
1428,CA,222684,(321) 111-2222,33,-118,222684 - CA,2221 W CCCC StLos Angeles
1429,CA,222685,(321) 111-2222,33,-118,222685 - CA,2221 W CCCC StLos Angeles
1430,CA,222686,(321) 111-2222,33,-118,222686 - CA,2221 W CCCC StLos Angeles
1431,CA,222687,(321) 111-2222,33,-118,222687 - CA,2221 W CCCC StLos Angeles
1432,CA,222688,(321) 111-2222,33,-118,222688 - CA,2221 W CCCC StLos Angeles
1433,CA,222689,(321) 111-2222,33,-118,222689 - CA,2221 W CCCC StLos Angeles
1434,CA,222690,(321) 111-2222,33,-118,222690 - CA,2221 W CCCC StLos Angeles
1435,CA,222691,(321) 111-2222,33,-118,222691 - CA,2221 W CCCC StLos Angeles
1436,CA,222692,(321) 111-2222,33,-118,222692 - CA,2221 W CCCC StLos Angeles
1437,CA,222693,(321) 111-2222,33,-118,222693 - CA,2221 W CCCC StLos Angeles
1438,CA,222694,(321) 111-2222,33,-118,222694 - CA,2221 W CCCC StLos Angeles
1439,CA,222695,(321) 111-2222,33,-118,222695 - CA,2221 W CCCC StLos Angeles
1440,CA,222696,(321) 111-2222,33,-118,222696 - CA,2221 W CCCC StLos Angeles
1441,CA,222697,(321) 111-2222,33,-118,222697 - CA,2221 W CCCC StLos Angeles
1442,CA,222698,(321) 111-2222,33,-118,222698 - CA,2221 W CCCC StLos Angeles
1443,CA,222699,(321) 111-2222,33,-118,222699 - CA,2221 W CCCC StLos Angeles
1444,CA,222700,(321) 111-2222,33,-118,222700 - CA,2221 W CCCC StLos Angeles
1445,CA,222701,(321) 111-2222,33,-118,222701 - CA,2221 W CCCC StLos Angeles
1446,CA,222702,(321) 111-2222,33,-118,222702 - CA,2221 W CCCC StLos Angeles
1447,CA,222703,(321) 111-2222,33,-118,222703 - CA,2221 W CCCC StLos Angeles
1448,CA,222704,(321) 111-2222,33,-118,222704 - CA,2221 W CCCC StLos Angeles
1449,CA,222705,(321) 111-2222,33,-118,222705 - CA,2221 W CCCC StLos Angeles
1450,CA,222706,(321) 111-2222,33,-118,222706 - CA,2221 W CCCC StLos Angeles
1451,CA,222707,(321) 111-2222,33,-118,222707 - CA,2221 W CCCC StLos Angeles
1452,CA,222708,(321) 111-2222,33,-118,222708 - CA,2221 W CCCC StLos Angeles
1453,CA,222709,(321) 111-2222,33,-118,222709 - CA,2221 W CCCC StLos Angeles
1454,CA,222710,(321) 111-2222,33,-118,222710 - CA,2221 W CCCC StLos Angeles
1455,CA,222711,(321) 111-2222,33,-118,222711 - CA,2221 W CCCC StLos Angeles
1456,CA,222712,(321) 111-2222,33,-118,222712 - CA,2221 W CCCC StLos Angeles
1457,CA,222713,(321) 111-2222,33,-118,222713 - CA,2221 W CCCC StLos Angeles
1458,CA,222714,(321) 111-2222,33,-118,222714 - CA,2221 W CCCC StLos Angeles
1459,CA,222715,(321) 111-2222,33,-118,222715 - CA,2221 W CCCC StLos Angeles
1460,CA,222716,(321) 111-2222,33,-118,222716 - CA,2221 W CCCC StLos Angeles
1461,CA,222717,(321) 111-2222,33,-118,222717 - CA,2221 W CCCC StLos Angeles
1462,CA,222718,(321) 111-2222,33,-118,222718 - CA,2221 W CCCC StLos Angeles
1463,CA,222719,(321) 111-2222,33,-118,222719 - CA,2221 W CCCC StLos Angeles
1464,CA,222720,(321) 111-2222,33,-118,222720 - CA,2221 W CCCC StLos Angeles
1465,CA,222721,(321) 111-2222,33,-118,222721 - CA,2221 W CCCC StLos Angeles
1466,CA,222722,(321) 111-2222,33,-118,222722 - CA,2221 W CCCC StLos Angeles
1467,CA,222723,(321) 111-2222,33,-118,222723 - CA,2221 W CCCC StLos Angeles
1468,CA,222724,(321) 111-2222,33,-118,222724 - CA,2221 W CCCC StLos Angeles
1469,CA,222725,(321) 111-2222,33,-118,222725 - CA,2221 W CCCC StLos Angeles
1470,CA,222726,(321) 111-2222,33,-118,222726 - CA,2221 W CCCC StLos Angeles
1471,CA,222727,(321) 111-2222,33,-118,222727 - CA,2221 W CCCC StLos Angeles
1472,CA,222728,(321) 111-2222,33,-118,222728 - CA,2221 W CCCC StLos Angeles
1473,CA,222729,(321) 111-2222,33,-118,222729 - CA,2221 W CCCC StLos Angeles
1474,CA,222730,(321) 111-2222,33,-118,222730 - CA,2221 W CCCC StLos Angeles
1475,CA,222731,(321) 111-2222,33,-118,222731 - CA,2221 W CCCC StLos Angeles
1476,CA,222732,(321) 111-2222,33,-118,222732 - CA,2221 W CCCC StLos Angeles
1477,CA,222733,(321) 111-2222,33,-118,222733 - CA,2221 W CCCC StLos Angeles
1478,CA,222734,(321) 111-2222,33,-118,222734 - CA,2221 W CCCC StLos Angeles
1479,CA,222735,(321) 111-2222,33,-118,222735 - CA,2221 W CCCC StLos Angeles
1480,CA,222736,(321) 111-2222,33,-118,222736 - CA,2221 W CCCC StLos Angeles
1481,CA,222737,(321) 111-2222,33,-118,222737 - CA,2221 W CCCC StLos Angeles
1482,CA,222738,(321) 111-2222,33,-118,222738 - CA,2221 W CCCC StLos Angeles
1483,CA,222739,(321) 111-2222,33,-118,222739 - CA,2221 W CCCC StLos Angeles
1484,CA,222740,(321) 111-2222,33,-118,222740 - CA,2221 W CCCC StLos Angeles
1485,CA,222741,(321) 111-2222,33,-118,222741 - CA,2221 W CCCC StLos Angeles
1486,CA,222742,(321) 111-2222,33,-118,222742 - CA,2221 W CCCC StLos Angeles
1487,CA,222743,(321) 111-2222,33,-118,222743 - CA,2221 W CCCC StLos Angeles
1488,CA,222744,(321) 111-2222,33,-118,222744 - CA,2221 W CCCC StLos Angeles
1489,CA,222745,(321) 111-2222,33,-118,222745 - CA,2221 W CCCC StLos Angeles
1490,CA,222746,(321) 111-2222,33,-118,222746 - CA,2221 W CCCC StLos Angeles
1491,CA,222747,(321) 111-2222,33,-118,222747 - CA,2221 W CCCC StLos Angeles
1492,CA,222748,(321) 111-2222,33,-118,222748 - CA,2221 W CCCC StLos Angeles
1493,CA,222749,(321) 111-2222,33,-118,222749 - CA,2221 W CCCC StLos Angeles
1494,CA,222750,(321) 111-2222,33,-118,222750 - CA,2221 W CCCC StLos Angeles
1495,CA,222751,(321) 111-2222,33,-118,222751 - CA,2221 W CCCC StLos Angeles
1496,CA,222752,(321) 111-2222,33,-118,222752 - CA,2221 W CCCC StLos Angeles
1497,CA,222753,(321) 111-2222,33,-118,222753 - CA,2221 W CCCC StLos Angeles
1498,CA,222754,(321) 111-2222,33,-118,222754 - CA,2221 W CCCC StLos Angeles
1499,CA,222755,(321) 111-2222,33,-118,222755 - CA,2221 W CCCC StLos Angeles
1500,CA,222756,(321) 111-2222,33,-118,222756 - CA,2221 W CCCC StLos Angeles
1501,CA,222757,(321) 111-2222,33,-118,222757 - CA,2221 W CCCC StLos Angeles
1502,CA,222758,(321) 111-2222,33,-118,222758 - CA,2221 W CCCC StLos Angeles
1503,CA,222759,(321) 111-2222,33,-118,222759 - CA,2221 W CCCC StLos Angeles
1504,CA,222760,(321) 111-2222,33,-118,222760 - CA,2221 W CCCC StLos Angeles
1505,CA,222761,(321) 111-2222,33,-118,222761 - CA,2221 W CCCC StLos Angeles
1506,CA,222762,(321) 111-2222,33,-118,222762 - CA,2221 W CCCC StLos Angeles
1507,CA,222763,(321) 111-2222,33,-118,222763 - CA,2221 W CCCC StLos Angeles
1508,CA,222764,(321) 111-2222,33,-118,222764 - CA,2221 W CCCC StLos Angeles
1509,CA,222765,(321) 111-2222,33,-118,222765 - CA,2221 W CCCC StLos Angeles
1510,CA,222766,(321) 111-2222,33,-118,222766 - CA,2221 W CCCC StLos Angeles
1511,CA,222767,(321) 111-2222,33,-118,222767 - CA,2221 W CCCC StLos Angeles
1512,CA,222768,(321) 111-2222,33,-118,222768 - CA,2221 W CCCC StLos Angeles
1513,CA,222769,(321) 111-2222,33,-118,222769 - CA,2221 W CCCC StLos Angeles
1514,CA,222770,(321) 111-2222,33,-118,222770 - CA,2221 W CCCC StLos Angeles
1515,CA,222771,(321) 111-2222,33,-118,222771 - CA,2221 W CCCC StLos Angeles
1516,CA,222772,(321) 111-2222,33,-118,222772 - CA,2221 W CCCC StLos Angeles
1517,CA,222773,(321) 111-2222,33,-118,222773 - CA,2221 W CCCC StLos Angeles
1518,CA,222774,(321) 111-2222,33,-118,222774 - CA,2221 W CCCC StLos Angeles
1519,CA,222775,(321) 111-2222,33,-118,222775 - CA,2221 W CCCC StLos Angeles
1520,CA,222776,(321) 111-2222,33,-118,222776 - CA,2221 W CCCC StLos Angeles
1521,CA,222777,(321) 111-2222,33,-118,222777 - CA,2221 W CCCC StLos Angeles
1522,CA,222778,(321) 111-2222,33,-118,222778 - CA,2221 W CCCC StLos Angeles
1523,CA,222779,(321) 111-2222,33,-118,222779 - CA,2221 W CCCC StLos Angeles
1524,CA,222780,(321) 111-2222,33,-118,222780 - CA,2221 W CCCC StLos Angeles
1525,CA,222781,(321) 111-2222,33,-118,222781 - CA,2221 W CCCC StLos Angeles
1526,CA,222782,(321) 111-2222,33,-118,222782 - CA,2221 W CCCC StLos Angeles
1527,CA,222783,(321) 111-2222,33,-118,222783 - CA,2221 W CCCC StLos Angeles
1528,CA,222784,(321) 111-2222,33,-118,222784 - CA,2221 W CCCC StLos Angeles
1529,CA,222785,(321) 111-2222,33,-118,222785 - CA,2221 W CCCC StLos Angeles
1530,CA,222786,(321) 111-2222,33,-118,222786 - CA,2221 W CCCC StLos Angeles
1531,CA,222787,(321) 111-2222,33,-118,222787 - CA,2221 W CCCC StLos Angeles
1532,CA,222788,(321) 111-2222,33,-118,222788 - CA,2221 W CCCC StLos Angeles
1533,CA,222789,(321) 111-2222,33,-118,222789 - CA,2221 W CCCC StLos Angeles
1534,CA,222790,(321) 111-2222,33,-118,222790 - CA,2221 W CCCC StLos Angeles
1535,CA,222791,(321) 111-2222,33,-118,222791 - CA,2221 W CCCC StLos Angeles
1536,CA,222792,(321) 111-2222,33,-118,222792 - CA,2221 W CCCC StLos Angeles
1537,CA,222793,(321) 111-2222,33,-118,222793 - CA,2221 W CCCC StLos Angeles
1538,CA,222794,(321) 111-2222,33,-118,222794 - CA,2221 W CCCC StLos Angeles
1539,CA,222795,(321) 111-2222,33,-118,222795 - CA,2221 W CCCC StLos Angeles
1540,CA,222796,(321) 111-2222,33,-118,222796 - CA,2221 W CCCC StLos Angeles
1541,CA,222797,(321) 111-2222,33,-118,222797 - CA,2221 W CCCC StLos Angeles
1542,CA,222798,(321) 111-2222,33,-118,222798 - CA,2221 W CCCC StLos Angeles
1543,CA,222799,(321) 111-2222,33,-118,222799 - CA,2221 W CCCC StLos Angeles
1544,CA,222800,(321) 111-2222,33,-118,222800 - CA,2221 W CCCC StLos Angeles
1545,CA,222801,(321) 111-2222,33,-118,222801 - CA,2221 W CCCC StLos Angeles
1546,CA,222802,(321) 111-2222,33,-118,222802 - CA,2221 W CCCC StLos Angeles
1547,CA,222803,(321) 111-2222,33,-118,222803 - CA,2221 W CCCC StLos Angeles
1548,CA,222804,(321) 111-2222,33,-118,222804 - CA,2221 W CCCC StLos Angeles
1549,CA,222805,(321) 111-2222,33,-118,222805 - CA,2221 W CCCC StLos Angeles
1550,CA,222806,(321) 111-2222,33,-118,222806 - CA,2221 W CCCC StLos Angeles
1551,CA,222807,(321) 111-2222,33,-118,222807 - CA,2221 W CCCC StLos Angeles
1552,CA,222808,(321) 111-2222,33,-118,222808 - CA,2221 W CCCC StLos Angeles
1553,CA,222809,(321) 111-2222,33,-118,222809 - CA,2221 W CCCC StLos Angeles
1554,CA,222810,(321) 111-2222,33,-118,222810 - CA,2221 W CCCC StLos Angeles
1555,CA,222811,(321) 111-2222,33,-118,222811 - CA,2221 W CCCC StLos Angeles
1556,CA,222812,(321) 111-2222,33,-118,222812 - CA,2221 W CCCC StLos Angeles
1557,CA,222813,(321) 111-2222,33,-118,222813 - CA,2221 W CCCC StLos Angeles
1558,CA,222814,(321) 111-2222,33,-118,222814 - CA,2221 W CCCC StLos Angeles
1559,CA,222815,(321) 111-2222,33,-118,222815 - CA,2221 W CCCC StLos Angeles
1560,CA,222816,(321) 111-2222,33,-118,222816 - CA,2221 W CCCC StLos Angeles
1561,CA,222817,(321) 111-2222,33,-118,222817 - CA,2221 W CCCC StLos Angeles
1562,CA,222818,(321) 111-2222,33,-118,222818 - CA,2221 W CCCC StLos Angeles
1563,CA,222819,(321) 111-2222,33,-118,222819 - CA,2221 W CCCC StLos Angeles
1564,CA,222820,(321) 111-2222,33,-118,222820 - CA,2221 W CCCC StLos Angeles
1565,CA,222821,(321) 111-2222,33,-118,222821 - CA,2221 W CCCC StLos Angeles
1566,CA,222822,(321) 111-2222,33,-118,222822 - CA,2221 W CCCC StLos Angeles
1567,CA,222823,(321) 111-2222,33,-118,222823 - CA,2221 W CCCC StLos Angeles
1568,CA,222824,(321) 111-2222,33,-118,222824 - CA,2221 W CCCC StLos Angeles
1569,CA,222825,(321) 111-2222,33,-118,222825 - CA,2221 W CCCC StLos Angeles
1570,CA,222826,(321) 111-2222,33,-118,222826 - CA,2221 W CCCC StLos Angeles
1571,CA,33309,(321) 111-2222,33,-118,33309 - CA,44444 W AAAA BBBB CCC Jr BlvdLos Angeles
1572,CA,33310,(321) 111-2222,33,-118,33310 - CA,44444 W AAAA BBBB CCC Jr BlvdLos Angeles
1573,CA,33311,(321) 111-2222,33,-118,33311 - CA,44444 W AAAA BBBB CCC Jr BlvdLos Angeles
1574,CA,33312,(321) 111-2222,33,-118,33312 - CA,44444 W AAAA BBBB CCC Jr BlvdLos Angeles
1575,CA,33313,(321) 111-2222,33,-118,33313 - CA,44444 W AAAA BBBB CCC Jr BlvdLos Angeles
1576,CA,33314,(321) 111-2222,33,-118,33314 - CA,44444 W AAAA BBBB CCC Jr BlvdLos Angeles
1577,CA,33315,(321) 111-2222,33,-118,33315 - CA,44444 W AAAA BBBB CCC Jr BlvdLos Angeles
1578,CA,33316,(321) 111-2222,33,-118,33316 - CA,44444 W AAAA BBBB CCC Jr BlvdLos Angeles
1579,CA,33317,(321) 111-2222,33,-118,33317 - CA,44444 W AAAA BBBB CCC Jr BlvdLos Angeles
1580,CA,33318,(321) 111-2222,33,-118,33318 - CA,44444 W AAAA BBBB CCC Jr BlvdLos Angeles
1581,CA,33319,(321) 111-2222,33,-118,33319 - CA,44444 W AAAA BBBB CCC Jr BlvdLos Angeles
1582,CA,33320,(321) 111-2222,33,-118,33320 - CA,44444 W AAAA BBBB CCC Jr BlvdLos Angeles
1583,CA,33321,(321) 111-2222,33,-118,33321 - CA,44444 W AAAA BBBB CCC Jr BlvdLos Angeles
1584,CA,33322,(321) 111-2222,33,-118,33322 - CA,44444 W AAAA BBBB CCC Jr BlvdLos Angeles
1585,CA,33323,(321) 111-2222,33,-118,33323 - CA,44444 W AAAA BBBB CCC Jr BlvdLos Angeles
1586,CA,33324,(321) 111-2222,33,-118,33324 - CA,44444 W AAAA BBBB CCC Jr BlvdLos Angeles
1587,CA,33325,(321) 111-2222,33,-118,33325 - CA,44444 W AAAA BBBB CCC Jr BlvdLos Angeles
1588,CA,33326,(321) 111-2222,33,-118,33326 - CA,44444 W AAAA BBBB CCC Jr BlvdLos Angeles
1589,CA,33327,(321) 111-2222,33,-118,33327 - CA,44444 W AAAA BBBB CCC Jr BlvdLos Angeles
1590,CA,33328,(321) 111-2222,33,-118,33328 - CA,44444 W AAAA BBBB CCC Jr BlvdLos Angeles
1591,CA,33329,(321) 111-2222,33,-118,33329 - CA,44444 W AAAA BBBB CCC Jr BlvdLos Angeles
1592,CA,33330,(321) 111-2222,33,-118,33330 - CA,44444 W AAAA BBBB CCC Jr BlvdLos Angeles
1593,CA,33331,(321) 111-2222,33,-118,33331 - CA,44444 W AAAA BBBB CCC Jr BlvdLos Angeles
1594,CA,33332,(321) 111-2222,33,-118,33332 - CA,44444 W AAAA BBBB CCC Jr BlvdLos Angeles
1595,CA,33333,(321) 111-2222,33,-118,33333 - CA,44444 W AAAA BBBB CCC Jr BlvdLos Angeles
1596,CA,33334,(321) 111-2222,33,-118,33334 - CA,44444 W AAAA BBBB CCC Jr BlvdLos Angeles
1597,CA,33335,(321) 111-2222,33,-118,33335 - CA,44444 W AAAA BBBB CCC Jr BlvdLos Angeles
1598,CA,33336,(321) 111-2222,33,-118,33336 - CA,44444 W AAAA BBBB CCC Jr BlvdLos Angeles
1599,CA,33337,(321) 111-2222,33,-118,33337 - CA,44444 W AAAA BBBB CCC Jr BlvdLos Angeles
1600,CA,33338,(321) 111-2222,33,-118,33338 - CA,44444 W AAAA BBBB CCC Jr BlvdLos Angeles
1601,CA,33339,(321) 111-2222,33,-118,33339 - CA,44444 W AAAA BBBB CCC Jr BlvdLos Angeles
1602,CA,33340,(321) 111-2222,33,-118,33340 - CA,44444 W AAAA BBBB CCC Jr BlvdLos Angeles
1603,CA,33341,(321) 111-2222,33,-118,33341 - CA,44444 W AAAA BBBB CCC Jr BlvdLos Angeles
1604,CA,33342,(321) 111-2222,33,-118,33342 - CA,44444 W AAAA BBBB CCC Jr BlvdLos Angeles
1605,CA,33343,(321) 111-2222,33,-118,33343 - CA,44444 W AAAA BBBB CCC Jr BlvdLos Angeles
1606,CA,33344,(321) 111-2222,33,-118,33344 - CA,44444 W AAAA BBBB CCC Jr BlvdLos Angeles
1607,CA,33345,(321) 111-2222,33,-118,33345 - CA,44444 W AAAA BBBB CCC Jr BlvdLos Angeles
1608,CA,33346,(321) 111-2222,33,-118,33346 - CA,44444 W AAAA BBBB CCC Jr BlvdLos Angeles
1609,CA,33347,(321) 111-2222,33,-118,33347 - CA,44444 W AAAA BBBB CCC Jr BlvdLos Angeles
1610,CA,33348,(321) 111-2222,33,-118,33348 - CA,44444 W AAAA BBBB CCC Jr BlvdLos Angeles
1611,CA,33349,(321) 111-2222,33,-118,33349 - CA,44444 W AAAA BBBB CCC Jr BlvdLos Angeles
1612,CA,33350,(321) 111-2222,33,-118,33350 - CA,44444 W AAAA BBBB CCC Jr BlvdLos Angeles
1613,CA,33351,(321) 111-2222,33,-118,33351 - CA,44444 W AAAA BBBB CCC Jr BlvdLos Angeles
1614,CA,33352,(321) 111-2222,33,-118,33352 - CA,44444 W AAAA BBBB CCC Jr BlvdLos Angeles
1615,CA,33353,(321) 111-2222,33,-118,33353 - CA,44444 W AAAA BBBB CCC Jr BlvdLos Angeles
1616,CA,33354,(321) 111-2222,33,-118,33354 - CA,44444 W AAAA BBBB CCC Jr BlvdLos Angeles
1617,CA,33355,(321) 111-2222,33,-118,33355 - CA,44444 W AAAA BBBB CCC Jr BlvdLos Angeles
1618,CA,33356,(321) 111-2222,33,-118,33356 - CA,44444 W AAAA BBBB CCC Jr BlvdLos Angeles
1619,CA,33357,(321) 111-2222,33,-118,33357 - CA,44444 W AAAA BBBB CCC Jr BlvdLos Angeles
1620,CA,33358,(321) 111-2222,33,-118,33358 - CA,44444 W AAAA BBBB CCC Jr BlvdLos Angeles
1621,CA,33359,(321) 111-2222,33,-118,33359 - CA,44444 W AAAA BBBB CCC Jr BlvdLos Angeles
1622,CA,33360,(321) 111-2222,33,-118,33360 - CA,44444 W AAAA BBBB CCC Jr BlvdLos Angeles
1623,CA,33361,(321) 111-2222,33,-118,33361 - CA,44444 W AAAA BBBB CCC Jr BlvdLos Angeles
1624,CA,33362,(321) 111-2222,33,-118,33362 - CA,44444 W AAAA BBBB CCC Jr BlvdLos Angeles
1625,CA,33363,(321) 111-2222,33,-118,33363 - CA,44444 W AAAA BBBB CCC Jr BlvdLos Angeles
1626,CA,33364,(321) 111-2222,33,-118,33364 - CA,44444 W AAAA BBBB CCC Jr BlvdLos Angeles
1627,CA,33365,(321) 111-2222,33,-118,33365 - CA,44444 W AAAA BBBB CCC Jr BlvdLos Angeles
1628,CA,33366,(321) 111-2222,33,-118,33366 - CA,44444 W AAAA BBBB CCC Jr BlvdLos Angeles
1629,CA,33367,(321) 111-2222,33,-118,33367 - CA,44444 W AAAA BBBB CCC Jr BlvdLos Angeles
1630,CA,33368,(321) 111-2222,33,-118,33368 - CA,44444 W AAAA BBBB CCC Jr BlvdLos Angeles
1631,CA,33369,(321) 111-2222,33,-118,33369 - CA,44444 W AAAA BBBB CCC Jr BlvdLos Angeles
1632,CA,33370,(321) 111-2222,33,-118,33370 - CA,44444 W AAAA BBBB CCC Jr BlvdLos Angeles
1633,CA,33371,(321) 111-2222,33,-118,33371 - CA,44444 W AAAA BBBB CCC Jr BlvdLos Angeles
1634,CA,33372,(321) 111-2222,33,-118,33372 - CA,44444 W AAAA BBBB CCC Jr BlvdLos Angeles
1635,CA,33373,(321) 111-2222,33,-118,33373 - CA,44444 W AAAA BBBB CCC Jr BlvdLos Angeles
1636,CA,33374,(321) 111-2222,33,-118,33374 - CA,44444 W AAAA BBBB CCC Jr BlvdLos Angeles
1637,CA,33375,(321) 111-2222,33,-118,33375 - CA,44444 W AAAA BBBB CCC Jr BlvdLos Angeles
1638,CA,33376,(321) 111-2222,33,-118,33376 - CA,44444 W AAAA BBBB CCC Jr BlvdLos Angeles
1639,CA,33377,(321) 111-2222,33,-118,33377 - CA,44444 W AAAA BBBB CCC Jr BlvdLos Angeles
1640,CA,33378,(321) 111-2222,33,-118,33378 - CA,44444 W AAAA BBBB CCC Jr BlvdLos Angeles
1641,CA,33379,(321) 111-2222,33,-118,33379 - CA,44444 W AAAA BBBB CCC Jr BlvdLos Angeles
1642,CA,33380,(321) 111-2222,33,-118,33380 - CA,44444 W AAAA BBBB CCC Jr BlvdLos Angeles
1643,CA,33381,(321) 111-2222,33,-118,33381 - CA,44444 W AAAA BBBB CCC Jr BlvdLos Angeles
1644,CA,33382,(321) 111-2222,33,-118,33382 - CA,44444 W AAAA BBBB CCC Jr BlvdLos Angeles
1645,CA,33383,(321) 111-2222,33,-118,33383 - CA,44444 W AAAA BBBB CCC Jr BlvdLos Angeles
1646,CA,33384,(321) 111-2222,33,-118,33384 - CA,44444 W AAAA BBBB CCC Jr BlvdLos Angeles
1647,CA,33385,(321) 111-2222,33,-118,33385 - CA,44444 W AAAA BBBB CCC Jr BlvdLos Angeles
1648,CA,33386,(321) 111-2222,33,-118,33386 - CA,44444 W AAAA BBBB CCC Jr BlvdLos Angeles
1649,CA,33387,(321) 111-2222,33,-118,33387 - CA,44444 W AAAA BBBB CCC Jr BlvdLos Angeles
1650,CA,33388,(321) 111-2222,33,-118,33388 - CA,44444 W AAAA BBBB CCC Jr BlvdLos Angeles
1651,CA,33389,(321) 111-2222,33,-118,33389 - CA,44444 W AAAA BBBB CCC Jr BlvdLos Angeles
1652,CA,33390,(321) 111-2222,33,-118,33390 - CA,44444 W AAAA BBBB CCC Jr BlvdLos Angeles
1653,CA,33391,(321) 111-2222,33,-118,33391 - CA,44444 W AAAA BBBB CCC Jr BlvdLos Angeles
1654,CA,33392,(321) 111-2222,33,-118,33392 - CA,44444 W AAAA BBBB CCC Jr BlvdLos Angeles
1655,CA,33393,(321) 111-2222,33,-118,33393 - CA,44444 W AAAA BBBB CCC Jr BlvdLos Angeles
1656,CA,33394,(321) 111-2222,33,-118,33394 - CA,44444 W AAAA BBBB CCC Jr BlvdLos Angeles
1657,CA,33395,(321) 111-2222,33,-118,33395 - CA,44444 W AAAA BBBB CCC Jr BlvdLos Angeles
1658,CA,33396,(321) 111-2222,33,-118,33396 - CA,44444 W AAAA BBBB CCC Jr BlvdLos Angeles
1659,CA,33397,(321) 111-2222,33,-118,33397 - CA,44444 W AAAA BBBB CCC Jr BlvdLos Angeles
1660,CA,33398,(321) 111-2222,33,-118,33398 - CA,44444 W AAAA BBBB CCC Jr BlvdLos Angeles
1661,CA,33399,(321) 111-2222,33,-118,33399 - CA,44444 W AAAA BBBB CCC Jr BlvdLos Angeles
1662,CA,33400,(321) 111-2222,33,-118,33400 - CA,44444 W AAAA BBBB CCC Jr BlvdLos Angeles
1663,CA,33401,(321) 111-2222,33,-118,33401 - CA,44444 W AAAA BBBB CCC Jr BlvdLos Angeles
1664,CA,33402,(321) 111-2222,33,-118,33402 - CA,44444 W AAAA BBBB CCC Jr BlvdLos Angeles
1665,CA,33403,(321) 111-2222,33,-118,33403 - CA,44444 W AAAA BBBB CCC Jr BlvdLos Angeles
1666,CA,33404,(321) 111-2222,33,-118,33404 - CA,44444 W AAAA BBBB CCC Jr BlvdLos Angeles
1667,CA,33405,(321) 111-2222,33,-118,33405 - CA,44444 W AAAA BBBB CCC Jr BlvdLos Angeles
1668,CA,33406,(321) 111-2222,33,-118,33406 - CA,44444 W AAAA BBBB CCC Jr BlvdLos Angeles
1669,CA,33407,(321) 111-2222,33,-118,33407 - CA,44444 W AAAA BBBB CCC Jr BlvdLos Angeles
1670,CA,33408,(321) 111-2222,33,-118,33408 - CA,44444 W AAAA BBBB CCC Jr BlvdLos Angeles
1671,CA,33409,(321) 111-2222,33,-118,33409 - CA,44444 W AAAA BBBB CCC Jr BlvdLos Angeles
1672,CA,33410,(321) 111-2222,33,-118,33410 - CA,44444 W AAAA BBBB CCC Jr BlvdLos Angeles
1673,CA,33411,(321) 111-2222,33,-118,33411 - CA,44444 W AAAA BBBB CCC Jr BlvdLos Angeles
1674,CA,33412,(321) 111-2222,33,-118,33412 - CA,44444 W AAAA BBBB CCC Jr BlvdLos Angeles
1675,CA,33413,(321) 111-2222,33,-118,33413 - CA,44444 W AAAA BBBB CCC Jr BlvdLos Angeles
1676,CA,33414,(321) 111-2222,33,-118,33414 - CA,44444 W AAAA BBBB CCC Jr BlvdLos Angeles
1677,CA,33415,(321) 111-2222,33,-118,33415 - CA,44444 W AAAA BBBB CCC Jr BlvdLos Angeles
1678,CA,33416,(321) 111-2222,33,-118,33416 - CA,44444 W AAAA BBBB CCC Jr BlvdLos Angeles
1679,CA,33417,(321) 111-2222,33,-118,33417 - CA,44444 W AAAA BBBB CCC Jr BlvdLos Angeles
1680,CA,33418,(321) 111-2222,33,-118,33418 - CA,44444 W AAAA BBBB CCC Jr BlvdLos Angeles
1681,CA,33419,(321) 111-2222,33,-118,33419 - CA,44444 W AAAA BBBB CCC Jr BlvdLos Angeles
1682,CA,33420,(321) 111-2222,33,-118,33420 - CA,44444 W AAAA BBBB CCC Jr BlvdLos Angeles
1683,CA,33421,(321) 111-2222,33,-118,33421 - CA,44444 W AAAA BBBB CCC Jr BlvdLos Angeles
1684,CA,33422,(321) 111-2222,33,-118,33422 - CA,44444 W AAAA BBBB CCC Jr BlvdLos Angeles
1685,CA,33423,(321) 111-2222,33,-118,33423 - CA,44444 W AAAA BBBB CCC Jr BlvdLos Angeles
1686,CA,33424,(321) 111-2222,33,-118,33424 - CA,44444 W AAAA BBBB CCC Jr BlvdLos Angeles
1687,CA,33425,(321) 111-2222,33,-118,33425 - CA,44444 W AAAA BBBB CCC Jr BlvdLos Angeles
1688,CA,33426,(321) 111-2222,33,-118,33426 - CA,44444 W AAAA BBBB CCC Jr BlvdLos Angeles
1689,CA,33427,(321) 111-2222,33,-118,33427 - CA,44444 W AAAA BBBB CCC Jr BlvdLos Angeles
1690,CA,33428,(321) 111-2222,33,-118,33428 - CA,44444 W AAAA BBBB CCC Jr BlvdLos Angeles
1691,CA,33429,(321) 111-2222,33,-118,33429 - CA,44444 W AAAA BBBB CCC Jr BlvdLos Angeles
1692,CA,33430,(321) 111-2222,33,-118,33430 - CA,44444 W AAAA BBBB CCC Jr BlvdLos Angeles
1693,CA,33431,(321) 111-2222,33,-118,33431 - CA,44444 W AAAA BBBB CCC Jr BlvdLos Angeles
1694,CA,33432,(321) 111-2222,33,-118,33432 - CA,44444 W AAAA BBBB CCC Jr BlvdLos Angeles
1695,CA,33433,(321) 111-2222,33,-118,33433 - CA,44444 W AAAA BBBB CCC Jr BlvdLos Angeles
1696,CA,33434,(321) 111-2222,33,-118,33434 - CA,44444 W AAAA BBBB CCC Jr BlvdLos Angeles
1697,CA,33435,(321) 111-2222,33,-118,33435 - CA,44444 W AAAA BBBB CCC Jr BlvdLos Angeles
1698,CA,33436,(321) 111-2222,33,-118,33436 - CA,44444 W AAAA BBBB CCC Jr BlvdLos Angeles
1699,CA,33437,(321) 111-2222,33,-118,33437 - CA,44444 W AAAA BBBB CCC Jr BlvdLos Angeles
1700,CA,33438,(321) 111-2222,33,-118,33438 - CA,44444 W AAAA BBBB CCC Jr BlvdLos Angeles
1701,CA,33439,(321) 111-2222,33,-118,33439 - CA,44444 W AAAA BBBB CCC Jr BlvdLos Angeles
1702,CA,33440,(321) 111-2222,33,-118,33440 - CA,44444 W AAAA BBBB CCC Jr BlvdLos Angeles
1703,CA,33441,(321) 111-2222,33,-118,33441 - CA,44444 W AAAA BBBB CCC Jr BlvdLos Angeles
1704,CA,33442,(321) 111-2222,33,-118,33442 - CA,44444 W AAAA BBBB CCC Jr BlvdLos Angeles
1705,CA,33443,(321) 111-2222,33,-118,33443 - CA,44444 W AAAA BBBB CCC Jr BlvdLos Angeles
1706,CA,33444,(321) 111-2222,33,-118,33444 - CA,44444 W AAAA BBBB CCC Jr BlvdLos Angeles
1707,CA,33445,(321) 111-2222,33,-118,33445 - CA,44444 W AAAA BBBB CCC Jr BlvdLos Angeles
1708,CA,33446,(321) 111-2222,33,-118,33446 - CA,44444 W AAAA BBBB CCC Jr BlvdLos Angeles
1709,CA,33447,(321) 111-2222,33,-118,33447 - CA,44444 W AAAA BBBB CCC Jr BlvdLos Angeles
1710,CA,33448,(321) 111-2222,33,-118,33448 - CA,44444 W AAAA BBBB CCC Jr BlvdLos Angeles
1711,CA,33449,(321) 111-2222,33,-118,33449 - CA,44444 W AAAA BBBB CCC Jr BlvdLos Angeles
1712,CA,33450,(321) 111-2222,33,-118,33450 - CA,44444 W AAAA BBBB CCC Jr BlvdLos Angeles
1713,CA,33451,(321) 111-2222,33,-118,33451 - CA,44444 W AAAA BBBB CCC Jr BlvdLos Angeles
1714,CA,33452,(321) 111-2222,33,-118,33452 - CA,44444 W AAAA BBBB CCC Jr BlvdLos Angeles
1715,CA,33453,(321) 111-2222,33,-118,33453 - CA,44444 W AAAA BBBB CCC Jr BlvdLos Angeles
1716,CA,33454,(321) 111-2222,33,-118,33454 - CA,44444 W AAAA BBBB CCC Jr BlvdLos Angeles
1717,CA,33455,(321) 111-2222,33,-118,33455 - CA,44444 W AAAA BBBB CCC Jr BlvdLos Angeles
1718,CA,33456,(321) 111-2222,33,-118,33456 - CA,44444 W AAAA BBBB CCC Jr BlvdLos Angeles
1719,CA,33457,(321) 111-2222,33,-118,33457 - CA,44444 W AAAA BBBB CCC Jr BlvdLos Angeles
1720,CA,33458,(321) 111-2222,33,-118,33458 - CA,44444 W AAAA BBBB CCC Jr BlvdLos Angeles
1721,CA,33459,(321) 111-2222,33,-118,33459 - CA,44444 W AAAA BBBB CCC Jr BlvdLos Angeles
1722,CA,33460,(321) 111-2222,33,-118,33460 - CA,44444 W AAAA BBBB CCC Jr BlvdLos Angeles
1723,CA,33461,(321) 111-2222,33,-118,33461 - CA,44444 W AAAA BBBB CCC Jr BlvdLos Angeles
1724,CA,33462,(321) 111-2222,33,-118,33462 - CA,44444 W AAAA BBBB CCC Jr BlvdLos Angeles
1725,CA,33463,(321) 111-2222,33,-118,33463 - CA,44444 W AAAA BBBB CCC Jr BlvdLos Angeles
1726,CA,33464,(321) 111-2222,33,-118,33464 - CA,44444 W AAAA BBBB CCC Jr BlvdLos Angeles
1727,CA,33465,(321) 111-2222,33,-118,33465 - CA,44444 W AAAA BBBB CCC Jr BlvdLos Angeles
1728,CA,33466,(321) 111-2222,33,-118,33466 - CA,44444 W AAAA BBBB CCC Jr BlvdLos Angeles
1729,CA,33467,(321) 111-2222,33,-118,33467 - CA,44444 W AAAA BBBB CCC Jr BlvdLos Angeles
1730,CA,33468,(321) 111-2222,33,-118,33468 - CA,44444 W AAAA BBBB CCC Jr BlvdLos Angeles
1731,CA,33469,(321) 111-2222,33,-118,33469 - CA,44444 W AAAA BBBB CCC Jr BlvdLos Angeles
1732,CA,33470,(321) 111-2222,33,-118,33470 - CA,44444 W AAAA BBBB CCC Jr BlvdLos Angeles
1733,CA,33471,(321) 111-2222,33,-118,33471 - CA,44444 W AAAA BBBB CCC Jr BlvdLos Angeles
1734,CA,33472,(321) 111-2222,33,-118,33472 - CA,44444 W AAAA BBBB CCC Jr BlvdLos Angeles
1735,CA,33473,(321) 111-2222,33,-118,33473 - CA,44444 W AAAA BBBB CCC Jr BlvdLos Angeles
1736,CA,33474,(321) 111-2222,33,-118,33474 - CA,44444 W AAAA BBBB CCC Jr BlvdLos Angeles
1737,CA,33475,(321) 111-2222,33,-118,33475 - CA,44444 W AAAA BBBB CCC Jr BlvdLos Angeles
1738,CA,33476,(321) 111-2222,33,-118,33476 - CA,44444 W AAAA BBBB CCC Jr BlvdLos Angeles
1739,CA,33477,(321) 111-2222,33,-118,33477 - CA,44444 W AAAA BBBB CCC Jr BlvdLos Angeles
1740,CA,33478,(321) 111-2222,33,-118,33478 - CA,44444 W AAAA BBBB CCC Jr BlvdLos Angeles
1741,CA,33479,(321) 111-2222,33,-118,33479 - CA,44444 W AAAA BBBB CCC Jr BlvdLos Angeles
1742,CA,33480,(321) 111-2222,33,-118,33480 - CA,44444 W AAAA BBBB CCC Jr BlvdLos Angeles
1743,CA,33481,(321) 111-2222,33,-118,33481 - CA,44444 W AAAA BBBB CCC Jr BlvdLos Angeles
1744,CA,33482,(321) 111-2222,33,-118,33482 - CA,44444 W AAAA BBBB CCC Jr BlvdLos Angeles
1745,CA,33483,(321) 111-2222,33,-118,33483 - CA,44444 W AAAA BBBB CCC Jr BlvdLos Angeles
1746,CA,33484,(321) 111-2222,33,-118,33484 - CA,44444 W AAAA BBBB CCC Jr BlvdLos Angeles
1747,CA,33485,(321) 111-2222,33,-118,33485 - CA,44444 W AAAA BBBB CCC Jr BlvdLos Angeles
1748,CA,33486,(321) 111-2222,33,-118,33486 - CA,44444 W AAAA BBBB CCC Jr BlvdLos Angeles
1749,CA,33487,(321) 111-2222,33,-118,33487 - CA,44444 W AAAA BBBB CCC Jr BlvdLos Angeles
1750,CA,33488,(321) 111-2222,33,-118,33488 - CA,44444 W AAAA BBBB CCC Jr BlvdLos Angeles
1751,CA,33489,(321) 111-2222,33,-118,33489 - CA,44444 W AAAA BBBB CCC Jr BlvdLos Angeles
1752,CA,33490,(321) 111-2222,33,-118,33490 - CA,44444 W AAAA BBBB CCC Jr BlvdLos Angeles
1753,CA,33491,(321) 111-2222,33,-118,33491 - CA,44444 W AAAA BBBB CCC Jr BlvdLos Angeles
1754,CA,33492,(321) 111-2222,33,-118,33492 - CA,44444 W AAAA BBBB CCC Jr BlvdLos Angeles
1755,CA,33493,(321) 111-2222,33,-118,33493 - CA,44444 W AAAA BBBB CCC Jr BlvdLos Angeles
1756,CA,33494,(321) 111-2222,33,-118,33494 - CA,44444 W AAAA BBBB CCC Jr BlvdLos Angeles
1757,CA,33495,(321) 111-2222,33,-118,33495 - CA,44444 W AAAA BBBB CCC Jr BlvdLos Angeles
1758,CA,33496,(321) 111-2222,33,-118,33496 - CA,44444 W AAAA BBBB CCC Jr BlvdLos Angeles
1759,CA,33497,(321) 111-2222,33,-118,33497 - CA,44444 W AAAA BBBB CCC Jr BlvdLos Angeles
1760,CA,33498,(321) 111-2222,33,-118,33498 - CA,44444 W AAAA BBBB CCC Jr BlvdLos Angeles
1761,CA,33499,(321) 111-2222,33,-118,33499 - CA,44444 W AAAA BBBB CCC Jr BlvdLos Angeles
1762,CA,33500,(321) 111-2222,33,-118,33500 - CA,44444 W AAAA BBBB CCC Jr BlvdLos Angeles
1763,CA,33501,(321) 111-2222,33,-118,33501 - CA,44444 W AAAA BBBB CCC Jr BlvdLos Angeles
1764,CA,33502,(321) 111-2222,33,-118,33502 - CA,44444 W AAAA BBBB CCC Jr BlvdLos Angeles
1765,CA,33503,(321) 111-2222,33,-118,33503 - CA,44444 W AAAA BBBB CCC Jr BlvdLos Angeles
1766,CA,33504,(321) 111-2222,33,-118,33504 - CA,44444 W AAAA BBBB CCC Jr BlvdLos Angeles
1767,CA,33505,(321) 111-2222,33,-118,33505 - CA,44444 W AAAA BBBB CCC Jr BlvdLos Angeles
1768,CA,33506,(321) 111-2222,33,-118,33506 - CA,44444 W AAAA BBBB CCC Jr BlvdLos Angeles
1769,CA,33507,(321) 111-2222,33,-118,33507 - CA,44444 W AAAA BBBB CCC Jr BlvdLos Angeles
1770,CA,33508,(321) 111-2222,33,-118,33508 - CA,44444 W AAAA BBBB CCC Jr BlvdLos Angeles
1771,CA,33509,(321) 111-2222,33,-118,33509 - CA,44444 W AAAA BBBB CCC Jr BlvdLos Angeles
1772,CA,33510,(321) 111-2222,33,-118,33510 - CA,44444 W AAAA BBBB CCC Jr BlvdLos Angeles
1773,CA,33511,(321) 111-2222,33,-118,33511 - CA,44444 W AAAA BBBB CCC Jr BlvdLos Angeles
1774,CA,33512,(321) 111-2222,33,-118,33512 - CA,44444 W AAAA BBBB CCC Jr BlvdLos Angeles
1775,CA,33513,(321) 111-2222,33,-118,33513 - CA,44444 W AAAA BBBB CCC Jr BlvdLos Angeles
1776,CA,33514,(321) 111-2222,33,-118,33514 - CA,44444 W AAAA BBBB CCC Jr BlvdLos Angeles
1777,CA,33515,(321) 111-2222,33,-118,33515 - CA,44444 W AAAA BBBB CCC Jr BlvdLos Angeles
1778,CA,33516,(321) 111-2222,33,-118,33516 - CA,44444 W AAAA BBBB CCC Jr BlvdLos Angeles
1779,CA,33517,(321) 111-2222,33,-118,33517 - CA,44444 W AAAA BBBB CCC Jr BlvdLos Angeles
1780,CA,33518,(321) 111-2222,33,-118,33518 - CA,44444 W AAAA BBBB CCC Jr BlvdLos Angeles
1781,CA,33519,(321) 111-2222,33,-118,33519 - CA,44444 W AAAA BBBB CCC Jr BlvdLos Angeles
